InventoryID,Glottocode,ISO6393,LanguageName,SpecificDialect,GlyphID,Phoneme,Allophones,Marginal,SegmentClass,Source,tone,stress,syllabic,short,long,consonantal,sonorant,continuant,delayedRelease,approximant,tap,trill,nasal,lateral,labial,round,labiodental,coronal,anterior,distributed,strident,dorsal,high,low,front,back,tense,retractedTongueRoot,advancedTongueRoot,periodicGlottalSource,epilaryngealSource,spreadGlottis,constrictedGlottis,fortis,raisedLarynxEjective,loweredLarynxImplosive,click
1,kore1280,kor,NA,NA,2.00E+05,˥,NA,FALSE,tone,fake,+,0,0,0,0,0,0,0,0,0,0,0,0,0,0,0,0,0,0,0,0,0,0,0,0,0,0,0,0,0,0,0,0,0,0,0,0
1,kore1280,kor,NA,NA,02E5+0330,˥̰,NA,FALSE,tone,fake,+,0,0,0,0,0,0,0,0,0,0,0,0,0,0,0,0,0,0,0,0,0,0,0,0,0,0,0,0,+,0,-,+,0,0,0,0
1,kore1280,kor,NA,NA,02E5+02E6+02C0,˥˦ˀ,NA,FALSE,tone,fake,+,0,0,0,0,0,0,0,0,0,0,0,0,0,0,0,0,0,0,0,0,0,0,0,0,0,0,0,0,0,0,-,+,0,0,0,0
1,kore1280,kor,NA,NA,02E5+02E7,˥˧,NA,FALSE,tone,fake,+,0,0,0,0,0,0,0,0,0,0,0,0,0,0,0,0,0,0,0,0,0,0,0,0,0,0,0,0,0,0,0,0,0,0,0,0
1,kore1280,kor,NA,NA,02E5+02E8,˥˨,NA,FALSE,tone,fake,+,0,0,0,0,0,0,0,0,0,0,0,0,0,0,0,0,0,0,0,0,0,0,0,0,0,0,0,0,0,0,0,0,0,0,0,0
1,kore1280,kor,NA,NA,02E5+02E8+02C0,˥˨ˀ,NA,FALSE,tone,fake,+,0,0,0,0,0,0,0,0,0,0,0,0,0,0,0,0,0,0,0,0,0,0,0,0,0,0,0,0,0,0,-,+,0,0,0,0
1,kore1280,kor,NA,NA,02E5+02E9,˥˩,NA,FALSE,tone,fake,+,0,0,0,0,0,0,0,0,0,0,0,0,0,0,0,0,0,0,0,0,0,0,0,0,0,0,0,0,0,0,0,0,0,0,0,0
1,kore1280,kor,NA,NA,02E5+02E9+0330,˥˩̰,NA,FALSE,tone,fake,+,0,0,0,0,0,0,0,0,0,0,0,0,0,0,0,0,0,0,0,0,0,0,0,0,0,0,0,0,+,0,-,+,0,0,0,0
1,kore1280,kor,NA,NA,02E5+02C0,˥ˀ,NA,FALSE,tone,fake,+,0,0,0,0,0,0,0,0,0,0,0,0,0,0,0,0,0,0,0,0,0,0,0,0,0,0,0,0,0,0,-,+,0,0,0,0
1,kore1280,kor,NA,NA,2.00E+06,˦,NA,FALSE,tone,fake,+,0,0,0,0,0,0,0,0,0,0,0,0,0,0,0,0,0,0,0,0,0,0,0,0,0,0,0,0,0,0,0,0,0,0,0,0
1,kore1280,kor,NA,NA,02E6+0330,˦̰,NA,FALSE,tone,fake,+,0,0,0,0,0,0,0,0,0,0,0,0,0,0,0,0,0,0,0,0,0,0,0,0,0,0,0,0,+,0,-,+,0,0,0,0
1,kore1280,kor,NA,NA,02E6+02E5+02E9,˦˥˩,NA,FALSE,tone,fake,+,0,0,0,0,0,0,0,0,0,0,0,0,0,0,0,0,0,0,0,0,0,0,0,0,0,0,0,0,0,0,0,0,0,0,0,0
1,kore1280,kor,NA,NA,02E6+02E8,˦˨,NA,FALSE,tone,fake,+,0,0,0,0,0,0,0,0,0,0,0,0,0,0,0,0,0,0,0,0,0,0,0,0,0,0,0,0,0,0,0,0,0,0,0,0
1,kore1280,kor,NA,NA,02E6+02E8+0330,˦˨̰,NA,FALSE,tone,fake,+,0,0,0,0,0,0,0,0,0,0,0,0,0,0,0,0,0,0,0,0,0,0,0,0,0,0,0,0,+,0,-,+,0,0,0,0
1,kore1280,kor,NA,NA,02E6+02E8+02C0,˦˨ˀ,NA,FALSE,tone,fake,+,0,0,0,0,0,0,0,0,0,0,0,0,0,0,0,0,0,0,0,0,0,0,0,0,0,0,0,0,0,0,-,+,0,0,0,0
1,kore1280,kor,NA,NA,02E6+02E9+0324,˦˩̤,NA,FALSE,tone,fake,+,0,0,0,0,0,0,0,0,0,0,0,0,0,0,0,0,0,0,0,0,0,0,0,0,0,0,0,0,+,0,+,-,0,0,0,0
1,kore1280,kor,NA,NA,2.00E+07,˧,NA,FALSE,tone,fake,+,0,0,0,0,0,0,0,0,0,0,0,0,0,0,0,0,0,0,0,0,0,0,0,0,0,0,0,0,0,0,0,0,0,0,0,0
1,kore1280,kor,NA,NA,02E7+0324,˧̤,NA,FALSE,tone,fake,+,0,0,0,0,0,0,0,0,0,0,0,0,0,0,0,0,0,0,0,0,0,0,0,0,0,0,0,0,+,0,+,-,0,0,0,0
1,kore1280,kor,NA,NA,02E7+02E5,˧˥,NA,FALSE,tone,fake,+,0,0,0,0,0,0,0,0,0,0,0,0,0,0,0,0,0,0,0,0,0,0,0,0,0,0,0,0,0,0,0,0,0,0,0,0
1,kore1280,kor,NA,NA,02E7+02E5+02E9,˧˥˩,NA,FALSE,tone,fake,+,0,0,0,0,0,0,0,0,0,0,0,0,0,0,0,0,0,0,0,0,0,0,0,0,0,0,0,0,0,0,0,0,0,0,0,0
1,kore1280,kor,NA,NA,02E7+02E9,˧˩,NA,FALSE,tone,fake,+,0,0,0,0,0,0,0,0,0,0,0,0,0,0,0,0,0,0,0,0,0,0,0,0,0,0,0,0,0,0,0,0,0,0,0,0
1,kore1280,kor,NA,NA,02E7+02E9+0324,˧˩̤,NA,FALSE,tone,fake,+,0,0,0,0,0,0,0,0,0,0,0,0,0,0,0,0,0,0,0,0,0,0,0,0,0,0,0,0,+,0,+,-,0,0,0,0
1,kore1280,kor,NA,NA,02E7+02E9+02E7+0324,˧˩˧̤,NA,FALSE,tone,fake,+,0,0,0,0,0,0,0,0,0,0,0,0,0,0,0,0,0,0,0,0,0,0,0,0,0,0,0,0,+,0,+,-,0,0,0,0
1,kore1280,kor,NA,NA,2.00E+08,˨,NA,FALSE,tone,fake,+,0,0,0,0,0,0,0,0,0,0,0,0,0,0,0,0,0,0,0,0,0,0,0,0,0,0,0,0,0,0,0,0,0,0,0,0
1,kore1280,kor,NA,NA,02E8+0324,˨̤,NA,FALSE,tone,fake,+,0,0,0,0,0,0,0,0,0,0,0,0,0,0,0,0,0,0,0,0,0,0,0,0,0,0,0,0,+,0,+,-,0,0,0,0
1,kore1280,kor,NA,NA,02E8+02E5,˨˥,NA,FALSE,tone,fake,+,0,0,0,0,0,0,0,0,0,0,0,0,0,0,0,0,0,0,0,0,0,0,0,0,0,0,0,0,0,0,0,0,0,0,0,0
1,kore1280,kor,NA,NA,02E8+02E6,˨˦,NA,FALSE,tone,fake,+,0,0,0,0,0,0,0,0,0,0,0,0,0,0,0,0,0,0,0,0,0,0,0,0,0,0,0,0,0,0,0,0,0,0,0,0
1,kore1280,kor,NA,NA,02E8+02E7,˨˧,NA,FALSE,tone,fake,+,0,0,0,0,0,0,0,0,0,0,0,0,0,0,0,0,0,0,0,0,0,0,0,0,0,0,0,0,0,0,0,0,0,0,0,0
1,kore1280,kor,NA,NA,02E8+02E9,˨˩,NA,FALSE,tone,fake,+,0,0,0,0,0,0,0,0,0,0,0,0,0,0,0,0,0,0,0,0,0,0,0,0,0,0,0,0,0,0,0,0,0,0,0,0
1,kore1280,kor,NA,NA,02E8+02E9+0320,˨˩̠,NA,FALSE,tone,fake,+,0,0,0,0,0,0,0,0,0,0,0,0,0,0,0,0,0,-,+,0,0,0,0,0,0,0,0,0,0,0,0,0,0,0,0,0
1,kore1280,kor,NA,NA,02E8+02E9+0324,˨˩̤,NA,FALSE,tone,fake,+,0,0,0,0,0,0,0,0,0,0,0,0,0,0,0,0,0,0,0,0,0,0,0,0,0,0,0,0,+,0,+,-,0,0,0,0
1,kore1280,kor,NA,NA,02E8+02E9+02C0,˨˩ˀ,NA,FALSE,tone,fake,+,0,0,0,0,0,0,0,0,0,0,0,0,0,0,0,0,0,0,0,0,0,0,0,0,0,0,0,0,0,0,-,+,0,0,0,0
1,kore1280,kor,NA,NA,02E8+02E9+0330+02C0,˨˩̰ˀ,NA,FALSE,tone,fake,+,0,0,0,0,0,0,0,0,0,0,0,0,0,0,0,0,0,0,0,0,0,0,0,0,0,0,0,0,+,0,-,+,0,0,0,0
1,kore1280,kor,NA,NA,2.00E+09,˩,NA,FALSE,tone,fake,+,0,0,0,0,0,0,0,0,0,0,0,0,0,0,0,0,0,0,0,0,0,0,0,0,0,0,0,0,0,0,0,0,0,0,0,0
1,kore1280,kor,NA,NA,02E9+02E5,˩˥,NA,FALSE,tone,fake,+,0,0,0,0,0,0,0,0,0,0,0,0,0,0,0,0,0,0,0,0,0,0,0,0,0,0,0,0,0,0,0,0,0,0,0,0
1,kore1280,kor,NA,NA,02E9+02E5+02E9,˩˥˩,NA,FALSE,tone,fake,+,0,0,0,0,0,0,0,0,0,0,0,0,0,0,0,0,0,0,0,0,0,0,0,0,0,0,0,0,0,0,0,0,0,0,0,0
1,kore1280,kor,NA,NA,02E9+02E8,˩˨,NA,FALSE,tone,fake,+,0,0,0,0,0,0,0,0,0,0,0,0,0,0,0,0,0,0,0,0,0,0,0,0,0,0,0,0,0,0,0,0,0,0,0,0
1,kore1280,kor,NA,NA,02E9+02E8+0324,˩˨̤,NA,FALSE,tone,fake,+,0,0,0,0,0,0,0,0,0,0,0,0,0,0,0,0,0,0,0,0,0,0,0,0,0,0,0,0,+,0,+,-,0,0,0,0
1,kore1280,kor,NA,NA,02E9+02C0,˩ˀ,NA,FALSE,tone,fake,+,0,0,0,0,0,0,0,0,0,0,0,0,0,0,0,0,0,0,0,0,0,0,0,0,0,0,0,0,0,0,-,+,0,0,0,0
1,kore1280,kor,NA,NA,61,a,NA,FALSE,vowel,fake,0,-,+,-,-,-,+,+,0,+,-,-,-,-,-,0,0,-,0,0,0,+,-,+,-,-,0,-,-,+,-,-,-,0,-,-,0
1,kore1280,kor,NA,NA,0061+0306,ă,NA,FALSE,vowel,fake,0,-,+,+,-,-,+,+,0,+,-,-,-,-,-,0,0,-,0,0,0,+,-,+,-,-,0,-,-,+,-,-,-,0,-,-,0
1,kore1280,kor,NA,NA,0061+0303,ã,NA,FALSE,vowel,fake,0,-,+,-,-,-,+,+,0,+,-,-,+,-,-,0,0,-,0,0,0,+,-,+,-,-,0,-,-,+,-,-,-,0,-,-,0
1,kore1280,kor,NA,NA,0061+032F,a̯,NA,FALSE,vowel,fake,0,-,-,-,-,-,+,+,0,+,-,-,-,-,-,0,0,-,0,0,0,+,-,+,-,-,0,-,-,+,-,-,-,0,-,-,0
1,kore1280,kor,NA,NA,0061+0324,a̤,NA,FALSE,vowel,fake,0,-,+,-,-,-,+,+,0,+,-,-,-,-,-,0,0,-,0,0,0,+,-,+,-,-,0,-,-,+,-,+,-,0,-,-,0
1,kore1280,kor,NA,NA,0061+0324+0303,ã̤,NA,FALSE,vowel,fake,0,-,+,-,-,-,+,+,0,+,-,-,+,-,-,0,0,-,0,0,0,+,-,+,-,-,0,-,-,+,-,+,-,0,-,-,0
1,kore1280,kor,NA,NA,0061+0325,ḁ,NA,FALSE,vowel,fake,0,-,+,-,-,-,+,+,0,+,-,-,-,-,-,0,0,-,0,0,0,+,-,+,-,-,0,-,-,-,-,-,-,0,-,-,0
1,kore1280,kor,NA,NA,0061+0330,a̰,NA,FALSE,vowel,fake,0,-,+,-,-,-,+,+,0,+,-,-,-,-,-,0,0,-,0,0,0,+,-,+,-,-,0,-,-,+,-,-,+,0,-,-,0
1,kore1280,kor,NA,NA,0061+0330+0303,ã̰,NA,FALSE,vowel,fake,0,-,+,-,-,-,+,+,0,+,-,-,+,-,-,0,0,-,0,0,0,+,-,+,-,-,0,-,-,+,-,-,+,0,-,-,0
1,kore1280,kor,NA,NA,0061+02D0,aː,NA,FALSE,vowel,fake,0,-,+,-,+,-,+,+,0,+,-,-,-,-,-,0,0,-,0,0,0,+,-,+,-,-,0,-,-,+,-,-,-,0,-,-,0
1,kore1280,kor,NA,NA,0061+0303+02D0,ãː,NA,FALSE,vowel,fake,0,-,+,-,+,-,+,+,0,+,-,-,+,-,-,0,0,-,0,0,0,+,-,+,-,-,0,-,-,+,-,-,-,0,-,-,0
1,kore1280,kor,NA,NA,0061+0324+02D0,a̤ː,NA,FALSE,vowel,fake,0,-,+,-,+,-,+,+,0,+,-,-,-,-,-,0,0,-,0,0,0,+,-,+,-,-,0,-,-,+,-,+,-,0,-,-,0
1,kore1280,kor,NA,NA,0061+0324+0303+02D0,ã̤ː,NA,FALSE,vowel,fake,0,-,+,-,+,-,+,+,0,+,-,-,+,-,-,0,0,-,0,0,0,+,-,+,-,-,0,-,-,+,-,+,-,0,-,-,0
1,kore1280,kor,NA,NA,0061+02D0+0069+032F,aːi̯,NA,FALSE,vowel,fake,0,-,"+,-",-,"+,-",-,+,+,0,+,-,-,-,-,-,0,0,-,0,0,0,+,"-,+","+,-","-,+",-,+,-,-,+,-,-,-,0,-,-,0
1,kore1280,kor,NA,NA,0061+02D0+0075+032F,aːu̯,NA,FALSE,vowel,fake,0,-,"+,-",-,"+,-",-,+,+,0,+,-,-,-,-,"-,+",+,-,-,0,0,0,+,"-,+","+,-",-,"-,+",+,-,-,+,-,-,-,0,-,-,0
1,kore1280,kor,NA,NA,0061+0065,ae,NA,FALSE,vowel,fake,0,-,+,-,-,-,+,+,0,+,-,-,-,-,-,0,0,-,0,0,0,+,-,"+,-","-,+",-,+,-,-,+,-,-,-,0,-,-,0
1,kore1280,kor,NA,NA,0061+0065+032F,ae̯,NA,FALSE,vowel,fake,0,-,"+,-",-,-,-,+,+,0,+,-,-,-,-,-,0,0,-,0,0,0,+,-,"+,-","-,+",-,+,-,-,+,-,-,-,0,-,-,0
1,kore1280,kor,NA,NA,0061+0303+0065+032F+0303,ãẽ̯,NA,FALSE,vowel,fake,0,-,"+,-",-,-,-,+,+,0,+,-,-,+,-,-,0,0,-,0,0,0,+,-,"+,-","-,+",-,+,-,-,+,-,-,-,0,-,-,0
1,kore1280,kor,NA,NA,0.00E+00,æ,NA,FALSE,vowel,fake,0,-,+,-,-,-,+,+,0,+,-,-,-,-,-,0,0,-,0,0,0,+,-,+,+,-,0,-,-,+,-,-,-,0,-,-,0
1,kore1280,kor,NA,NA,00E6+02DE,æ˞,NA,FALSE,vowel,fake,0,-,+,-,-,-,+,+,0,+,-,-,-,-,-,0,0,+,+,+,+,+,-,+,+,-,0,-,-,+,-,-,-,0,-,-,0
1,kore1280,kor,NA,NA,00E6+02DE+02D0,æ˞ː,NA,FALSE,vowel,fake,0,-,+,-,+,-,+,+,0,+,-,-,-,-,-,0,0,+,+,+,+,+,-,+,+,-,0,-,-,+,-,-,-,0,-,-,0
1,kore1280,kor,NA,NA,00E6+02D0,æː,NA,FALSE,vowel,fake,0,-,+,-,+,-,+,+,0,+,-,-,-,-,-,0,0,-,0,0,0,+,-,+,+,-,0,-,-,+,-,-,-,0,-,-,0
1,kore1280,kor,NA,NA,00E6+0303+02D0,æ̃ː,NA,FALSE,vowel,fake,0,-,+,-,+,-,+,+,0,+,-,-,+,-,-,0,0,-,0,0,0,+,-,+,+,-,0,-,-,+,-,-,-,0,-,-,0
1,kore1280,kor,NA,NA,00E6+0065+032F,æe̯,NA,FALSE,vowel,fake,0,-,"+,-",-,-,-,+,+,0,+,-,-,-,-,-,0,0,-,0,0,0,+,-,"+,-",+,-,+,-,-,+,-,-,-,0,-,-,0
1,kore1280,kor,NA,NA,00E6+0069,æi,NA,FALSE,vowel,fake,0,-,+,-,-,-,+,+,0,+,-,-,-,-,-,0,0,-,0,0,0,+,"-,+","+,-",+,-,+,-,-,+,-,-,-,0,-,-,0
1,kore1280,kor,NA,NA,00E6+0069+032F,æi̯,NA,FALSE,vowel,fake,0,-,"+,-",-,-,-,+,+,0,+,-,-,-,-,-,0,0,-,0,0,0,+,"-,+","+,-",+,-,+,-,-,+,-,-,-,0,-,-,0
1,kore1280,kor,NA,NA,00E6+0075,æu,NA,FALSE,vowel,fake,0,-,+,-,-,-,+,+,0,+,-,-,-,-,"-,+",+,-,-,0,0,0,+,"-,+","+,-","+,-","-,+",+,-,-,+,-,-,-,0,-,-,0
1,kore1280,kor,NA,NA,00E6+0075+032F,æu̯,NA,FALSE,vowel,fake,0,-,"+,-",-,-,-,+,+,0,+,-,-,-,-,"-,+",+,-,-,0,0,0,+,"-,+","+,-","+,-","-,+",+,-,-,+,-,-,-,0,-,-,0
1,kore1280,kor,NA,NA,0061+025B,aɛ,NA,FALSE,vowel,fake,0,-,+,-,-,-,+,+,0,+,-,-,-,-,-,0,0,-,0,0,0,+,-,"+,-","-,+",-,-,-,-,+,-,-,-,0,-,-,0
1,kore1280,kor,NA,NA,0061+0069,ai,NA,FALSE,vowel,fake,0,-,+,-,-,-,+,+,0,+,-,-,-,-,-,0,0,-,0,0,0,+,"-,+","+,-","-,+",-,+,-,-,+,-,-,-,0,-,-,0
1,kore1280,kor,NA,NA,0061+0069+032F,ai̯,NA,FALSE,vowel,fake,0,-,"+,-",-,-,-,+,+,0,+,-,-,-,-,-,0,0,-,0,0,0,+,"-,+","+,-","-,+",-,+,-,-,+,-,-,-,0,-,-,0
1,kore1280,kor,NA,NA,0061+0303+0069,ãi,NA,FALSE,vowel,fake,0,-,+,-,-,-,+,+,0,+,-,-,"+,-",-,-,0,0,-,0,0,0,+,"-,+","+,-","-,+",-,+,-,-,+,-,-,-,0,-,-,0
1,kore1280,kor,NA,NA,0061+0303+0069+032F,ãi̯,NA,FALSE,vowel,fake,0,-,"+,-",-,-,-,+,+,0,+,-,-,"+,-",-,-,0,0,-,0,0,0,+,"-,+","+,-","-,+",-,+,-,-,+,-,-,-,0,-,-,0
1,kore1280,kor,NA,NA,0061+0303+0069+032F+0303,ãĩ̯,NA,FALSE,vowel,fake,0,-,"+,-",-,-,-,+,+,0,+,-,-,+,-,-,0,0,-,0,0,0,+,"-,+","+,-","-,+",-,+,-,-,+,-,-,-,0,-,-,0
1,kore1280,kor,NA,NA,0061+026A,aɪ,NA,FALSE,vowel,fake,0,-,+,-,-,-,+,+,0,+,-,-,-,-,-,0,0,-,0,0,0,+,"-,+","+,-","-,+",-,-,-,-,+,-,-,-,0,-,-,0
1,kore1280,kor,NA,NA,0061+0303+026A,ãɪ,NA,FALSE,vowel,fake,0,-,+,-,-,-,+,+,0,+,-,-,"+,-",-,-,0,0,-,0,0,0,+,"-,+","+,-","-,+",-,-,-,-,+,-,-,-,0,-,-,0
1,kore1280,kor,NA,NA,0061+0324+0303+026A,ã̤ɪ,NA,FALSE,vowel,fake,0,-,+,-,-,-,+,+,0,+,-,-,"+,-",-,-,0,0,-,0,0,0,+,"-,+","+,-","-,+",-,-,-,-,+,-,"+,-",-,0,-,-,0
1,kore1280,kor,NA,NA,0061+0330+0303+026A,ã̰ɪ,NA,FALSE,vowel,fake,0,-,+,-,-,-,+,+,0,+,-,-,"+,-",-,-,0,0,-,0,0,0,+,"-,+","+,-","-,+",-,-,-,-,+,-,-,"+,-",0,-,-,0
1,kore1280,kor,NA,NA,0061+026A+02C0,aɪˀ,NA,FALSE,vowel,fake,0,-,+,-,-,-,+,+,0,+,-,-,-,-,-,0,0,-,0,0,0,+,"-,+","+,-","-,+",-,-,-,-,+,-,-,"-,+",0,-,-,0
1,kore1280,kor,NA,NA,0061+006F,ao,NA,FALSE,vowel,fake,0,-,+,-,-,-,+,+,0,+,-,-,-,-,"-,+",+,-,-,0,0,0,+,-,"+,-",-,"-,+",+,-,-,+,-,-,-,0,-,-,0
1,kore1280,kor,NA,NA,0061+006F+032F,ao̯,NA,FALSE,vowel,fake,0,-,"+,-",-,-,-,+,+,0,+,-,-,-,-,"-,+",+,-,-,0,0,0,+,-,"+,-",-,"-,+",+,-,-,+,-,-,-,0,-,-,0
1,kore1280,kor,NA,NA,0061+0303+006F,ão,NA,FALSE,vowel,fake,0,-,+,-,-,-,+,+,0,+,-,-,"+,-",-,"-,+",+,-,-,0,0,0,+,-,"+,-",-,"-,+",+,-,-,+,-,-,-,0,-,-,0
1,kore1280,kor,NA,NA,0061+0303+006F+032F,ão̯,NA,FALSE,vowel,fake,0,-,"+,-",-,-,-,+,+,0,+,-,-,"+,-",-,"-,+",+,-,-,0,0,0,+,-,"+,-",-,"-,+",+,-,-,+,-,-,-,0,-,-,0
1,kore1280,kor,NA,NA,0061+0303+006F+032F+0303,ãõ̯,NA,FALSE,vowel,fake,0,-,"+,-",-,-,-,+,+,0,+,-,-,+,-,"-,+",+,-,-,0,0,0,+,-,"+,-",-,"-,+",+,-,-,+,-,-,-,0,-,-,0
1,kore1280,kor,NA,NA,0061+0075,au,NA,FALSE,vowel,fake,0,-,+,-,-,-,+,+,0,+,-,-,-,-,"-,+",+,-,-,0,0,0,+,"-,+","+,-",-,"-,+",+,-,-,+,-,-,-,0,-,-,0
1,kore1280,kor,NA,NA,0061+0075+032F,au̯,NA,FALSE,vowel,fake,0,-,"+,-",-,-,-,+,+,0,+,-,-,-,-,"-,+",+,-,-,0,0,0,+,"-,+","+,-",-,"-,+",+,-,-,+,-,-,-,0,-,-,0
1,kore1280,kor,NA,NA,0061+0303+0075+032F+0303,ãũ̯,NA,FALSE,vowel,fake,0,-,"+,-",-,-,-,+,+,0,+,-,-,+,-,"-,+",+,-,-,0,0,0,+,"-,+","+,-",-,"-,+",+,-,-,+,-,-,-,0,-,-,0
1,kore1280,kor,NA,NA,0061+028A+032F,aʊ̯,NA,FALSE,vowel,fake,0,-,"+,-",-,-,-,+,+,0,+,-,-,-,-,"-,+",+,-,-,0,0,0,+,"-,+","+,-",-,"-,+",-,-,-,+,-,-,-,0,-,-,0
1,kore1280,kor,NA,NA,0061+0303+028A,ãʊ,NA,FALSE,vowel,fake,0,-,+,-,-,-,+,+,0,+,-,-,"+,-",-,"-,+",+,-,-,0,0,0,+,"-,+","+,-",-,"-,+",-,-,-,+,-,-,-,0,-,-,0
1,kore1280,kor,NA,NA,0061+0324+0303+028A,ã̤ʊ,NA,FALSE,vowel,fake,0,-,+,-,-,-,+,+,0,+,-,-,"+,-",-,"-,+",+,-,-,0,0,0,+,"-,+","+,-",-,"-,+",-,-,-,+,-,"+,-",-,0,-,-,0
1,kore1280,kor,NA,NA,0061+0330+0303+028A,ã̰ʊ,NA,FALSE,vowel,fake,0,-,+,-,-,-,+,+,0,+,-,-,"+,-",-,"-,+",+,-,-,0,0,0,+,"-,+","+,-",-,"-,+",-,-,-,+,-,-,"+,-",0,-,-,0
1,kore1280,kor,NA,NA,0061+028A+02C0,aʊˀ,NA,FALSE,vowel,fake,0,-,+,-,-,-,+,+,0,+,-,-,-,-,"-,+",+,-,-,0,0,0,+,"-,+","+,-",-,"-,+",-,-,-,+,-,-,"-,+",0,-,-,0
1,kore1280,kor,NA,NA,0061+02C0,aˀ,NA,FALSE,vowel,fake,0,-,+,-,-,-,+,+,0,+,-,-,-,-,-,0,0,-,0,0,0,+,-,+,-,-,0,-,-,+,-,-,+,0,-,-,0
1,kore1280,kor,NA,NA,250,ɐ,NA,FALSE,vowel,fake,0,-,+,-,-,-,+,+,0,+,-,-,-,-,+,+,-,-,0,0,0,+,-,+,-,-,0,-,-,+,-,-,-,0,-,-,0
1,kore1280,kor,NA,NA,0250+0306,ɐ̆,NA,FALSE,vowel,fake,0,-,+,+,-,-,+,+,0,+,-,-,-,-,+,+,-,-,0,0,0,+,-,+,-,-,0,-,-,+,-,-,-,0,-,-,0
1,kore1280,kor,NA,NA,0250+0303,ɐ̃,NA,FALSE,vowel,fake,0,-,+,-,-,-,+,+,0,+,-,-,+,-,+,+,-,-,0,0,0,+,-,+,-,-,0,-,-,+,-,-,-,0,-,-,0
1,kore1280,kor,NA,NA,0250+02D0,ɐː,NA,FALSE,vowel,fake,0,-,+,-,+,-,+,+,0,+,-,-,-,-,+,+,-,-,0,0,0,+,-,+,-,-,0,-,-,+,-,-,-,0,-,-,0
1,kore1280,kor,NA,NA,0250+0065+032F,ɐe̯,NA,FALSE,vowel,fake,0,-,"+,-",-,-,-,+,+,0,+,-,-,-,-,"+,-",+,-,-,0,0,0,+,-,"+,-","-,+",-,+,-,-,+,-,-,-,0,-,-,0
1,kore1280,kor,NA,NA,0250+0069,ɐi,NA,FALSE,vowel,fake,0,-,+,-,-,-,+,+,0,+,-,-,-,-,"+,-",+,-,-,0,0,0,+,"-,+","+,-","-,+",-,+,-,-,+,-,-,-,0,-,-,0
1,kore1280,kor,NA,NA,0250+0069+032F,ɐi̯,NA,FALSE,vowel,fake,0,-,"+,-",-,-,-,+,+,0,+,-,-,-,-,"+,-",+,-,-,0,0,0,+,"-,+","+,-","-,+",-,+,-,-,+,-,-,-,0,-,-,0
1,kore1280,kor,NA,NA,0250+0075,ɐu,NA,FALSE,vowel,fake,0,-,+,-,-,-,+,+,0,+,-,-,-,-,+,+,-,-,0,0,0,+,"-,+","+,-",-,"-,+",+,-,-,+,-,-,-,0,-,-,0
1,kore1280,kor,NA,NA,0250+0075+032F,ɐu̯,NA,FALSE,vowel,fake,0,-,"+,-",-,-,-,+,+,0,+,-,-,-,-,+,+,-,-,0,0,0,+,"-,+","+,-",-,"-,+",+,-,-,+,-,-,-,0,-,-,0
1,kore1280,kor,NA,NA,251,ɑ,NA,FALSE,vowel,fake,0,-,+,-,-,-,+,+,0,+,-,-,-,-,-,0,0,-,0,0,0,+,-,+,-,+,0,-,-,+,-,-,-,0,-,-,0
1,kore1280,kor,NA,NA,0251+0303,ɑ̃,NA,FALSE,vowel,fake,0,-,+,-,-,-,+,+,0,+,-,-,+,-,-,0,0,-,0,0,0,+,-,+,-,+,0,-,-,+,-,-,-,0,-,-,0
1,kore1280,kor,NA,NA,0251+0324,ɑ̤,NA,FALSE,vowel,fake,0,-,+,-,-,-,+,+,0,+,-,-,-,-,-,0,0,-,0,0,0,+,-,+,-,+,0,-,-,+,-,+,-,0,-,-,0
1,kore1280,kor,NA,NA,0251+0324+0303,ɑ̤̃,NA,FALSE,vowel,fake,0,-,+,-,-,-,+,+,0,+,-,-,+,-,-,0,0,-,0,0,0,+,-,+,-,+,0,-,-,+,-,+,-,0,-,-,0
1,kore1280,kor,NA,NA,0251+02DE,ɑ˞,NA,FALSE,vowel,fake,0,-,+,-,-,-,+,+,0,+,-,-,-,-,-,0,0,+,+,+,+,+,-,+,-,+,0,-,-,+,-,-,-,0,-,-,0
1,kore1280,kor,NA,NA,0251+02DE+02D0,ɑ˞ː,NA,FALSE,vowel,fake,0,-,+,-,+,-,+,+,0,+,-,-,-,-,-,0,0,+,+,+,+,+,-,+,-,+,0,-,-,+,-,-,-,0,-,-,0
1,kore1280,kor,NA,NA,0251+02D0,ɑː,NA,FALSE,vowel,fake,0,-,+,-,+,-,+,+,0,+,-,-,-,-,-,0,0,-,0,0,0,+,-,+,-,+,0,-,-,+,-,-,-,0,-,-,0
1,kore1280,kor,NA,NA,0251+0303+02D0,ɑ̃ː,NA,FALSE,vowel,fake,0,-,+,-,+,-,+,+,0,+,-,-,+,-,-,0,0,-,0,0,0,+,-,+,-,+,0,-,-,+,-,-,-,0,-,-,0
1,kore1280,kor,NA,NA,0251+0324+02D0,ɑ̤ː,NA,FALSE,vowel,fake,0,-,+,-,+,-,+,+,0,+,-,-,-,-,-,0,0,-,0,0,0,+,-,+,-,+,0,-,-,+,-,+,-,0,-,-,0
1,kore1280,kor,NA,NA,0251+0324+0303+02D0,ɑ̤̃ː,NA,FALSE,vowel,fake,0,-,+,-,+,-,+,+,0,+,-,-,+,-,-,0,0,-,0,0,0,+,-,+,-,+,0,-,-,+,-,+,-,0,-,-,0
1,kore1280,kor,NA,NA,0251+0069,ɑi,NA,FALSE,vowel,fake,0,-,+,-,-,-,+,+,0,+,-,-,-,-,-,0,0,-,0,0,0,+,"-,+","+,-","-,+","+,-",+,-,-,+,-,-,-,0,-,-,0
1,kore1280,kor,NA,NA,0251+0069+032F,ɑi̯,NA,FALSE,vowel,fake,0,-,"+,-",-,-,-,+,+,0,+,-,-,-,-,-,0,0,-,0,0,0,+,"-,+","+,-","-,+","+,-",+,-,-,+,-,-,-,0,-,-,0
1,kore1280,kor,NA,NA,0251+006F+032F,ɑo̯,NA,FALSE,vowel,fake,0,-,"+,-",-,-,-,+,+,0,+,-,-,-,-,"-,+",+,-,-,0,0,0,+,-,"+,-",-,+,+,-,-,+,-,-,-,0,-,-,0
1,kore1280,kor,NA,NA,0251+0075,ɑu,NA,FALSE,vowel,fake,0,-,+,-,-,-,+,+,0,+,-,-,-,-,"-,+",+,-,-,0,0,0,+,"-,+","+,-",-,+,+,-,-,+,-,-,-,0,-,-,0
1,kore1280,kor,NA,NA,0251+0075+032F,ɑu̯,NA,FALSE,vowel,fake,0,-,"+,-",-,-,-,+,+,0,+,-,-,-,-,"-,+",+,-,-,0,0,0,+,"-,+","+,-",-,+,+,-,-,+,-,-,-,0,-,-,0
1,kore1280,kor,NA,NA,0251+028A,ɑʊ,NA,FALSE,vowel,fake,0,-,+,-,-,-,+,+,0,+,-,-,-,-,"-,+",+,-,-,0,0,0,+,"-,+","+,-",-,+,-,-,-,+,-,-,-,0,-,-,0
1,kore1280,kor,NA,NA,252,ɒ,NA,FALSE,vowel,fake,0,-,+,-,-,-,+,+,0,+,-,-,-,-,+,+,-,-,0,0,0,+,-,+,-,+,0,-,-,+,-,-,-,0,-,-,0
1,kore1280,kor,NA,NA,0252+0254,ɒɔ,NA,FALSE,vowel,fake,0,-,+,-,-,-,+,+,0,+,-,-,-,-,+,+,-,-,0,0,0,+,-,"+,-",-,+,-,-,-,+,-,-,-,0,-,-,0
1,kore1280,kor,NA,NA,62,b,NA,FALSE,consonant,fake,0,-,-,-,-,+,-,-,-,-,-,-,-,-,+,-,-,-,0,0,0,-,0,0,0,0,0,0,0,+,-,-,-,-,-,-,-
1,kore1280,kor,NA,NA,0062+0330,b̰,NA,FALSE,consonant,fake,0,-,-,-,-,+,-,-,-,-,-,-,-,-,+,-,-,-,0,0,0,-,0,0,0,0,0,0,0,+,-,-,+,-,-,-,-
1,kore1280,kor,NA,NA,0062+02DE,b˞,NA,FALSE,consonant,fake,0,-,-,-,-,+,-,-,-,-,-,-,-,-,+,-,-,+,+,+,+,+,0,0,0,0,0,0,0,+,-,-,-,-,-,-,-
1,kore1280,kor,NA,NA,0062+02B1,bʱ,NA,FALSE,consonant,fake,0,-,-,-,-,+,-,-,-,-,-,-,-,-,+,-,-,-,0,0,0,-,0,0,0,0,0,0,0,+,-,+,-,-,-,-,-
1,kore1280,kor,NA,NA,0062+02B2,bʲ,NA,FALSE,consonant,fake,0,-,-,-,-,+,-,-,-,-,-,-,-,-,+,-,-,-,0,0,0,+,+,-,+,-,0,0,0,+,-,-,-,-,-,-,-
1,kore1280,kor,NA,NA,0062+0076,bv,NA,FALSE,consonant,fake,0,-,-,-,-,+,-,-,+,-,-,-,-,-,+,-,+,-,0,0,0,-,0,0,0,0,0,0,0,+,-,-,-,-,-,-,-
1,kore1280,kor,NA,NA,0062+02B7,bʷ,NA,FALSE,consonant,fake,0,-,-,-,-,+,-,-,-,-,-,-,-,-,+,+,-,-,0,0,0,-,0,0,0,0,0,0,0,+,-,-,-,-,-,-,-
1,kore1280,kor,NA,NA,63,ʙ,NA,FALSE,consonant,fake,0,-,-,-,-,+,+,+,0,+,-,+,-,-,+,-,-,-,0,0,0,-,0,0,0,0,0,0,0,+,-,-,-,-,-,-,-
1,kore1280,kor,NA,NA,0.00E+00,c,NA,FALSE,consonant,fake,0,-,-,-,-,+,-,-,-,-,-,-,-,-,-,0,0,+,-,+,-,+,+,-,+,-,0,0,0,-,-,-,-,-,-,-,-
1,kore1280,kor,NA,NA,0063+00E7,ç,NA,FALSE,consonant,fake,0,-,-,-,-,+,-,+,+,-,-,-,-,-,-,0,0,+,-,+,-,+,+,-,+,-,0,0,0,-,-,-,-,-,-,-,-
1,kore1280,kor,NA,NA,0063+02B0,cç,NA,FALSE,consonant,fake,0,-,-,-,-,+,-,-,+,-,-,-,-,-,-,0,0,+,-,+,-,+,+,-,+,-,0,0,0,-,-,-,-,-,-,-,-
1,kore1280,kor,NA,NA,0063+02B7,cʰ,NA,FALSE,consonant,fake,0,-,-,-,-,+,-,-,-,-,-,-,-,-,-,0,0,+,-,+,-,+,+,-,+,-,0,0,0,-,-,+,-,-,-,-,-
1,kore1280,kor,NA,NA,00E7+02B7,cʷ,NA,FALSE,consonant,fake,0,-,-,-,-,+,-,-,-,-,-,-,-,-,+,+,-,+,-,+,-,+,+,-,+,-,0,0,0,-,-,-,-,-,-,-,-
1,kore1280,kor,NA,NA,255,çʷ,NA,FALSE,consonant,fake,0,-,-,-,-,+,-,+,+,-,-,-,-,-,+,+,-,+,-,+,-,+,+,-,+,-,0,0,0,-,-,-,-,-,-,-,-
1,kore1280,kor,NA,NA,0255+02B0,ɕ,NA,FALSE,consonant,fake,0,-,-,-,-,+,-,+,+,-,-,-,-,-,-,0,0,+,+,+,+,+,+,-,+,-,0,0,0,-,-,-,-,-,-,-,-
1,kore1280,kor,NA,NA,64,ɕʰ,NA,FALSE,consonant,fake,0,-,-,-,-,+,-,+,+,-,-,-,-,-,-,0,0,+,+,+,+,+,+,-,+,-,0,0,0,-,-,+,-,-,-,-,-
1,kore1280,kor,NA,NA,0064+032A,d,NA,FALSE,consonant,fake,0,-,-,-,-,+,-,-,-,-,-,-,-,-,-,0,0,+,+,-,-,-,0,0,0,0,0,0,0,+,-,-,-,-,-,-,-
ɨ,kore1280,kor,NA,NA,,d̪,NA,FALSE,consonant,fake,0,-,-,-,-,+,-,-,-,-,-,-,-,-,-,0,0,+,+,+,-,-,0,0,0,0,0,0,0,+,-,-,-,-,-,-,-
1,kore1280,kor,NA,NA,0064+033B,d̻,NA,FALSE,consonant,fake,0,-,-,-,-,+,-,-,-,-,-,-,-,-,-,0,0,+,+,+,-,-,0,0,0,0,0,0,0,+,-,-,-,-,-,-,-
1,kore1280,kor,NA,NA,00F0,ð,NA,FALSE,consonant,fake,0,-,-,-,-,+,-,+,+,-,-,-,-,-,-,0,0,+,+,+,-,-,0,0,0,0,0,0,0,+,-,-,-,-,-,-,-
1,kore1280,kor,NA,NA,00F0+031E,ð̞,NA,FALSE,consonant,fake,0,-,-,-,-,-,+,+,0,+,-,-,-,-,-,0,0,+,+,+,-,-,0,0,0,0,0,0,0,+,-,-,-,-,-,-,-
1,kore1280,kor,NA,NA,00F0+032A,ð̪,NA,FALSE,consonant,fake,0,-,-,-,-,+,-,+,+,-,-,-,-,-,-,0,0,+,+,+,-,-,0,0,0,0,0,0,0,+,-,-,-,-,-,-,-
1,kore1280,kor,NA,NA,0064+02D0,dː,NA,FALSE,consonant,fake,0,-,-,-,+,+,-,-,-,-,-,-,-,-,-,0,0,+,+,-,-,-,0,0,0,0,0,0,0,+,-,-,-,-,-,-,-
1,kore1280,kor,NA,NA,0064+02B1,dʙ,NA,FALSE,consonant,fake,0,-,-,-,-,+,"-,+","-,+",-,"-,+",-,"-,+",-,-,"-,+",-,-,"+,-",+,-,-,-,0,0,0,0,0,0,0,+,-,-,-,-,-,-,-
1,kore1280,kor,NA,NA,0064+02B2,dʱ,NA,FALSE,consonant,fake,0,-,-,-,-,+,-,-,-,-,-,-,-,-,-,0,0,+,+,-,-,-,0,0,0,0,0,0,0,+,-,+,-,-,-,-,-
1,kore1280,kor,NA,NA,0064+0320+02B2,dʲ,NA,FALSE,consonant,fake,0,-,-,-,-,+,-,-,-,-,-,-,-,-,-,0,0,+,+,-,-,+,+,-,+,-,0,0,0,+,-,-,-,-,-,-,-
1,kore1280,kor,NA,NA,0064+02B7,d̠ʲ,NA,FALSE,consonant,fake,0,-,-,-,-,+,-,-,-,-,-,-,-,-,-,0,0,+,+,-,-,+,+,-,+,-,0,0,0,+,-,-,-,-,-,-,-
1,kore1280,kor,NA,NA,0064+007A,dʷ,NA,FALSE,consonant,fake,0,-,-,-,-,+,-,-,-,-,-,-,-,-,+,+,-,+,+,-,-,-,0,0,0,0,0,0,0,+,-,-,-,-,-,-,-
1,kore1280,kor,NA,NA,0064+007A+032A,dz,NA,FALSE,consonant,fake,0,-,-,-,-,+,-,-,+,-,-,-,-,-,-,0,0,+,+,-,+,-,0,0,0,0,0,0,0,+,-,-,-,-,-,-,-
1,kore1280,kor,NA,NA,0064+0290,d̪z̪,NA,FALSE,consonant,fake,0,-,-,-,-,+,-,-,+,-,-,-,-,-,-,0,0,+,+,+,+,-,0,0,0,0,0,0,0,+,-,-,-,-,-,-,-
1,kore1280,kor,NA,NA,0064+0291,dʑ,NA,FALSE,consonant,fake,0,-,-,-,-,+,-,+,+,-,-,-,-,-,-,0,0,+,+,+,+,+,+,-,+,-,0,0,0,+,-,-,-,-,-,-,-
1,kore1280,kor,NA,NA,0064+0291+02B1,dʑʱ,NA,FALSE,consonant,fake,0,-,-,-,-,+,-,+,+,-,-,-,-,-,-,0,0,+,+,+,+,+,+,-,+,-,0,0,0,+,-,+,-,-,-,-,-
1,kore1280,kor,NA,NA,0064+0292,d̠ʒ,NA,FALSE,consonant,fake,0,-,-,-,-,+,-,-,+,-,-,-,-,-,-,0,0,+,-,+,+,-,0,0,0,0,0,0,0,+,-,-,-,-,-,-,-
1,kore1280,kor,NA,NA,0064+0292+02B1,d̠ʒʱ,NA,FALSE,consonant,fake,0,-,-,-,-,+,-,-,+,-,-,-,-,-,-,0,0,+,-,+,+,-,0,0,0,0,0,0,0,+,-,+,-,-,-,-,-
1,kore1280,kor,NA,NA,256,ɖ,NA,FALSE,consonant,fake,0,-,-,-,-,+,-,-,-,-,-,-,-,-,-,0,0,+,-,-,-,-,0,0,0,0,0,0,0,+,-,-,-,-,-,-,-
1,kore1280,kor,NA,NA,65,ɖʐ,NA,FALSE,consonant,fake,0,-,-,-,-,+,-,-,+,-,-,-,-,-,-,0,0,+,-,-,+,-,0,0,0,0,0,0,0,+,-,-,-,-,-,-,-
1,kore1280,kor,NA,NA,0065+0306,e,NA,FALSE,vowel,fake,0,-,+,-,-,-,+,+,0,+,-,-,-,-,-,0,0,-,0,0,0,+,-,-,+,-,+,-,-,+,-,-,-,0,-,-,0
1,kore1280,kor,NA,NA,0065+0308,ĕ,NA,FALSE,vowel,fake,0,-,+,+,-,-,+,+,0,+,-,-,-,-,-,0,0,-,0,0,0,+,-,-,+,-,+,-,-,+,-,-,-,0,-,-,0
1,kore1280,kor,NA,NA,0065+0303,ë,NA,FALSE,vowel,fake,0,-,+,-,-,-,+,+,0,+,-,-,-,-,-,0,0,-,0,0,0,+,-,-,0,-,0,-,-,+,-,-,-,0,-,-,0
1,kore1280,kor,NA,NA,0065+031D,ẽ,NA,FALSE,vowel,fake,0,-,+,-,-,-,+,+,0,+,-,-,+,-,-,0,0,-,0,0,0,+,-,-,+,-,+,-,-,+,-,-,-,0,-,-,0
1,kore1280,kor,NA,NA,0065+031E,e̝,NA,FALSE,vowel,fake,0,-,+,-,-,-,+,+,0,+,-,-,-,-,-,0,0,-,0,0,0,+,0,-,+,-,+,-,-,+,-,-,-,0,-,-,0
1,kore1280,kor,NA,NA,0065+032F,e̞,NA,FALSE,vowel,fake,0,-,+,-,-,-,+,+,0,+,-,-,-,-,-,0,0,-,0,0,0,+,-,-,+,-,0,-,-,+,-,-,-,0,-,-,0
1,kore1280,kor,NA,NA,0065+0324,e̯,NA,FALSE,vowel,fake,0,-,-,-,-,-,+,+,0,+,-,-,-,-,-,0,0,-,0,0,0,+,-,-,+,-,+,-,-,+,-,-,-,0,-,-,0
1,kore1280,kor,NA,NA,0065+0324+0303,e̤,NA,FALSE,vowel,fake,0,-,+,-,-,-,+,+,0,+,-,-,-,-,-,0,0,-,0,0,0,+,-,-,+,-,+,-,-,+,-,+,-,0,-,-,0
1,kore1280,kor,NA,NA,0065+0325,ẽ̤,NA,FALSE,vowel,fake,0,-,+,-,-,-,+,+,0,+,-,-,+,-,-,0,0,-,0,0,0,+,-,-,+,-,+,-,-,+,-,+,-,0,-,-,0
1,kore1280,kor,NA,NA,0065+0330,e̥,NA,FALSE,vowel,fake,0,-,+,-,-,-,+,+,0,+,-,-,-,-,-,0,0,-,0,0,0,+,-,-,+,-,+,-,-,-,-,-,-,0,-,-,0
1,kore1280,kor,NA,NA,0065+02DE,ḛ,NA,FALSE,vowel,fake,0,-,+,-,-,-,+,+,0,+,-,-,-,-,-,0,0,-,0,0,0,+,-,-,+,-,+,-,-,+,-,-,+,0,-,-,0
1,kore1280,kor,NA,NA,0065+02DE+02D0,e˞,NA,FALSE,vowel,fake,0,-,+,-,-,-,+,+,0,+,-,-,-,-,-,0,0,+,+,+,+,+,-,-,+,-,+,-,-,+,-,-,-,0,-,-,0
1,kore1280,kor,NA,NA,0065+02D0,e˞ː,NA,FALSE,vowel,fake,0,-,+,-,+,-,+,+,0,+,-,-,-,-,-,0,0,+,+,+,+,+,-,-,+,-,+,-,-,+,-,-,-,0,-,-,0
1,kore1280,kor,NA,NA,0065+0303+02D0,eː,NA,FALSE,vowel,fake,0,-,+,-,+,-,+,+,0,+,-,-,-,-,-,0,0,-,0,0,0,+,-,-,+,-,+,-,-,+,-,-,-,0,-,-,0
1,kore1280,kor,NA,NA,0065+0324+02D0,ẽː,NA,FALSE,vowel,fake,0,-,+,-,+,-,+,+,0,+,-,-,+,-,-,0,0,-,0,0,0,+,-,-,+,-,+,-,-,+,-,-,-,0,-,-,0
1,kore1280,kor,NA,NA,0065+0324+0303+02D0,e̤ː,NA,FALSE,vowel,fake,0,-,+,-,+,-,+,+,0,+,-,-,-,-,-,0,0,-,0,0,0,+,-,-,+,-,+,-,-,+,-,+,-,0,-,-,0
1,kore1280,kor,NA,NA,0065+02D0+0075+032F,ẽ̤ː,NA,FALSE,vowel,fake,0,-,+,-,+,-,+,+,0,+,-,-,+,-,-,0,0,-,0,0,0,+,-,-,+,-,+,-,-,+,-,+,-,0,-,-,0
1,kore1280,kor,NA,NA,0065+0061,eːu̯,NA,FALSE,vowel,fake,0,-,"+,-",-,"+,-",-,+,+,0,+,-,-,-,-,"-,+",+,-,-,0,0,0,+,"-,+",-,"+,-","-,+",+,-,-,+,-,-,-,0,-,-,0
1,kore1280,kor,NA,NA,0065+032F+0061,ea,NA,FALSE,vowel,fake,0,-,+,-,-,-,+,+,0,+,-,-,-,-,-,0,0,-,0,0,0,+,-,"-,+","+,-",-,+,-,-,+,-,-,-,0,-,-,0
1,kore1280,kor,NA,NA,0065+0251,e̯a,NA,FALSE,vowel,fake,0,-,"-,+",-,-,-,+,+,0,+,-,-,-,-,-,0,0,-,0,0,0,+,-,"-,+","+,-",-,+,-,-,+,-,-,-,0,-,-,0
1,kore1280,kor,NA,NA,0065+0259+032F,eɑ,NA,FALSE,vowel,fake,0,-,+,-,-,-,+,+,0,+,-,-,-,-,-,0,0,-,0,0,0,+,-,"-,+","+,-","-,+",+,-,-,+,-,-,-,0,-,-,0
1,kore1280,kor,NA,NA,0065+0069,eə̯,NA,FALSE,vowel,fake,0,-,"+,-",-,-,-,+,+,0,+,-,-,-,-,-,0,0,-,0,0,0,+,-,-,"+,-",-,"+,-",-,-,+,-,-,-,0,-,-,0
1,kore1280,kor,NA,NA,0065+0069+032F,ei,NA,FALSE,vowel,fake,0,-,+,-,-,-,+,+,0,+,-,-,-,-,-,0,0,-,0,0,0,+,"-,+",-,+,-,+,-,-,+,-,-,-,0,-,-,0
1,kore1280,kor,NA,NA,0065+0303+0069,ei̯,NA,FALSE,vowel,fake,0,-,"+,-",-,-,-,+,+,0,+,-,-,-,-,-,0,0,-,0,0,0,+,"-,+",-,+,-,+,-,-,+,-,-,-,0,-,-,0
1,kore1280,kor,NA,NA,0065+0303+0069+032F,ẽi,NA,FALSE,vowel,fake,0,-,+,-,-,-,+,+,0,+,-,-,"+,-",-,-,0,0,-,0,0,0,+,"-,+",-,+,-,+,-,-,+,-,-,-,0,-,-,0
1,kore1280,kor,NA,NA,0065+0303+0069+032F+0303,ẽi̯,NA,FALSE,vowel,fake,0,-,"+,-",-,-,-,+,+,0,+,-,-,"+,-",-,-,0,0,-,0,0,0,+,"-,+",-,+,-,+,-,-,+,-,-,-,0,-,-,0
1,kore1280,kor,NA,NA,0065+031D+0069,ẽĩ̯,NA,FALSE,vowel,fake,0,-,"+,-",-,-,-,+,+,0,+,-,-,+,-,-,0,0,-,0,0,0,+,"-,+",-,+,-,+,-,-,+,-,-,-,0,-,-,0
1,kore1280,kor,NA,NA,0065+0303+026A,e̝i,NA,FALSE,vowel,fake,0,-,+,-,-,-,+,+,0,+,-,-,-,-,-,0,0,-,0,0,0,+,+,-,+,-,+,-,-,+,-,-,-,0,-,-,0
1,kore1280,kor,NA,NA,0065+0324+0303+026A,ẽɪ,NA,FALSE,vowel,fake,0,-,+,-,-,-,+,+,0,+,-,-,"+,-",-,-,0,0,-,0,0,0,+,"-,+",-,+,-,"+,-",-,-,+,-,-,-,0,-,-,0
1,kore1280,kor,NA,NA,0065+0330+0303+026A,ẽ̤ɪ,NA,FALSE,vowel,fake,0,-,+,-,-,-,+,+,0,+,-,-,"+,-",-,-,0,0,-,0,0,0,+,"-,+",-,+,-,"+,-",-,-,+,-,"+,-",-,0,-,-,0
1,kore1280,kor,NA,NA,0065+026A+02C0,ḛ̃ɪ,NA,FALSE,vowel,fake,0,-,+,-,-,-,+,+,0,+,-,-,"+,-",-,-,0,0,-,0,0,0,+,"-,+",-,+,-,"+,-",-,-,+,-,-,"+,-",0,-,-,0
1,kore1280,kor,NA,NA,0065+006F,eɪˀ,NA,FALSE,vowel,fake,0,-,+,-,-,-,+,+,0,+,-,-,-,-,-,0,0,-,0,0,0,+,"-,+",-,+,-,"+,-",-,-,+,-,-,"-,+",0,-,-,0
1,kore1280,kor,NA,NA,0065+006F+032F,eo,NA,FALSE,vowel,fake,0,-,+,-,-,-,+,+,0,+,-,-,-,-,"-,+",+,-,-,0,0,0,+,-,-,"+,-","-,+",+,-,-,+,-,-,-,0,-,-,0
1,kore1280,kor,NA,NA,0065+032F+006F,eo̯,NA,FALSE,vowel,fake,0,-,"+,-",-,-,-,+,+,0,+,-,-,-,-,"-,+",+,-,-,0,0,0,+,-,-,"+,-","-,+",+,-,-,+,-,-,-,0,-,-,0
1,kore1280,kor,NA,NA,0065+0075,e̯o,NA,FALSE,vowel,fake,0,-,"-,+",-,-,-,+,+,0,+,-,-,-,-,"-,+",+,-,-,0,0,0,+,-,-,"+,-","-,+",+,-,-,+,-,-,-,0,-,-,0
1,kore1280,kor,NA,NA,0065+0075+032F,eu,NA,FALSE,vowel,fake,0,-,+,-,-,-,+,+,0,+,-,-,-,-,"-,+",+,-,-,0,0,0,+,"-,+",-,"+,-","-,+",+,-,-,+,-,-,-,0,-,-,0
1,kore1280,kor,NA,NA,0065+032F+026F,eu̯,NA,FALSE,vowel,fake,0,-,"+,-",-,-,-,+,+,0,+,-,-,-,-,"-,+",+,-,-,0,0,0,+,"-,+",-,"+,-","-,+",+,-,-,+,-,-,-,0,-,-,0
1,kore1280,kor,NA,NA,0065+02C0,e̯ɯ,NA,FALSE,vowel,fake,0,-,"-,+",-,-,-,+,+,0,+,-,-,-,-,-,0,0,-,0,0,0,+,"-,+",-,"+,-","-,+",+,-,-,+,-,-,-,0,-,-,0
1,kore1280,kor,NA,NA,259,eˀ,NA,FALSE,vowel,fake,0,-,+,-,-,-,+,+,0,+,-,-,-,-,-,0,0,-,0,0,0,+,-,-,+,-,+,-,-,+,-,-,+,0,-,-,0
1,kore1280,kor,NA,NA,0259+0306,ə,NA,FALSE,vowel,fake,0,-,+,-,-,-,+,+,0,+,-,-,-,-,-,0,0,-,0,0,0,+,-,-,-,-,-,-,-,+,-,-,-,0,-,-,0
1,kore1280,kor,NA,NA,0259+0303,ə̆,NA,FALSE,vowel,fake,0,-,+,+,-,-,+,+,0,+,-,-,-,-,-,0,0,-,0,0,0,+,-,-,-,-,-,-,-,+,-,-,-,0,-,-,0
1,kore1280,kor,NA,NA,0259+0324,ə̃,NA,FALSE,vowel,fake,0,-,+,-,-,-,+,+,0,+,-,-,+,-,-,0,0,-,0,0,0,+,-,-,-,-,-,-,-,+,-,-,-,0,-,-,0
1,kore1280,kor,NA,NA,0259+0330,ə̤,NA,FALSE,vowel,fake,0,-,+,-,-,-,+,+,0,+,-,-,-,-,-,0,0,-,0,0,0,+,-,-,-,-,-,-,-,+,-,+,-,0,-,-,0
1,kore1280,kor,NA,NA,0259+02DE,ə̰,NA,FALSE,vowel,fake,0,-,+,-,-,-,+,+,0,+,-,-,-,-,-,0,0,-,0,0,0,+,-,-,-,-,-,-,-,+,-,-,+,0,-,-,0
1,kore1280,kor,NA,NA,0259+02D0,ə˞,NA,FALSE,vowel,fake,0,-,+,-,-,-,+,+,0,+,-,-,-,-,-,0,0,+,+,+,+,+,-,-,-,-,-,-,-,+,-,-,-,0,-,-,0
1,kore1280,kor,NA,NA,0259+0303+02D0,əː,NA,FALSE,vowel,fake,0,-,+,-,+,-,+,+,0,+,-,-,-,-,-,0,0,-,0,0,0,+,-,-,-,-,-,-,-,+,-,-,-,0,-,-,0
1,kore1280,kor,NA,NA,0259+0069,ə̃ː,NA,FALSE,vowel,fake,0,-,+,-,+,-,+,+,0,+,-,-,+,-,-,0,0,-,0,0,0,+,-,-,-,-,-,-,-,+,-,-,-,0,-,-,0
1,kore1280,kor,NA,NA,0259+0069+032F,əi,NA,FALSE,vowel,fake,0,-,+,-,-,-,+,+,0,+,-,-,-,-,-,0,0,-,0,0,0,+,"-,+",-,"-,+",-,"-,+",-,-,+,-,-,-,0,-,-,0
1,kore1280,kor,NA,NA,0259+032F+0069,əi̯,NA,FALSE,vowel,fake,0,-,"+,-",-,-,-,+,+,0,+,-,-,-,-,-,0,0,-,0,0,0,+,"-,+",-,"-,+",-,"-,+",-,-,+,-,-,-,0,-,-,0
1,kore1280,kor,NA,NA,0259+0075+032F,ə̯i,NA,FALSE,vowel,fake,0,-,"-,+",-,-,-,+,+,0,+,-,-,-,-,-,0,0,-,0,0,0,+,"-,+",-,"-,+",-,"-,+",-,-,+,-,-,-,0,-,-,0
1,kore1280,kor,NA,NA,0259+0303+026F+032F,əu̯,NA,FALSE,vowel,fake,0,-,"+,-",-,-,-,+,+,0,+,-,-,-,-,"-,+",+,-,-,0,0,0,+,"-,+",-,-,"-,+","-,+",-,-,+,-,-,-,0,-,-,0
1,kore1280,kor,NA,NA,025B,ə̃ɯ̯,NA,FALSE,vowel,fake,0,-,"+,-",-,-,-,+,+,0,+,-,-,"+,-",-,-,0,0,-,0,0,0,+,"-,+",-,-,"-,+","-,+",-,-,+,-,-,-,0,-,-,0
1,kore1280,kor,NA,NA,025B+0306,ɛ,NA,FALSE,vowel,fake,0,-,+,-,-,-,+,+,0,+,-,-,-,-,-,0,0,-,0,0,0,+,-,-,+,-,-,-,-,+,-,-,-,0,-,-,0
1,kore1280,kor,NA,NA,025B+0303,ɛ̆,NA,FALSE,vowel,fake,0,-,+,+,-,-,+,+,0,+,-,-,-,-,-,0,0,-,0,0,0,+,-,-,+,-,-,-,-,+,-,-,-,0,-,-,0
1,kore1280,kor,NA,NA,025B+0324,ɛ̃,NA,FALSE,vowel,fake,0,-,+,-,-,-,+,+,0,+,-,-,+,-,-,0,0,-,0,0,0,+,-,-,+,-,-,-,-,+,-,-,-,0,-,-,0
1,kore1280,kor,NA,NA,025B+0330,ɛ̤,NA,FALSE,vowel,fake,0,-,+,-,-,-,+,+,0,+,-,-,-,-,-,0,0,-,0,0,0,+,-,-,+,-,-,-,-,+,-,+,-,0,-,-,0
1,kore1280,kor,NA,NA,025B+02D0,ɛ̰,NA,FALSE,vowel,fake,0,-,+,-,-,-,+,+,0,+,-,-,-,-,-,0,0,-,0,0,0,+,-,-,+,-,-,-,-,+,-,-,+,0,-,-,0
1,kore1280,kor,NA,NA,025B+0303+02D0,ɛː,NA,FALSE,vowel,fake,0,-,+,-,+,-,+,+,0,+,-,-,-,-,-,0,0,-,0,0,0,+,-,-,+,-,-,-,-,+,-,-,-,0,-,-,0
1,kore1280,kor,NA,NA,025B+02D0+0069+032F,ɛ̃ː,NA,FALSE,vowel,fake,0,-,+,-,+,-,+,+,0,+,-,-,+,-,-,0,0,-,0,0,0,+,-,-,+,-,-,-,-,+,-,-,-,0,-,-,0
1,kore1280,kor,NA,NA,025B+0069,ɛːi̯,NA,FALSE,vowel,fake,0,-,"+,-",-,"+,-",-,+,+,0,+,-,-,-,-,-,0,0,-,0,0,0,+,"-,+",-,+,-,"-,+",-,-,+,-,-,-,0,-,-,0
1,kore1280,kor,NA,NA,025B+0069+032F,ɛi,NA,FALSE,vowel,fake,0,-,+,-,-,-,+,+,0,+,-,-,-,-,-,0,0,-,0,0,0,+,"-,+",-,+,-,"-,+",-,-,+,-,-,-,0,-,-,0
1,kore1280,kor,NA,NA,025B+026A+032F,ɛi̯,NA,FALSE,vowel,fake,0,-,"+,-",-,-,-,+,+,0,+,-,-,-,-,-,0,0,-,0,0,0,+,"-,+",-,+,-,"-,+",-,-,+,-,-,-,0,-,-,0
1,kore1280,kor,NA,NA,025B+0075,ɛɪ̯,NA,FALSE,vowel,fake,0,-,"+,-",-,-,-,+,+,0,+,-,-,-,-,-,0,0,-,0,0,0,+,"-,+",-,+,-,-,-,-,+,-,-,-,0,-,-,0
1,kore1280,kor,NA,NA,025B+0075+032F,ɛu,NA,FALSE,vowel,fake,0,-,+,-,-,-,+,+,0,+,-,-,-,-,"-,+",+,-,-,0,0,0,+,"-,+",-,"+,-","-,+","-,+",-,-,+,-,-,-,0,-,-,0
1,kore1280,kor,NA,NA,025B+028A,ɛu̯,NA,FALSE,vowel,fake,0,-,"+,-",-,-,-,+,+,0,+,-,-,-,-,"-,+",+,-,-,0,0,0,+,"-,+",-,"+,-","-,+","-,+",-,-,+,-,-,-,0,-,-,0
1,kore1280,kor,NA,NA,025B+02C0,ɛʊ,NA,FALSE,vowel,fake,0,-,+,-,-,-,+,+,0,+,-,-,-,-,"-,+",+,-,-,0,0,0,+,"-,+",-,"+,-","-,+",-,-,-,+,-,-,-,0,-,-,0
1,kore1280,kor,NA,NA,258,ɛˀ,NA,FALSE,vowel,fake,0,-,+,-,-,-,+,+,0,+,-,-,-,-,-,0,0,-,0,0,0,+,-,-,+,-,-,-,-,+,-,-,+,0,-,-,0
1,kore1280,kor,NA,NA,0258+02D0,ɘ,NA,FALSE,vowel,fake,0,-,+,-,-,-,+,+,0,+,-,-,-,-,-,0,0,-,0,0,0,+,-,-,-,-,+,-,-,+,-,-,-,0,-,-,0
1,kore1280,kor,NA,NA,025C,ɘː,NA,FALSE,vowel,fake,0,-,+,-,+,-,+,+,0,+,-,-,-,-,-,0,0,-,0,0,0,+,-,-,-,-,+,-,-,+,-,-,-,0,-,-,0
1,kore1280,kor,NA,NA,025C+0306,ɜ,NA,FALSE,vowel,fake,0,-,+,-,-,-,+,+,0,+,-,-,-,-,-,0,0,-,0,0,0,+,-,-,-,-,-,-,-,+,-,-,-,0,-,-,0
1,kore1280,kor,NA,NA,025C+02D0,ɜ̆,NA,FALSE,vowel,fake,0,-,+,+,-,-,+,+,0,+,-,-,-,-,-,0,0,-,0,0,0,+,-,-,-,-,-,-,-,+,-,-,-,0,-,-,0
1,kore1280,kor,NA,NA,025C+0303+02D0,ɜː,NA,FALSE,vowel,fake,0,-,+,-,+,-,+,+,0,+,-,-,-,-,-,0,0,-,0,0,0,+,-,-,-,-,-,-,-,+,-,-,-,0,-,-,0
1,kore1280,kor,NA,NA,025C+0324+02D0,ɜ̃ː,NA,FALSE,vowel,fake,0,-,+,-,+,-,+,+,0,+,-,-,+,-,-,0,0,-,0,0,0,+,-,-,-,-,-,-,-,+,-,-,-,0,-,-,0
1,kore1280,kor,NA,NA,025C+0324+0303+02D0,ɜ̤ː,NA,FALSE,vowel,fake,0,-,+,-,+,-,+,+,0,+,-,-,-,-,-,0,0,-,0,0,0,+,-,-,-,-,-,-,-,+,-,+,-,0,-,-,0
1,kore1280,kor,NA,NA,025C+0069+032F,ɜ̤̃ː,NA,FALSE,vowel,fake,0,-,+,-,+,-,+,+,0,+,-,-,+,-,-,0,0,-,0,0,0,+,-,-,-,-,-,-,-,+,-,+,-,0,-,-,0
1,kore1280,kor,NA,NA,025E,ɜi̯,NA,FALSE,vowel,fake,0,-,"+,-",-,-,-,+,+,0,+,-,-,-,-,-,0,0,-,0,0,0,+,"-,+",-,"-,+",-,"-,+",-,-,+,-,-,-,0,-,-,0
1,kore1280,kor,NA,NA,025E+02D0,ɞ,NA,FALSE,vowel,fake,0,-,+,-,-,-,+,+,0,+,-,-,-,-,+,+,-,-,0,0,0,+,-,-,-,-,-,-,-,+,-,-,-,0,-,-,0
1,kore1280,kor,NA,NA,264,ɞː,NA,FALSE,vowel,fake,0,-,+,-,+,-,+,+,0,+,-,-,-,-,+,+,-,-,0,0,0,+,-,-,-,-,-,-,-,+,-,-,-,0,-,-,0
1,kore1280,kor,NA,NA,0264+02C0,ɤ,NA,FALSE,vowel,fake,0,-,+,-,-,-,+,+,0,+,-,-,-,-,-,0,0,-,0,0,0,+,-,-,-,+,+,-,-,+,-,-,-,0,-,-,0
1,kore1280,kor,NA,NA,66,ɤˀ,NA,FALSE,vowel,fake,0,-,+,-,-,-,+,+,0,+,-,-,-,-,-,0,0,-,0,0,0,+,-,-,-,+,+,-,-,+,-,-,+,0,-,-,0
1,kore1280,kor,NA,NA,0066+02D0,f,NA,FALSE,consonant,fake,0,-,-,-,-,+,-,+,+,-,-,-,-,-,+,-,+,-,0,0,0,-,0,0,0,0,0,0,0,-,-,-,-,-,-,-,-
1,kore1280,kor,NA,NA,0066+02B7,fː,NA,FALSE,consonant,fake,0,-,-,-,+,+,-,+,+,-,-,-,-,-,+,-,+,-,0,0,0,-,0,0,0,0,0,0,0,-,-,-,-,-,-,-,-
1,kore1280,kor,NA,NA,261,fʷ,NA,FALSE,consonant,fake,0,-,-,-,-,+,-,+,+,-,-,-,-,-,+,+,-,-,0,0,0,-,0,0,0,0,0,0,0,-,-,-,-,-,-,-,-
1,kore1280,kor,NA,NA,0261+0330,ɡ,NA,FALSE,consonant,fake,0,-,-,-,-,+,-,-,-,-,-,-,-,-,-,0,0,-,0,0,0,+,+,-,-,-,0,0,0,+,-,-,-,-,-,-,-
1,kore1280,kor,NA,NA,0261+02DE,ɡ̰,NA,FALSE,consonant,fake,0,-,-,-,-,+,-,-,-,-,-,-,-,-,-,0,0,-,0,0,0,+,+,-,-,-,0,0,0,+,-,-,+,-,-,-,-
1,kore1280,kor,NA,NA,0261+0062,ɡ˞,NA,FALSE,consonant,fake,0,-,-,-,-,+,-,-,-,-,-,-,-,-,-,0,0,+,+,+,+,+,+,-,-,-,0,0,0,+,-,-,-,-,-,-,-
1,kore1280,kor,NA,NA,0261+0263,ɡb,NA,FALSE,consonant,fake,0,-,-,-,-,+,-,-,-,-,-,-,-,-,+,-,-,-,0,0,0,+,+,-,-,-,0,0,0,+,-,-,-,-,-,-,-
1,kore1280,kor,NA,NA,0261+02B1,ɡɣ,NA,FALSE,consonant,fake,0,-,-,-,-,+,-,-,+,-,-,-,-,-,-,0,0,-,0,0,0,+,+,-,-,-,0,0,0,+,-,-,-,-,-,-,-
1,kore1280,kor,NA,NA,0261+02B2,ɡʱ,NA,FALSE,consonant,fake,0,-,-,-,-,+,-,-,-,-,-,-,-,-,-,0,0,-,0,0,0,+,+,-,-,-,0,0,0,+,-,+,-,-,-,-,-
1,kore1280,kor,NA,NA,0261+029F+0353,ɡʲ,NA,FALSE,consonant,fake,0,-,-,-,-,+,-,-,-,-,-,-,-,-,-,0,0,-,0,0,0,+,+,-,+,-,0,0,0,+,-,-,-,-,-,-,-
1,kore1280,kor,NA,NA,0261+02B7,ɡʟ͓,NA,FALSE,consonant,fake,0,-,-,-,-,+,"-,+","-,+","-,+","-,+",-,-,-,"-,+",-,0,0,-,0,0,0,+,+,-,-,-,0,0,0,+,-,-,-,-,-,-,-
1,kore1280,kor,NA,NA,262,ɡʷ,NA,FALSE,consonant,fake,0,-,-,-,-,+,-,-,-,-,-,-,-,-,+,+,-,-,0,0,0,+,+,-,-,-,0,0,0,+,-,-,-,-,-,-,-
1,kore1280,kor,NA,NA,263,ɢ,NA,FALSE,consonant,fake,0,-,-,-,-,+,-,-,-,-,-,-,-,-,-,0,0,-,0,0,0,+,-,-,-,+,0,0,0,+,-,-,-,-,-,-,-
1,kore1280,kor,NA,NA,0263+02B7,ɣ,NA,FALSE,consonant,fake,0,-,-,-,-,+,-,+,+,-,-,-,-,-,-,0,0,-,0,0,0,+,+,-,-,-,0,0,0,+,-,-,-,-,-,-,-
1,kore1280,kor,NA,NA,0263+03B2,ɣʷ,NA,FALSE,consonant,fake,0,-,-,-,-,+,-,+,+,-,-,-,-,-,+,+,-,-,0,0,0,+,+,-,-,-,0,0,0,+,-,-,-,-,-,-,-
1,kore1280,kor,NA,NA,68,ɣβ,NA,FALSE,consonant,fake,0,-,-,-,-,+,-,+,+,-,-,-,-,-,"-,+",-,-,-,0,0,0,"+,-",+,-,-,-,0,0,0,+,-,-,-,-,-,-,-
1,kore1280,kor,NA,NA,0068+0303,h,NA,FALSE,consonant,fake,0,-,-,-,-,-,-,+,+,-,-,-,-,-,-,0,0,-,0,0,0,-,0,0,0,0,0,0,0,-,-,+,-,-,-,-,-
1,kore1280,kor,NA,NA,0068+02D0,h̃,NA,FALSE,consonant,fake,0,-,-,-,-,-,-,+,+,-,-,-,+,-,-,0,0,-,0,0,0,-,0,0,0,0,0,0,0,-,-,+,-,-,-,-,-
1,kore1280,kor,NA,NA,0068+02B7,hː,NA,FALSE,consonant,fake,0,-,-,-,+,-,-,+,+,-,-,-,-,-,-,0,0,-,0,0,0,-,0,0,0,0,0,0,0,-,-,+,-,-,-,-,-
1,kore1280,kor,NA,NA,0068+0303+02B7,hʷ,NA,FALSE,consonant,fake,0,-,-,-,-,-,-,+,+,-,-,-,-,-,+,+,-,-,0,0,0,-,0,0,0,0,0,0,0,-,-,+,-,-,-,-,-
1,kore1280,kor,NA,NA,266,h̃ʷ,NA,FALSE,consonant,fake,0,-,-,-,-,-,-,+,+,-,-,-,+,-,+,+,-,-,0,0,0,-,0,0,0,0,0,0,0,-,-,+,-,-,-,-,-
1,kore1280,kor,NA,NA,69,ɦ,NA,FALSE,consonant,fake,0,-,-,-,-,-,-,+,+,-,-,-,-,-,-,0,0,-,0,0,0,-,0,0,0,0,0,0,0,+,-,+,-,-,-,-,-
1,kore1280,kor,NA,NA,0069+0303,i,NA,FALSE,vowel,fake,0,-,+,-,-,-,+,+,0,+,-,-,-,-,-,0,0,-,0,0,0,+,+,-,+,-,+,-,-,+,-,-,-,0,-,-,0
1,kore1280,kor,NA,NA,0069+031E,ĩ,NA,FALSE,vowel,fake,0,-,+,-,-,-,+,+,0,+,-,-,+,-,-,0,0,-,0,0,0,+,+,-,+,-,+,-,-,+,-,-,-,0,-,-,0
1,kore1280,kor,NA,NA,0069+032F,i̞,NA,FALSE,vowel,fake,0,-,+,-,-,-,+,+,0,+,-,-,-,-,-,0,0,-,0,0,0,+,+,-,+,-,0,-,-,+,-,-,-,0,-,-,0
1,kore1280,kor,NA,NA,0069+0324,i̯,NA,FALSE,vowel,fake,0,-,-,-,-,-,+,+,0,+,-,-,-,-,-,0,0,-,0,0,0,+,+,-,+,-,+,-,-,+,-,-,-,0,-,-,0
1,kore1280,kor,NA,NA,0069+0324+0303,i̤,NA,FALSE,vowel,fake,0,-,+,-,-,-,+,+,0,+,-,-,-,-,-,0,0,-,0,0,0,+,+,-,+,-,+,-,-,+,-,+,-,0,-,-,0
1,kore1280,kor,NA,NA,0069+0325,ĩ̤,NA,FALSE,vowel,fake,0,-,+,-,-,-,+,+,0,+,-,-,+,-,-,0,0,-,0,0,0,+,+,-,+,-,+,-,-,+,-,+,-,0,-,-,0
1,kore1280,kor,NA,NA,0069+0330,i̥,NA,FALSE,vowel,fake,0,-,+,-,-,-,+,+,0,+,-,-,-,-,-,0,0,-,0,0,0,+,+,-,+,-,+,-,-,-,-,-,-,0,-,-,0
1,kore1280,kor,NA,NA,0069+02DE,ḭ,NA,FALSE,vowel,fake,0,-,+,-,-,-,+,+,0,+,-,-,-,-,-,0,0,-,0,0,0,+,+,-,+,-,+,-,-,+,-,-,+,0,-,-,0
1,kore1280,kor,NA,NA,0069+02DE+02D0,i˞,NA,FALSE,vowel,fake,0,-,+,-,-,-,+,+,0,+,-,-,-,-,-,0,0,+,+,+,+,+,+,-,+,-,+,-,-,+,-,-,-,0,-,-,0
1,kore1280,kor,NA,NA,0069+02D0,i˞ː,NA,FALSE,vowel,fake,0,-,+,-,+,-,+,+,0,+,-,-,-,-,-,0,0,+,+,+,+,+,+,-,+,-,+,-,-,+,-,-,-,0,-,-,0
1,kore1280,kor,NA,NA,0069+0303+02D0,iː,NA,FALSE,vowel,fake,0,-,+,-,+,-,+,+,0,+,-,-,-,-,-,0,0,-,0,0,0,+,+,-,+,-,+,-,-,+,-,-,-,0,-,-,0
1,kore1280,kor,NA,NA,0069+0324+02D0,ĩː,NA,FALSE,vowel,fake,0,-,+,-,+,-,+,+,0,+,-,-,+,-,-,0,0,-,0,0,0,+,+,-,+,-,+,-,-,+,-,-,-,0,-,-,0
1,kore1280,kor,NA,NA,0069+0324+0303+02D0,i̤ː,NA,FALSE,vowel,fake,0,-,+,-,+,-,+,+,0,+,-,-,-,-,-,0,0,-,0,0,0,+,+,-,+,-,+,-,-,+,-,+,-,0,-,-,0
1,kore1280,kor,NA,NA,0069+0061,ĩ̤ː,NA,FALSE,vowel,fake,0,-,+,-,+,-,+,+,0,+,-,-,+,-,-,0,0,-,0,0,0,+,+,-,+,-,+,-,-,+,-,+,-,0,-,-,0
1,kore1280,kor,NA,NA,0069+032F+0061,ia,NA,FALSE,vowel,fake,0,-,+,-,-,-,+,+,0,+,-,-,-,-,-,0,0,-,0,0,0,+,"+,-","-,+","+,-",-,+,-,-,+,-,-,-,0,-,-,0
1,kore1280,kor,NA,NA,0069+032F+0061+02D0,i̯a,NA,FALSE,vowel,fake,0,-,"-,+",-,-,-,+,+,0,+,-,-,-,-,-,0,0,-,0,0,0,+,"+,-","-,+","+,-",-,+,-,-,+,-,-,-,0,-,-,0
1,kore1280,kor,NA,NA,0069+032F+0250,i̯aː,NA,FALSE,vowel,fake,0,-,"-,+",-,"-,+",-,+,+,0,+,-,-,-,-,-,0,0,-,0,0,0,+,"+,-","-,+","+,-",-,+,-,-,+,-,-,-,0,-,-,0
1,kore1280,kor,NA,NA,0069+0251,i̯ɐ,NA,FALSE,vowel,fake,0,-,"-,+",-,-,-,+,+,0,+,-,-,-,-,"-,+",+,-,-,0,0,0,+,"+,-","-,+","+,-",-,+,-,-,+,-,-,-,0,-,-,0
1,kore1280,kor,NA,NA,0069+0065,iɑ,NA,FALSE,vowel,fake,0,-,+,-,-,-,+,+,0,+,-,-,-,-,-,0,0,-,0,0,0,+,"+,-","-,+","+,-","-,+",+,-,-,+,-,-,-,0,-,-,0
1,kore1280,kor,NA,NA,0069+0065+0306,ie,NA,FALSE,vowel,fake,0,-,+,-,-,-,+,+,0,+,-,-,-,-,-,0,0,-,0,0,0,+,"+,-",-,+,-,+,-,-,+,-,-,-,0,-,-,0
1,kore1280,kor,NA,NA,0069+032F+0065,iĕ,NA,FALSE,vowel,fake,0,-,+,"-,+",-,-,+,+,0,+,-,-,-,-,-,0,0,-,0,0,0,+,"+,-",-,+,-,+,-,-,+,-,-,-,0,-,-,0
1,kore1280,kor,NA,NA,0069+032F+0065+02D0,i̯e,NA,FALSE,vowel,fake,0,-,"-,+",-,-,-,+,+,0,+,-,-,-,-,-,0,0,-,0,0,0,+,"+,-",-,+,-,+,-,-,+,-,-,-,0,-,-,0
1,kore1280,kor,NA,NA,0069+0259+032F,i̯eː,NA,FALSE,vowel,fake,0,-,"-,+",-,"-,+",-,+,+,0,+,-,-,-,-,-,0,0,-,0,0,0,+,"+,-",-,+,-,+,-,-,+,-,-,-,0,-,-,0
1,kore1280,kor,NA,NA,0069+032F+0259,iə̯,NA,FALSE,vowel,fake,0,-,"+,-",-,-,-,+,+,0,+,-,-,-,-,-,0,0,-,0,0,0,+,"+,-",-,"+,-",-,"+,-",-,-,+,-,-,-,0,-,-,0
1,kore1280,kor,NA,NA,0069+032F+0259+0075+032F,i̯ə,NA,FALSE,vowel,fake,0,-,"-,+",-,-,-,+,+,0,+,-,-,-,-,-,0,0,-,0,0,0,+,"+,-",-,"+,-",-,"+,-",-,-,+,-,-,-,0,-,-,0
1,kore1280,kor,NA,NA,0069+025B,i̯əu̯,NA,FALSE,vowel,fake,0,-,"-,+,-",-,-,-,+,+,0,+,-,-,-,-,"-,-,+",+,-,-,0,0,0,+,"+,-,+",-,"+,-,-","-,-,+","+,-,+",-,-,+,-,-,-,0,-,-,0
1,kore1280,kor,NA,NA,0069+032F+025B+0303,iɛ,NA,FALSE,vowel,fake,0,-,+,-,-,-,+,+,0,+,-,-,-,-,-,0,0,-,0,0,0,+,"+,-",-,+,-,"+,-",-,-,+,-,-,-,0,-,-,0
1,kore1280,kor,NA,NA,0069+032F+025C,i̯ɛ̃,NA,FALSE,vowel,fake,0,-,"-,+",-,-,-,+,+,0,+,-,-,"-,+",-,-,0,0,-,0,0,0,+,"+,-",-,+,-,"+,-",-,-,+,-,-,-,0,-,-,0
1,kore1280,kor,NA,NA,0069+032F+0264,i̯ɜ,NA,FALSE,vowel,fake,0,-,"-,+",-,-,-,+,+,0,+,-,-,-,-,-,0,0,-,0,0,0,+,"+,-",-,"+,-",-,"+,-",-,-,+,-,-,-,0,-,-,0
1,kore1280,kor,NA,NA,0069+0069+032F,i̯ɤ,NA,FALSE,vowel,fake,0,-,"-,+",-,-,-,+,+,0,+,-,-,-,-,-,0,0,-,0,0,0,+,"+,-",-,"+,-","-,+",+,-,-,+,-,-,-,0,-,-,0
1,kore1280,kor,NA,NA,0069+032F+006F,ii̯,NA,FALSE,vowel,fake,0,-,"+,-",-,-,-,+,+,0,+,-,-,-,-,-,0,0,-,0,0,0,+,+,-,+,-,+,-,-,+,-,-,-,0,-,-,0
1,kore1280,kor,NA,NA,0069+032F+006F+0303,i̯o,NA,FALSE,vowel,fake,0,-,"-,+",-,-,-,+,+,0,+,-,-,-,-,"-,+",+,-,-,0,0,0,+,"+,-",-,"+,-","-,+",+,-,-,+,-,-,-,0,-,-,0
1,kore1280,kor,NA,NA,0069+032F+0254,i̯õ,NA,FALSE,vowel,fake,0,-,"-,+",-,-,-,+,+,0,+,-,-,"-,+",-,"-,+",+,-,-,0,0,0,+,"+,-",-,"+,-","-,+",+,-,-,+,-,-,-,0,-,-,0
1,kore1280,kor,NA,NA,0069+0075,i̯ɔ,NA,FALSE,vowel,fake,0,-,"-,+",-,-,-,+,+,0,+,-,-,-,-,"-,+",+,-,-,0,0,0,+,"+,-",-,"+,-","-,+","+,-",-,-,+,-,-,-,0,-,-,0
1,kore1280,kor,NA,NA,0069+0075+032F,iu,NA,FALSE,vowel,fake,0,-,+,-,-,-,+,+,0,+,-,-,-,-,"-,+",+,-,-,0,0,0,+,+,-,"+,-","-,+",+,-,-,+,-,-,-,0,-,-,0
1,kore1280,kor,NA,NA,0069+032F+0075,iu̯,NA,FALSE,vowel,fake,0,-,"+,-",-,-,-,+,+,0,+,-,-,-,-,"-,+",+,-,-,0,0,0,+,+,-,"+,-","-,+",+,-,-,+,-,-,-,0,-,-,0
1,kore1280,kor,NA,NA,0069+032F+026F,i̯u,NA,FALSE,vowel,fake,0,-,"-,+",-,-,-,+,+,0,+,-,-,-,-,"-,+",+,-,-,0,0,0,+,+,-,"+,-","-,+",+,-,-,+,-,-,-,0,-,-,0
1,kore1280,kor,NA,NA,0069+032F+028C,i̯ɯ,NA,FALSE,vowel,fake,0,-,"-,+",-,-,-,+,+,0,+,-,-,-,-,-,0,0,-,0,0,0,+,+,-,"+,-","-,+",+,-,-,+,-,-,-,0,-,-,0
1,kore1280,kor,NA,NA,0069+02C0,i̯ʌ,NA,FALSE,vowel,fake,0,-,"-,+",-,-,-,+,+,0,+,-,-,-,-,-,0,0,-,0,0,0,+,"+,-",-,"+,-","-,+","+,-",-,-,+,-,-,-,0,-,-,0
1,kore1280,kor,NA,NA,026A,iˀ,NA,FALSE,vowel,fake,0,-,+,-,-,-,+,+,0,+,-,-,-,-,-,0,0,-,0,0,0,+,+,-,+,-,+,-,-,+,-,-,+,0,-,-,0
1,kore1280,kor,NA,NA,026A+0303,ɪ,NA,FALSE,vowel,fake,0,-,+,-,-,-,+,+,0,+,-,-,-,-,-,0,0,-,0,0,0,+,+,-,+,-,-,-,-,+,-,-,-,0,-,-,0
1,kore1280,kor,NA,NA,026A+0324+0303,ɪ̃,NA,FALSE,vowel,fake,0,-,+,-,-,-,+,+,0,+,-,-,+,-,-,0,0,-,0,0,0,+,+,-,+,-,-,-,-,+,-,-,-,0,-,-,0
1,kore1280,kor,NA,NA,026A+0330+0303,ɪ̤̃,NA,FALSE,vowel,fake,0,-,+,-,-,-,+,+,0,+,-,-,+,-,-,0,0,-,0,0,0,+,+,-,+,-,-,-,-,+,-,+,-,0,-,-,0
1,kore1280,kor,NA,NA,026A+02D0,ɪ̰̃,NA,FALSE,vowel,fake,0,-,+,-,-,-,+,+,0,+,-,-,+,-,-,0,0,-,0,0,0,+,+,-,+,-,-,-,-,+,-,-,+,0,-,-,0
1,kore1280,kor,NA,NA,026A+0075+032F,ɪː,NA,FALSE,vowel,fake,0,-,+,-,+,-,+,+,0,+,-,-,-,-,-,0,0,-,0,0,0,+,+,-,+,-,-,-,-,+,-,-,-,0,-,-,0
1,kore1280,kor,NA,NA,026A+02C0,ɪu̯,NA,FALSE,vowel,fake,0,-,"+,-",-,-,-,+,+,0,+,-,-,-,-,"-,+",+,-,-,0,0,0,+,+,-,"+,-","-,+","-,+",-,-,+,-,-,-,0,-,-,0
1,kore1280,kor,NA,NA,268,ɪˀ,NA,FALSE,vowel,fake,0,-,+,-,-,-,+,+,0,+,-,-,-,-,-,0,0,-,0,0,0,+,+,-,+,-,-,-,-,+,-,-,+,0,-,-,0
1,kore1280,kor,NA,NA,0268+0303,ɨ,NA,FALSE,vowel,fake,0,-,+,-,-,-,+,+,0,+,-,-,-,-,-,0,0,-,0,0,0,+,+,-,-,-,+,-,-,+,-,-,-,0,-,-,0
1,kore1280,kor,NA,NA,0268+031E,ɨ̃,NA,FALSE,vowel,fake,0,-,+,-,-,-,+,+,0,+,-,-,+,-,-,0,0,-,0,0,0,+,+,-,-,-,+,-,-,+,-,-,-,0,-,-,0
1,kore1280,kor,NA,NA,0268+031E,ɨ̞,NA,FALSE,vowel,fake,0,-,+,-,-,-,+,+,0,+,-,-,-,-,-,0,0,-,0,0,0,+,+,-,-,-,0,-,-,+,-,-,-,0,-,-,0
1,kore1280,kor,NA,NA,0268+0330,ɨ̞,NA,FALSE,vowel,fake,0,-,+,-,-,-,+,+,0,+,-,-,-,-,-,0,0,-,0,0,0,+,+,-,-,-,0,-,-,+,-,-,-,0,-,-,0
1,kore1280,kor,NA,NA,0268+02D0,ɨ̰,NA,FALSE,vowel,fake,0,-,+,-,-,-,+,+,0,+,-,-,-,-,-,0,0,-,0,0,0,+,+,-,-,-,+,-,-,+,-,-,+,0,-,-,0
1,kore1280,kor,NA,NA,0268+0303+02D0,ɨː,NA,FALSE,vowel,fake,0,-,+,-,+,-,+,+,0,+,-,-,-,-,-,0,0,-,0,0,0,+,+,-,-,-,+,-,-,+,-,-,-,0,-,-,0
1,kore1280,kor,NA,NA,0268+0069+032F,ɨ̃ː,NA,FALSE,vowel,fake,0,-,+,-,+,-,+,+,0,+,-,-,+,-,-,0,0,-,0,0,0,+,+,-,-,-,+,-,-,+,-,-,-,0,-,-,0
1,kore1280,kor,NA,NA,006A,ɨi̯,NA,FALSE,vowel,fake,0,-,"+,-",-,-,-,+,+,0,+,-,-,-,-,-,0,0,-,0,0,0,+,+,-,"-,+",-,+,-,-,+,-,-,-,0,-,-,0
1,kore1280,kor,NA,NA,006A+0325,j,NA,FALSE,consonant,fake,0,-,-,-,-,-,+,+,0,+,-,-,-,-,-,0,0,-,0,0,0,+,+,-,+,-,+,0,0,+,-,-,-,-,-,-,-
1,kore1280,kor,NA,NA,029D,j̥,NA,FALSE,consonant,fake,0,-,-,-,-,-,+,+,0,+,-,-,-,-,-,0,0,-,0,0,0,+,+,-,+,-,+,0,0,-,-,-,-,-,-,-,-
1,kore1280,kor,NA,NA,029D+02B7,ʝ,NA,FALSE,consonant,fake,0,-,-,-,-,+,-,+,+,-,-,-,-,-,-,0,0,+,-,+,-,+,+,-,+,-,0,0,0,+,-,-,-,-,-,-,-
1,kore1280,kor,NA,NA,025F,ʝʷ,NA,FALSE,consonant,fake,0,-,-,-,-,+,-,+,+,-,-,-,-,-,+,+,-,+,-,+,-,+,+,-,+,-,0,0,0,+,-,-,-,-,-,-,-
1,kore1280,kor,NA,NA,025F+02B1,ɟ,NA,FALSE,consonant,fake,0,-,-,-,-,+,-,-,-,-,-,-,-,-,-,0,0,+,-,+,-,+,+,-,+,-,0,0,0,+,-,-,-,-,-,-,-
1,kore1280,kor,NA,NA,025F+029D,ɟʱ,NA,FALSE,consonant,fake,0,-,-,-,-,+,-,-,-,-,-,-,-,-,-,0,0,+,-,+,-,+,+,-,+,-,0,0,0,+,-,+,-,-,-,-,-
1,kore1280,kor,NA,NA,006B,ɟʝ,NA,FALSE,consonant,fake,0,-,-,-,-,+,-,-,+,-,-,-,-,-,-,0,0,+,-,+,-,+,+,-,+,-,0,0,0,+,-,-,-,-,-,-,-
1,kore1280,kor,NA,NA,006B+02DE,k,NA,FALSE,consonant,fake,0,-,-,-,-,+,-,-,-,-,-,-,-,-,-,0,0,-,0,0,0,+,+,-,-,-,0,0,0,-,-,-,-,-,-,-,-
1,kore1280,kor,NA,NA,006B+02DE+02B0,k˞,NA,FALSE,consonant,fake,0,-,-,-,-,+,-,-,-,-,-,-,-,-,-,0,0,+,+,+,+,+,+,-,-,-,0,0,0,-,-,-,-,-,-,-,-
1,kore1280,kor,NA,NA,006B+02D0,k˞ʰ,NA,FALSE,consonant,fake,0,-,-,-,-,+,-,-,-,-,-,-,-,-,-,0,0,+,+,+,+,+,+,-,-,-,0,0,0,-,-,+,-,-,-,-,-
1,kore1280,kor,NA,NA,006B+0253+0325+02B7,kː,NA,FALSE,consonant,fake,0,-,-,-,+,+,-,-,-,-,-,-,-,-,-,0,0,-,0,0,0,+,+,-,-,-,0,0,0,-,-,-,-,-,-,-,-
1,kore1280,kor,NA,NA,006B+02B0,kɓ̥ʷ,NA,FALSE,consonant,fake,0,-,-,-,-,+,-,-,-,-,-,-,-,-,"-,+",+,-,-,0,0,0,"+,-",+,-,-,-,0,0,0,-,-,-,-,-,-,"-,+",-
1,kore1280,kor,NA,NA,006B+02B2,kʰ,NA,FALSE,consonant,fake,0,-,-,-,-,+,-,-,-,-,-,-,-,-,-,0,0,-,0,0,0,+,+,-,-,-,0,0,0,-,-,+,-,-,-,-,-
1,kore1280,kor,NA,NA,006B+02B2+02B0,kʲ,NA,FALSE,consonant,fake,0,-,-,-,-,+,-,-,-,-,-,-,-,-,-,0,0,-,0,0,0,+,+,-,+,-,0,0,0,-,-,-,-,-,-,-,-
1,kore1280,kor,NA,NA,006B+029F+0353+0325,kʲʰ,NA,FALSE,consonant,fake,0,-,-,-,-,+,-,-,-,-,-,-,-,-,-,0,0,-,0,0,0,+,+,-,+,-,0,0,0,-,-,+,-,-,-,-,-
1,kore1280,kor,NA,NA,006B+014B,kʟ͓̥,NA,FALSE,consonant,fake,0,-,-,-,-,+,"-,+","-,+","-,+","-,+",-,-,-,"-,+",-,0,0,-,0,0,0,+,+,-,-,-,0,0,0,-,-,-,-,-,-,-,-
1,kore1280,kor,NA,NA,006B+0070,kŋ,NA,FALSE,consonant,fake,0,-,-,-,-,+,"-,+",-,-,-,-,-,"-,+",-,-,0,0,-,0,0,0,+,+,-,-,-,0,0,0,"-,+",-,-,-,-,-,-,-
1,kore1280,kor,NA,NA,006B+0070+02B7,kp,NA,FALSE,consonant,fake,0,-,-,-,-,+,-,-,-,-,-,-,-,-,+,-,-,-,0,0,0,+,+,-,-,-,0,0,0,-,-,-,-,-,-,-,-
1,kore1280,kor,NA,NA,006B+02B7,kpʷ,NA,FALSE,consonant,fake,0,-,-,-,-,+,-,-,-,-,-,-,-,-,+,+,-,-,0,0,0,+,+,-,-,-,0,0,0,-,-,-,-,-,-,-,-
1,kore1280,kor,NA,NA,006B+02B7+02B0,kʷ,NA,FALSE,consonant,fake,0,-,-,-,-,+,-,-,-,-,-,-,-,-,+,+,-,-,0,0,0,+,+,-,-,-,0,0,0,-,-,-,-,-,-,-,-
1,kore1280,kor,NA,NA,006B+03C7,kʷʰ,NA,FALSE,consonant,fake,0,-,-,-,-,+,-,-,-,-,-,-,-,-,+,+,-,-,0,0,0,+,+,-,-,-,0,0,0,-,-,+,-,-,-,-,-
1,kore1280,kor,NA,NA,006C,kχ,NA,FALSE,consonant,fake,0,-,-,-,-,+,-,"-,+","-,+",-,-,-,-,-,-,0,0,-,0,0,0,+,"+,-",-,-,"-,+",0,0,0,-,-,-,-,-,-,-,-
1,kore1280,kor,NA,NA,006C+0320,l,NA,FALSE,consonant,fake,0,-,-,-,-,+,+,+,0,+,-,-,-,+,-,0,0,+,+,-,-,-,0,0,0,0,0,0,0,+,-,-,-,-,-,-,-
1,kore1280,kor,NA,NA,006C+0329,l̠,NA,FALSE,consonant,fake,0,-,-,-,-,+,+,+,0,+,-,-,-,+,-,0,0,+,-,+,-,-,0,0,0,0,0,0,0,+,-,-,-,-,-,-,-
1,kore1280,kor,NA,NA,006C+032A,l̩,NA,FALSE,consonant,fake,0,-,+,-,-,+,+,+,0,+,-,-,-,+,-,0,0,+,+,-,-,-,0,0,0,0,0,0,0,+,-,-,-,-,-,-,-
1,kore1280,kor,NA,NA,006C+032A,l̪,NA,FALSE,consonant,fake,0,-,-,-,-,+,+,+,0,+,-,-,-,+,-,0,0,+,+,+,-,-,0,0,0,0,0,0,0,+,-,-,-,-,-,-,-
1,kore1280,kor,NA,NA,006C+0325,l̥,NA,FALSE,consonant,fake,0,-,-,-,-,+,+,+,0,+,-,-,-,+,-,0,0,+,+,-,-,-,0,0,0,0,0,0,0,-,-,-,-,-,-,-,-
1,kore1280,kor,NA,NA,006C+0325+0329,l̥̩,NA,FALSE,consonant,fake,0,-,+,-,-,+,+,+,0,+,-,-,-,+,-,0,0,+,+,-,-,-,0,0,0,0,0,0,0,-,-,-,-,-,-,-,-
1,kore1280,kor,NA,NA,006C+02D0,lː,NA,FALSE,consonant,fake,0,-,-,-,+,+,+,+,0,+,-,-,-,+,-,0,0,+,+,-,-,-,0,0,0,0,0,0,0,+,-,-,-,-,-,-,-
1,kore1280,kor,NA,NA,006C+02B1,lʱ,NA,FALSE,consonant,fake,0,-,-,-,-,+,+,+,0,+,-,-,-,+,-,0,0,+,+,-,-,-,0,0,0,0,0,0,0,+,-,+,-,-,-,-,-
1,kore1280,kor,NA,NA,006C+0320+02B2,l̠ʲ,NA,FALSE,consonant,fake,0,-,-,-,-,+,+,+,0,+,-,-,-,+,-,0,0,+,-,+,-,+,+,-,+,-,0,0,0,+,-,-,-,-,-,-,-
1,kore1280,kor,NA,NA,029F,ʟ,NA,FALSE,consonant,fake,0,-,-,-,-,+,+,+,0,+,-,-,-,+,-,0,0,-,0,0,0,+,+,-,-,-,0,0,0,+,-,-,-,-,-,-,-
1,kore1280,kor,NA,NA,029F+0353,ʟ͓,NA,FALSE,consonant,fake,0,-,-,-,-,+,+,+,+,+,-,-,-,+,-,0,0,-,0,0,0,+,+,-,-,-,0,0,0,+,-,-,-,-,-,-,-
1,kore1280,kor,NA,NA,026B,ɫ,NA,FALSE,consonant,fake,0,-,-,-,-,+,+,+,0,+,-,-,-,+,-,0,0,+,+,-,-,+,-,-,-,+,0,0,0,+,-,-,-,-,-,-,-
1,kore1280,kor,NA,NA,026C,ɬ,NA,FALSE,consonant,fake,0,-,-,-,-,+,-,+,+,-,-,-,-,+,-,0,0,+,+,-,-,-,0,0,0,0,0,0,0,-,-,-,-,-,-,-,-
1,kore1280,kor,NA,NA,026D,ɭ,NA,FALSE,consonant,fake,0,-,-,-,-,+,+,+,0,+,-,-,-,+,-,0,0,+,-,-,-,-,0,0,0,0,0,0,0,+,-,-,-,-,-,-,-
1,kore1280,kor,NA,NA,026D+0325,ɭ̥,NA,FALSE,consonant,fake,0,-,-,-,-,+,+,+,0,+,-,-,-,+,-,0,0,+,-,-,-,-,0,0,0,0,0,0,0,-,-,-,-,-,-,-,-
1,kore1280,kor,NA,NA,006D,m,NA,FALSE,consonant,fake,0,-,-,-,-,+,+,-,0,-,-,-,+,-,+,-,-,-,0,0,0,-,0,0,0,0,0,0,0,+,-,-,-,-,-,-,-
1,kore1280,kor,NA,NA,006D+0329,m̩,NA,FALSE,consonant,fake,0,-,+,-,-,+,+,-,0,-,-,-,+,-,+,-,-,-,0,0,0,-,0,0,0,0,0,0,0,+,-,-,-,-,-,-,-
1,kore1280,kor,NA,NA,006D+0324+0329,m̤̩,NA,FALSE,consonant,fake,0,-,+,-,-,+,+,-,0,-,-,-,+,-,+,-,-,-,0,0,0,-,0,0,0,0,0,0,0,+,-,+,-,-,-,-,-
1,kore1280,kor,NA,NA,006D+0325,m̥,NA,FALSE,consonant,fake,0,-,-,-,-,+,+,-,0,-,-,-,+,-,+,-,-,-,0,0,0,-,0,0,0,0,0,0,0,-,-,-,-,-,-,-,-
1,kore1280,kor,NA,NA,006D+0325+0329,m̥̩,NA,FALSE,consonant,fake,0,-,+,-,-,+,+,-,0,-,-,-,+,-,+,-,-,-,0,0,0,-,0,0,0,0,0,0,0,-,-,-,-,-,-,-,-
1,kore1280,kor,NA,NA,006D+0330+0329,m̰̩,NA,FALSE,consonant,fake,0,-,+,-,-,+,+,-,0,-,-,-,+,-,+,-,-,-,0,0,0,-,0,0,0,0,0,0,0,+,-,-,+,-,-,-,-
1,kore1280,kor,NA,NA,006D+02D0,mː,NA,FALSE,consonant,fake,0,-,-,-,+,+,+,-,0,-,-,-,+,-,+,-,-,-,0,0,0,-,0,0,0,0,0,0,0,+,-,-,-,-,-,-,-
1,kore1280,kor,NA,NA,006D+0062,mb,NA,FALSE,consonant,fake,0,-,-,-,-,+,"+,-",-,-,-,-,-,"+,-",-,+,-,-,-,0,0,0,-,0,0,0,0,0,0,0,+,-,-,-,-,-,-,-
1,kore1280,kor,NA,NA,006D+0062+02B2,mbʲ,NA,FALSE,consonant,fake,0,-,-,-,-,+,"+,-",-,-,-,-,-,"+,-",-,+,-,-,-,0,0,0,"-,+",+,-,+,-,0,0,0,+,-,-,-,-,-,-,-
1,kore1280,kor,NA,NA,006D+0062+02B7,mbʷ,NA,FALSE,consonant,fake,0,-,-,-,-,+,"+,-",-,-,-,-,-,"+,-",-,+,"-,+",-,-,0,0,0,-,0,0,0,0,0,0,0,+,-,-,-,-,-,-,-
1,kore1280,kor,NA,NA,006D+02B1,mʙ,NA,FALSE,consonant,fake,0,-,-,-,-,+,+,"-,+",0,"-,+",-,"-,+","+,-",-,+,-,-,-,0,0,0,-,0,0,0,0,0,0,0,+,-,-,-,-,-,-,-
1,kore1280,kor,NA,NA,006D+02B2,mʱ,NA,FALSE,consonant,fake,0,-,-,-,-,+,+,-,0,-,-,-,+,-,+,-,-,-,0,0,0,-,0,0,0,0,0,0,0,+,-,+,-,-,-,-,-
1,kore1280,kor,NA,NA,006D+0070,mʲ,NA,FALSE,consonant,fake,0,-,-,-,-,+,+,-,0,-,-,-,+,-,+,-,-,-,0,0,0,+,+,-,+,-,0,0,0,+,-,-,-,-,-,-,-
1,kore1280,kor,NA,NA,006D+0070+02B0,mp,NA,FALSE,consonant,fake,0,-,-,-,-,+,"+,-",-,-,-,-,-,"+,-",-,+,-,-,-,0,0,0,-,0,0,0,0,0,0,0,"+,-",-,-,-,-,-,-,-
1,kore1280,kor,NA,NA,006D+0070+02B2,mpʰ,NA,FALSE,consonant,fake,0,-,-,-,-,+,"+,-",-,-,-,-,-,"+,-",-,+,-,-,-,0,0,0,-,0,0,0,0,0,0,0,"+,-",-,"-,+",-,-,-,-,-
1,kore1280,kor,NA,NA,006D+0070+02B2+02B0,mpʲ,NA,FALSE,consonant,fake,0,-,-,-,-,+,"+,-",-,-,-,-,-,"+,-",-,+,-,-,-,0,0,0,"-,+",+,-,+,-,0,0,0,"+,-",-,-,-,-,-,-,-
1,kore1280,kor,NA,NA,006D+0070+02B7,mpʲʰ,NA,FALSE,consonant,fake,0,-,-,-,-,+,"+,-",-,-,-,-,-,"+,-",-,+,-,-,-,0,0,0,"-,+",+,-,+,-,0,0,0,"+,-",-,"-,+",-,-,-,-,-
1,kore1280,kor,NA,NA,006D+0076,mpʷ,NA,FALSE,consonant,fake,0,-,-,-,-,+,"+,-",-,-,-,-,-,"+,-",-,+,"-,+",-,-,0,0,0,-,0,0,0,0,0,0,0,"+,-",-,-,-,-,-,-,-
1,kore1280,kor,NA,NA,006D+02B7,mv,NA,FALSE,consonant,fake,0,-,-,-,-,+,"+,-","-,+",+,-,-,-,"+,-",-,+,-,"-,+",-,0,0,0,-,0,0,0,0,0,0,0,+,-,-,-,-,-,-,-
1,kore1280,kor,NA,NA,006D+0325+02B7,mʷ,NA,FALSE,consonant,fake,0,-,-,-,-,+,+,-,0,-,-,-,+,-,+,+,-,-,0,0,0,-,0,0,0,0,0,0,0,+,-,-,-,-,-,-,-
1,kore1280,kor,NA,NA,006D+02B7+02D0,m̥ʷ,NA,FALSE,consonant,fake,0,-,-,-,-,+,+,-,0,-,-,-,+,-,+,+,-,-,0,0,0,-,0,0,0,0,0,0,0,-,-,-,-,-,-,-,-
1,kore1280,kor,NA,NA,006E,mʷː,NA,FALSE,consonant,fake,0,-,-,-,+,+,+,-,0,-,-,-,+,-,+,+,-,-,0,0,0,-,0,0,0,0,0,0,0,+,-,-,-,-,-,-,-
1,kore1280,kor,NA,NA,006E+0320,n,NA,FALSE,consonant,fake,0,-,-,-,-,+,+,-,0,-,-,-,+,-,-,0,0,+,+,-,-,-,0,0,0,0,0,0,0,+,-,-,-,-,-,-,-
1,kore1280,kor,NA,NA,006E+0329,n̠,NA,FALSE,consonant,fake,0,-,-,-,-,+,+,-,0,-,-,-,+,-,-,0,0,+,-,+,-,-,0,0,0,0,0,0,0,+,-,-,-,-,-,-,-
1,kore1280,kor,NA,NA,006E+032A,n̩,NA,FALSE,consonant,fake,0,-,+,-,-,+,+,-,0,-,-,-,+,-,-,0,0,+,+,-,-,-,0,0,0,0,0,0,0,+,-,-,-,-,-,-,-
1,kore1280,kor,NA,NA,006E+032A,n̪,NA,FALSE,consonant,fake,0,-,-,-,-,+,+,-,0,-,-,-,+,-,-,0,0,+,+,+,-,-,0,0,0,0,0,0,0,+,-,-,-,-,-,-,-
1,kore1280,kor,NA,NA,006E+033B,n̻,NA,FALSE,consonant,fake,0,-,-,-,-,+,+,-,0,-,-,-,+,-,-,0,0,+,+,+,-,-,0,0,0,0,0,0,0,+,-,-,-,-,-,-,-
1,kore1280,kor,NA,NA,006E+032A+0325,n̪̥,NA,FALSE,consonant,fake,0,-,-,-,-,+,+,-,0,-,-,-,+,-,-,0,0,+,+,+,-,-,0,0,0,0,0,0,0,-,-,-,-,-,-,-,-
1,kore1280,kor,NA,NA,006E+0325,n̥,NA,FALSE,consonant,fake,0,-,-,-,-,+,+,-,0,-,-,-,+,-,-,0,0,+,+,-,-,-,0,0,0,0,0,0,0,-,-,-,-,-,-,-,-
1,kore1280,kor,NA,NA,006E+02D0,nː,NA,FALSE,consonant,fake,0,-,-,-,+,+,+,-,0,-,-,-,+,-,-,0,0,+,+,-,-,-,0,0,0,0,0,0,0,+,-,-,-,-,-,-,-
1,kore1280,kor,NA,NA,6.00E+64,nd,NA,FALSE,consonant,fake,0,-,-,-,-,+,"+,-",-,-,-,-,-,"+,-",-,-,0,0,+,+,-,-,-,0,0,0,0,0,0,0,+,-,-,-,-,-,-,-
1,kore1280,kor,NA,NA,006E+032A+0064+032A,n̪d̪,NA,FALSE,consonant,fake,0,-,-,-,-,+,"+,-",-,-,-,-,-,"+,-",-,-,0,0,+,+,+,-,-,0,0,0,0,0,0,0,+,-,-,-,-,-,-,-
1,kore1280,kor,NA,NA,006E+032A+0064+032A,ndʙ,NA,FALSE,consonant,fake,0,-,-,-,-,+,"+,-,+","-,-,+",-,"-,-,+",-,"-,-,+","+,-,-",-,"-,-,+",-,-,"+,+,-",+,-,-,-,0,0,0,0,0,0,0,+,-,-,-,-,-,-,-
1,kore1280,kor,NA,NA,006E+0320+0064+0320+02B2,n̠d̠ʲ,NA,FALSE,consonant,fake,0,-,-,-,-,+,"+,-",-,-,-,-,-,"+,-",-,-,0,0,+,"-,+","+,-",-,"-,+",+,-,+,-,0,0,0,+,-,-,-,-,-,-,-
1,kore1280,kor,NA,NA,207F+0064+0320+02B7+02B2,ndr,NA,FALSE,consonant,fake,0,-,-,-,-,+,"+,-,+","-,-,+",-,"-,-,+",-,"-,-,+","+,-,-",-,-,0,0,+,+,-,-,-,0,0,0,0,0,0,0,+,-,-,-,-,-,-,-
1,kore1280,kor,NA,NA,006E+0064+007A,ⁿd̠ʷʲ,NA,FALSE,consonant,fake,0,-,-,-,-,+,-,-,-,-,-,-,"+,-",-,+,+,-,+,+,-,-,+,+,-,+,-,0,0,0,+,-,-,-,-,-,-,-
1,kore1280,kor,NA,NA,006E+0064+0291,ndz,NA,FALSE,consonant,fake,0,-,-,-,-,+,"+,-",-,+,-,-,-,"+,-",-,-,0,0,+,+,-,+,-,0,0,0,0,0,0,0,+,-,-,-,-,-,-,-
1,kore1280,kor,NA,NA,006E+0064+0292,ndʑ,NA,FALSE,consonant,fake,0,-,-,-,-,+,"+,-,-","-,-,+","0,-,+",-,-,-,"+,-,-",-,-,0,0,+,+,"-,-,+","-,-,+","-,-,+",+,-,+,-,0,0,0,+,-,-,-,-,-,-,-
1,kore1280,kor,NA,NA,006E+02B1,nd̠ʒ,NA,FALSE,consonant,fake,0,-,-,-,-,+,"+,-",-,+,-,-,-,"+,-",-,-,0,0,+,-,+,+,-,0,0,0,0,0,0,0,+,-,-,-,-,-,-,-
1,kore1280,kor,NA,NA,006E+0320+02B2,nʱ,NA,FALSE,consonant,fake,0,-,-,-,-,+,+,-,0,-,-,-,+,-,-,0,0,+,+,-,-,-,0,0,0,0,0,0,0,+,-,+,-,-,-,-,-
1,kore1280,kor,NA,NA,006E+0320+0325+02B2,n̠ʲ,NA,FALSE,consonant,fake,0,-,-,-,-,+,+,-,0,-,-,-,+,-,-,0,0,+,-,+,-,+,+,-,+,-,0,0,0,+,-,-,-,-,-,-,-
1,kore1280,kor,NA,NA,6.00E+73,n̠̥ʲ,NA,FALSE,consonant,fake,0,-,-,-,-,+,+,-,0,-,-,-,+,-,-,0,0,+,-,+,-,+,+,-,+,-,0,0,0,-,-,-,-,-,-,-,-
1,kore1280,kor,NA,NA,6.00E+74,nr,NA,FALSE,consonant,fake,0,-,-,-,-,+,+,"-,+",0,"-,+",-,"-,+","+,-",-,-,0,0,+,+,-,-,-,0,0,0,0,0,0,0,+,-,-,-,-,-,-,-
1,kore1280,kor,NA,NA,006E+0074+0255,ns,NA,FALSE,consonant,fake,0,-,-,-,-,+,"+,-","-,+",+,-,-,-,"+,-",-,-,0,0,+,+,-,"-,+",-,0,0,0,0,0,0,0,"+,-",-,-,-,-,-,-,-
1,kore1280,kor,NA,NA,006E+0074+02B0,nt,NA,FALSE,consonant,fake,0,-,-,-,-,+,"+,-",-,-,-,-,-,"+,-",-,-,0,0,+,+,-,-,-,0,0,0,0,0,0,0,"+,-",-,-,-,-,-,-,-
1,kore1280,kor,NA,NA,006E+0074+0073,ntɕ,NA,FALSE,consonant,fake,0,-,-,-,-,+,"+,-",-,-,-,-,-,"+,-",-,-,0,0,+,+,+,+,+,+,-,+,-,0,0,0,"+,-",-,-,-,-,-,-,-
1,kore1280,kor,NA,NA,006E+0074+0073+02B0,ntʰ,NA,FALSE,consonant,fake,0,-,-,-,-,+,"+,-",-,-,-,-,-,"+,-",-,-,0,0,+,+,-,-,-,0,0,0,0,0,0,0,"+,-",-,"-,+",-,-,-,-,-
1,kore1280,kor,NA,NA,006E+0074+0283,nts,NA,FALSE,consonant,fake,0,-,-,-,-,+,"+,-",-,+,-,-,-,"+,-",-,-,0,0,+,+,-,+,-,0,0,0,0,0,0,0,"+,-",-,-,-,-,-,-,-
1,kore1280,kor,NA,NA,006E+0074+0283+02B0,ntsʰ,NA,FALSE,consonant,fake,0,-,-,-,-,+,"+,-",-,+,-,-,-,"+,-",-,-,0,0,+,+,-,+,-,0,0,0,0,0,0,0,"+,-",-,+,-,-,-,-,-
1,kore1280,kor,NA,NA,006E+0074+0291,nt̠ʃ,NA,FALSE,consonant,fake,0,-,-,-,-,+,"+,-",-,+,-,-,-,"+,-",-,-,0,0,+,-,+,+,-,0,0,0,0,0,0,0,"+,-",-,-,-,-,-,-,-
1,kore1280,kor,NA,NA,006E+0320+02B7+02B2,nt̠ʃʰ,NA,FALSE,consonant,fake,0,-,-,-,-,+,"+,-",-,+,-,-,-,"+,-",-,-,0,0,+,-,+,+,-,0,0,0,0,0,0,0,"+,-",-,+,-,-,-,-,-
1,kore1280,kor,NA,NA,006E+0320+0292,ntʑ,NA,FALSE,consonant,fake,0,-,-,-,-,+,"+,-,-","-,-,+","0,-,+",-,-,-,"+,-,-",-,-,0,0,+,+,"-,-,+","-,-,+","-,-,+",+,-,+,-,0,0,0,"+,-,+",-,-,-,-,-,-,-
1,kore1280,kor,NA,NA,0274+0262,n̠ʷʲ,NA,FALSE,consonant,fake,0,-,-,-,-,+,+,-,0,-,-,-,+,-,+,+,-,+,-,+,-,+,+,-,+,-,0,0,0,+,-,-,-,-,-,-,-
1,kore1280,kor,NA,NA,272,n̠ʒ,NA,FALSE,consonant,fake,0,-,-,-,-,+,"+,-","-,+",+,-,-,-,"+,-",-,-,0,0,+,-,+,"-,+",-,0,0,0,0,0,0,0,+,-,-,-,-,-,-,-
1,kore1280,kor,NA,NA,0272+0063,ɴɢ,NA,FALSE,consonant,fake,0,-,-,-,-,+,"+,-",-,-,-,-,-,"+,-",-,-,0,0,-,0,0,0,+,-,-,-,+,0,0,0,+,-,-,-,-,-,-,-
1,kore1280,kor,NA,NA,0272+0063+02B0,ɲ,NA,FALSE,consonant,fake,0,-,-,-,-,+,+,-,0,-,-,-,+,-,-,0,0,+,-,+,-,+,+,-,+,-,0,0,0,+,-,-,-,-,-,-,-
1,kore1280,kor,NA,NA,0272+025F,ɲc,NA,FALSE,consonant,fake,0,-,-,-,-,+,"+,-",-,-,-,-,-,"+,-",-,-,0,0,+,-,+,-,+,+,-,+,-,0,0,0,"+,-",-,-,-,-,-,-,-
1,kore1280,kor,NA,NA,273,ɲcʰ,NA,FALSE,consonant,fake,0,-,-,-,-,+,"+,-",-,-,-,-,-,"+,-",-,-,0,0,+,-,+,-,+,+,-,+,-,0,0,0,"+,-",-,"-,+",-,-,-,-,-
1,kore1280,kor,NA,NA,0273+0325,ɲɟ,NA,FALSE,consonant,fake,0,-,-,-,-,+,"+,-",-,-,-,-,-,"+,-",-,-,0,0,+,-,+,-,+,+,-,+,-,0,0,0,+,-,-,-,-,-,-,-
1,kore1280,kor,NA,NA,0273+0064+0290,ɳ,NA,FALSE,consonant,fake,0,-,-,-,-,+,+,-,0,-,-,-,+,-,-,0,0,+,-,-,-,-,0,0,0,0,0,0,0,+,-,-,-,-,-,-,-
1,kore1280,kor,NA,NA,0273+0256,ɳ̥,NA,FALSE,consonant,fake,0,-,-,-,-,+,+,-,0,-,-,-,+,-,-,0,0,+,-,-,-,-,0,0,0,0,0,0,0,-,-,-,-,-,-,-,-
1,kore1280,kor,NA,NA,0273+0288,ɳɖ,NA,FALSE,consonant,fake,0,-,-,-,-,+,"+,-",-,-,-,-,-,"+,-",-,-,0,0,+,-,-,-,-,0,0,0,0,0,0,0,+,-,-,-,-,-,-,-
1,kore1280,kor,NA,NA,0273+0288+02B0,ɳɖʐ,NA,FALSE,consonant,fake,0,-,-,-,-,+,"+,-",-,+,-,-,-,"+,-",-,-,0,0,+,-,-,+,-,0,0,0,0,0,0,0,+,-,-,-,-,-,-,-
1,kore1280,kor,NA,NA,014B,ɳʈ,NA,FALSE,consonant,fake,0,-,-,-,-,+,"+,-",-,-,-,-,-,"+,-",-,-,0,0,+,-,-,-,-,0,0,0,0,0,0,0,"+,-",-,-,-,-,-,-,-
1,kore1280,kor,NA,NA,014B+0329,ɳʈʰ,NA,FALSE,consonant,fake,0,-,-,-,-,+,"+,-",-,-,-,-,-,"+,-",-,-,0,0,+,-,-,-,-,0,0,0,0,0,0,0,"+,-",-,"-,+",-,-,-,-,-
1,kore1280,kor,NA,NA,014B+0325,ŋ,NA,FALSE,consonant,fake,0,-,-,-,-,+,+,-,0,-,-,-,+,-,-,0,0,-,0,0,0,+,+,-,-,-,0,0,0,+,-,-,-,-,-,-,-
1,kore1280,kor,NA,NA,014B+02D0,ŋ̩,NA,FALSE,consonant,fake,0,-,+,-,-,+,+,-,0,-,-,-,+,-,-,0,0,-,0,0,0,+,+,-,-,-,0,0,0,+,-,-,-,-,-,-,-
1,kore1280,kor,NA,NA,014B+0261,ŋ̥,NA,FALSE,consonant,fake,0,-,-,-,-,+,+,-,0,-,-,-,+,-,-,0,0,-,0,0,0,+,+,-,-,-,0,0,0,-,-,-,-,-,-,-,-
1,kore1280,kor,NA,NA,014B+0261+02B2,ŋː,NA,FALSE,consonant,fake,0,-,-,-,+,+,+,-,0,-,-,-,+,-,-,0,0,-,0,0,0,+,+,-,-,-,0,0,0,+,-,-,-,-,-,-,-
1,kore1280,kor,NA,NA,014B+0261+02B7,ŋɡ,NA,FALSE,consonant,fake,0,-,-,-,-,+,"+,-",-,-,-,-,-,"+,-",-,-,0,0,-,0,0,0,+,+,-,-,-,0,0,0,+,-,-,-,-,-,-,-
1,kore1280,kor,NA,NA,014B+0263,ŋɡʲ,NA,FALSE,consonant,fake,0,-,-,-,-,+,"+,-",-,-,-,-,-,"+,-",-,-,0,0,-,0,0,0,+,+,-,"-,+",-,0,0,0,+,-,-,-,-,-,-,-
1,kore1280,kor,NA,NA,014B+006B,ŋɡʷ,NA,FALSE,consonant,fake,0,-,-,-,-,+,"+,-",-,-,-,-,-,"+,-",-,"-,+",+,-,-,0,0,0,+,+,-,-,-,0,0,0,+,-,-,-,-,-,-,-
1,kore1280,kor,NA,NA,014B+006B+02B0,ŋɣ,NA,FALSE,consonant,fake,0,-,-,-,-,+,"+,-","-,+",+,-,-,-,"+,-",-,-,0,0,-,0,0,0,+,+,-,-,-,0,0,0,+,-,-,-,-,-,-,-
1,kore1280,kor,NA,NA,014B+006B+02B2,ŋk,NA,FALSE,consonant,fake,0,-,-,-,-,+,"+,-",-,-,-,-,-,"+,-",-,-,0,0,-,0,0,0,+,+,-,-,-,0,0,0,"+,-",-,-,-,-,-,-,-
1,kore1280,kor,NA,NA,014B+006B+02B2+02B0,ŋkʰ,NA,FALSE,consonant,fake,0,-,-,-,-,+,"+,-",-,-,-,-,-,"+,-",-,-,0,0,-,0,0,0,+,+,-,-,-,0,0,0,"+,-",-,"-,+",-,-,-,-,-
1,kore1280,kor,NA,NA,014B+006B+02B7,ŋkʲ,NA,FALSE,consonant,fake,0,-,-,-,-,+,"+,-",-,-,-,-,-,"+,-",-,-,0,0,-,0,0,0,+,+,-,"-,+",-,0,0,0,"+,-",-,-,-,-,-,-,-
1,kore1280,kor,NA,NA,014B+006D,ŋkʲʰ,NA,FALSE,consonant,fake,0,-,-,-,-,+,"+,-",-,-,-,-,-,"+,-",-,-,0,0,-,0,0,0,+,+,-,"-,+",-,0,0,0,"+,-",-,"-,+",-,-,-,-,-
1,kore1280,kor,NA,NA,014B+006D+02B7,ŋkʷ,NA,FALSE,consonant,fake,0,-,-,-,-,+,"+,-",-,-,-,-,-,"+,-",-,"-,+",+,-,-,0,0,0,+,+,-,-,-,0,0,0,"+,-",-,-,-,-,-,-,-
1,kore1280,kor,NA,NA,014B+02B7,ŋm,NA,FALSE,consonant,fake,0,-,-,-,-,+,+,-,0,-,-,-,+,-,"-,+",-,-,-,0,0,0,"+,-",+,-,-,-,0,0,0,+,-,-,-,-,-,-,-
1,kore1280,kor,NA,NA,014B+0294,ŋmʷ,NA,FALSE,consonant,fake,0,-,-,-,-,+,+,-,0,-,-,-,+,-,"-,+",+,-,-,0,0,0,"+,-",+,-,-,-,0,0,0,+,-,-,-,-,-,-,-
1,kore1280,kor,NA,NA,014B+0294,ŋʷ,NA,FALSE,consonant,fake,0,-,-,-,-,+,+,-,0,-,-,-,+,-,+,+,-,-,0,0,0,+,+,-,-,-,0,0,0,+,-,-,-,-,-,-,-
1,kore1280,kor,NA,NA,006F,ŋʔ,NA,FALSE,consonant,fake,0,-,-,-,-,+,"+,-",-,-,-,-,-,"+,-",-,-,0,0,-,0,0,0,"+,-",+,-,-,-,0,0,0,"+,-",-,-,"-,+",-,-,-,-
1,kore1280,kor,NA,NA,006F+0306,ŋʔ,NA,FALSE,consonant,fake,0,-,-,-,-,+,"+,-",-,-,-,-,-,"+,-",-,-,0,0,-,0,0,0,"+,-",+,-,-,-,0,0,0,"+,-",-,-,"-,+",-,-,-,-
1,kore1280,kor,NA,NA,006F+0303,o,NA,FALSE,vowel,fake,0,-,+,-,-,-,+,+,0,+,-,-,-,-,+,+,-,-,0,0,0,+,-,-,-,+,+,-,-,+,-,-,-,0,-,-,0
1,kore1280,kor,NA,NA,00F8,ŏ,NA,FALSE,vowel,fake,0,-,+,+,-,-,+,+,0,+,-,-,-,-,+,+,-,-,0,0,0,+,-,-,-,+,+,-,-,+,-,-,-,0,-,-,0
1,kore1280,kor,NA,NA,00F8+031E,õ,NA,FALSE,vowel,fake,0,-,+,-,-,-,+,+,0,+,-,-,+,-,+,+,-,-,0,0,0,+,-,-,-,+,+,-,-,+,-,-,-,0,-,-,0
1,kore1280,kor,NA,NA,00F8+0324,ø,NA,FALSE,vowel,fake,0,-,+,-,-,-,+,+,0,+,-,-,-,-,+,+,-,-,0,0,0,+,-,-,+,-,+,-,-,+,-,-,-,0,-,-,0
1,kore1280,kor,NA,NA,00F8+0330,ø̞,NA,FALSE,vowel,fake,0,-,+,-,-,-,+,+,0,+,-,-,-,-,+,+,-,-,0,0,0,+,-,-,+,-,0,-,-,+,-,-,-,0,-,-,0
1,kore1280,kor,NA,NA,006F+031D,ø̤,NA,FALSE,vowel,fake,0,-,+,-,-,-,+,+,0,+,-,-,-,-,+,+,-,-,0,0,0,+,-,-,+,-,+,-,-,+,-,+,-,0,-,-,0
1,kore1280,kor,NA,NA,006F+031E,ø̰,NA,FALSE,vowel,fake,0,-,+,-,-,-,+,+,0,+,-,-,-,-,+,+,-,-,0,0,0,+,-,-,+,-,+,-,-,+,-,-,+,0,-,-,0
1,kore1280,kor,NA,NA,006F+032F,o̝,NA,FALSE,vowel,fake,0,-,+,-,-,-,+,+,0,+,-,-,-,-,+,+,-,-,0,0,0,+,0,-,-,+,+,-,-,+,-,-,-,0,-,-,0
1,kore1280,kor,NA,NA,006F+031E+0303,o̞,NA,FALSE,vowel,fake,0,-,+,-,-,-,+,+,0,+,-,-,-,-,+,+,-,-,0,0,0,+,-,-,-,+,0,-,-,+,-,-,-,0,-,-,0
1,kore1280,kor,NA,NA,006F+0324,o̯,NA,FALSE,vowel,fake,0,-,-,-,-,-,+,+,0,+,-,-,-,-,+,+,-,-,0,0,0,+,-,-,-,+,+,-,-,+,-,-,-,0,-,-,0
1,kore1280,kor,NA,NA,006F+0324+0303,õ̞,NA,FALSE,vowel,fake,0,-,+,-,-,-,+,+,0,+,-,-,+,-,+,+,-,-,0,0,0,+,-,-,-,+,0,-,-,+,-,-,-,0,-,-,0
1,kore1280,kor,NA,NA,006F+0325,o̤,NA,FALSE,vowel,fake,0,-,+,-,-,-,+,+,0,+,-,-,-,-,+,+,-,-,0,0,0,+,-,-,-,+,+,-,-,+,-,+,-,0,-,-,0
1,kore1280,kor,NA,NA,006F+0330,õ̤,NA,FALSE,vowel,fake,0,-,+,-,-,-,+,+,0,+,-,-,+,-,+,+,-,-,0,0,0,+,-,-,-,+,+,-,-,+,-,+,-,0,-,-,0
1,kore1280,kor,NA,NA,006F+02DE,o̥,NA,FALSE,vowel,fake,0,-,+,-,-,-,+,+,0,+,-,-,-,-,+,+,-,-,0,0,0,+,-,-,-,+,+,-,-,-,-,-,-,0,-,-,0
1,kore1280,kor,NA,NA,006F+02DE+02D0,o̰,NA,FALSE,vowel,fake,0,-,+,-,-,-,+,+,0,+,-,-,-,-,+,+,-,-,0,0,0,+,-,-,-,+,+,-,-,+,-,-,+,0,-,-,0
1,kore1280,kor,NA,NA,006F+02D0,o˞,NA,FALSE,vowel,fake,0,-,+,-,-,-,+,+,0,+,-,-,-,-,+,+,-,+,+,+,+,+,-,-,-,+,+,-,-,+,-,-,-,0,-,-,0
1,kore1280,kor,NA,NA,006F+0303+02D0,o˞ː,NA,FALSE,vowel,fake,0,-,+,-,+,-,+,+,0,+,-,-,-,-,+,+,-,+,+,+,+,+,-,-,-,+,+,-,-,+,-,-,-,0,-,-,0
1,kore1280,kor,NA,NA,00F8+02D0,oː,NA,FALSE,vowel,fake,0,-,+,-,+,-,+,+,0,+,-,-,-,-,+,+,-,-,0,0,0,+,-,-,-,+,+,-,-,+,-,-,-,0,-,-,0
1,kore1280,kor,NA,NA,00F8+0303+02D0,õː,NA,FALSE,vowel,fake,0,-,+,-,+,-,+,+,0,+,-,-,+,-,+,+,-,-,0,0,0,+,-,-,-,+,+,-,-,+,-,-,-,0,-,-,0
1,kore1280,kor,NA,NA,006F+0324+02D0,øː,NA,FALSE,vowel,fake,0,-,+,-,+,-,+,+,0,+,-,-,-,-,+,+,-,-,0,0,0,+,-,-,+,-,+,-,-,+,-,-,-,0,-,-,0
1,kore1280,kor,NA,NA,006F+0324+0303+02D0,ø̃ː,NA,FALSE,vowel,fake,0,-,+,-,+,-,+,+,0,+,-,-,+,-,+,+,-,-,0,0,0,+,-,-,+,-,+,-,-,+,-,-,-,0,-,-,0
1,kore1280,kor,NA,NA,006F+02D0+0069+032F,o̤ː,NA,FALSE,vowel,fake,0,-,+,-,+,-,+,+,0,+,-,-,-,-,+,+,-,-,0,0,0,+,-,-,-,+,+,-,-,+,-,+,-,0,-,-,0
1,kore1280,kor,NA,NA,006F+0061,õ̤ː,NA,FALSE,vowel,fake,0,-,+,-,+,-,+,+,0,+,-,-,+,-,+,+,-,-,0,0,0,+,-,-,-,+,+,-,-,+,-,+,-,0,-,-,0
1,kore1280,kor,NA,NA,006F+0303+0061,oːi̯,NA,FALSE,vowel,fake,0,-,"+,-",-,"+,-",-,+,+,0,+,-,-,-,-,"+,-",+,-,-,0,0,0,+,"-,+",-,"-,+","+,-",+,-,-,+,-,-,-,0,-,-,0
1,kore1280,kor,NA,NA,006F+032F+0061,oa,NA,FALSE,vowel,fake,0,-,+,-,-,-,+,+,0,+,-,-,-,-,"+,-",+,-,-,0,0,0,+,-,"-,+",-,"+,-",+,-,-,+,-,-,-,0,-,-,0
1,kore1280,kor,NA,NA,006F+0251,õa,NA,FALSE,vowel,fake,0,-,+,-,-,-,+,+,0,+,-,-,"+,-",-,"+,-",+,-,-,0,0,0,+,-,"-,+",-,"+,-",+,-,-,+,-,-,-,0,-,-,0
1,kore1280,kor,NA,NA,006F+0065,o̯a,NA,FALSE,vowel,fake,0,-,"-,+",-,-,-,+,+,0,+,-,-,-,-,"+,-",+,-,-,0,0,0,+,-,"-,+",-,"+,-",+,-,-,+,-,-,-,0,-,-,0
1,kore1280,kor,NA,NA,006F+0065+032F,oɑ,NA,FALSE,vowel,fake,0,-,+,-,-,-,+,+,0,+,-,-,-,-,"+,-",+,-,-,0,0,0,+,-,"-,+",-,+,+,-,-,+,-,-,-,0,-,-,0
1,kore1280,kor,NA,NA,006F+032F+0065,oe,NA,FALSE,vowel,fake,0,-,+,-,-,-,+,+,0,+,-,-,-,-,"+,-",+,-,-,0,0,0,+,-,-,"-,+","+,-",+,-,-,+,-,-,-,0,-,-,0
1,kore1280,kor,NA,NA,153,oe̯,NA,FALSE,vowel,fake,0,-,"+,-",-,-,-,+,+,0,+,-,-,-,-,"+,-",+,-,-,0,0,0,+,-,-,"-,+","+,-",+,-,-,+,-,-,-,0,-,-,0
1,kore1280,kor,NA,NA,0153+0065,o̯e,NA,FALSE,vowel,fake,0,-,"-,+",-,-,-,+,+,0,+,-,-,-,-,"+,-",+,-,-,0,0,0,+,-,-,"-,+","+,-",+,-,-,+,-,-,-,0,-,-,0
1,kore1280,kor,NA,NA,006F+0069,œ,NA,FALSE,vowel,fake,0,-,+,-,-,-,+,+,0,+,-,-,-,-,+,+,-,-,0,0,0,+,-,-,+,-,-,-,-,+,-,-,-,0,-,-,0
1,kore1280,kor,NA,NA,006F+0069+032F,œe,NA,FALSE,vowel,fake,0,-,+,-,-,-,+,+,0,+,-,-,-,-,"+,-",+,-,-,0,0,0,+,-,-,+,-,"-,+",-,-,+,-,-,-,0,-,-,0
1,kore1280,kor,NA,NA,006F+032F+0069,oi,NA,FALSE,vowel,fake,0,-,+,-,-,-,+,+,0,+,-,-,-,-,"+,-",+,-,-,0,0,0,+,"-,+",-,"-,+","+,-",+,-,-,+,-,-,-,0,-,-,0
1,kore1280,kor,NA,NA,006F+0075,oi̯,NA,FALSE,vowel,fake,0,-,"+,-",-,-,-,+,+,0,+,-,-,-,-,"+,-",+,-,-,0,0,0,+,"-,+",-,"-,+","+,-",+,-,-,+,-,-,-,0,-,-,0
1,kore1280,kor,NA,NA,006F+0075+032F,o̯i,NA,FALSE,vowel,fake,0,-,"-,+",-,-,-,+,+,0,+,-,-,-,-,"+,-",+,-,-,0,0,0,+,"-,+",-,"-,+","+,-",+,-,-,+,-,-,-,0,-,-,0
1,kore1280,kor,NA,NA,006F+0303+0075,ou,NA,FALSE,vowel,fake,0,-,+,-,-,-,+,+,0,+,-,-,-,-,+,+,-,-,0,0,0,+,"-,+",-,-,+,+,-,-,+,-,-,-,0,-,-,0
1,kore1280,kor,NA,NA,006F+0303+0075+032F,ou̯,NA,FALSE,vowel,fake,0,-,"+,-",-,-,-,+,+,0,+,-,-,-,-,+,+,-,-,0,0,0,+,"-,+",-,-,+,+,-,-,+,-,-,-,0,-,-,0
1,kore1280,kor,NA,NA,006F+0303+0075+032F+0303,õu,NA,FALSE,vowel,fake,0,-,+,-,-,-,+,+,0,+,-,-,"+,-",-,+,+,-,-,0,0,0,+,"-,+",-,-,+,+,-,-,+,-,-,-,0,-,-,0
1,kore1280,kor,NA,NA,006F+028A,õu̯,NA,FALSE,vowel,fake,0,-,"+,-",-,-,-,+,+,0,+,-,-,"+,-",-,+,+,-,-,0,0,0,+,"-,+",-,-,+,+,-,-,+,-,-,-,0,-,-,0
1,kore1280,kor,NA,NA,006F+0303+028A,õũ̯,NA,FALSE,vowel,fake,0,-,"+,-",-,-,-,+,+,0,+,-,-,+,-,+,+,-,-,0,0,0,+,"-,+",-,-,+,+,-,-,+,-,-,-,0,-,-,0
1,kore1280,kor,NA,NA,006F+0303+028A+032F,oʊ,NA,FALSE,vowel,fake,0,-,+,-,-,-,+,+,0,+,-,-,-,-,+,+,-,-,0,0,0,+,"-,+",-,-,+,"+,-",-,-,+,-,-,-,0,-,-,0
1,kore1280,kor,NA,NA,006F+0324+0303+028A,õʊ,NA,FALSE,vowel,fake,0,-,+,-,-,-,+,+,0,+,-,-,"+,-",-,+,+,-,-,0,0,0,+,"-,+",-,-,+,"+,-",-,-,+,-,-,-,0,-,-,0
1,kore1280,kor,NA,NA,006F+0330+0303+028A,õʊ̯,NA,FALSE,vowel,fake,0,-,"+,-",-,-,-,+,+,0,+,-,-,"+,-",-,+,+,-,-,0,0,0,+,"-,+",-,-,+,"+,-",-,-,+,-,-,-,0,-,-,0
1,kore1280,kor,NA,NA,006F+028A+02C0,õ̤ʊ,NA,FALSE,vowel,fake,0,-,+,-,-,-,+,+,0,+,-,-,"+,-",-,+,+,-,-,0,0,0,+,"-,+",-,-,+,"+,-",-,-,+,-,"+,-",-,0,-,-,0
1,kore1280,kor,NA,NA,254,õ̰ʊ,NA,FALSE,vowel,fake,0,-,+,-,-,-,+,+,0,+,-,-,"+,-",-,+,+,-,-,0,0,0,+,"-,+",-,-,+,"+,-",-,-,+,-,-,"+,-",0,-,-,0
1,kore1280,kor,NA,NA,0254+0306,oʊˀ,NA,FALSE,vowel,fake,0,-,+,-,-,-,+,+,0,+,-,-,-,-,+,+,-,-,0,0,0,+,"-,+",-,-,+,"+,-",-,-,+,-,-,"-,+",0,-,-,0
1,kore1280,kor,NA,NA,0254+0303,ɔ,NA,FALSE,vowel,fake,0,-,+,-,-,-,+,+,0,+,-,-,-,-,+,+,-,-,0,0,0,+,-,-,-,+,-,-,-,+,-,-,-,0,-,-,0
1,kore1280,kor,NA,NA,0254+0324,ɔ̆,NA,FALSE,vowel,fake,0,-,+,+,-,-,+,+,0,+,-,-,-,-,+,+,-,-,0,0,0,+,-,-,-,+,-,-,-,+,-,-,-,0,-,-,0
1,kore1280,kor,NA,NA,0254+0330,ɔ̃,NA,FALSE,vowel,fake,0,-,+,-,-,-,+,+,0,+,-,-,+,-,+,+,-,-,0,0,0,+,-,-,-,+,-,-,-,+,-,-,-,0,-,-,0
1,kore1280,kor,NA,NA,0254+02D0,ɔ̤,NA,FALSE,vowel,fake,0,-,+,-,-,-,+,+,0,+,-,-,-,-,+,+,-,-,0,0,0,+,-,-,-,+,-,-,-,+,-,+,-,0,-,-,0
1,kore1280,kor,NA,NA,0254+0303+02D0,ɔ̰,NA,FALSE,vowel,fake,0,-,+,-,-,-,+,+,0,+,-,-,-,-,+,+,-,-,0,0,0,+,-,-,-,+,-,-,-,+,-,-,+,0,-,-,0
1,kore1280,kor,NA,NA,0254+02D0+0069+032F,ɔː,NA,FALSE,vowel,fake,0,-,+,-,+,-,+,+,0,+,-,-,-,-,+,+,-,-,0,0,0,+,-,-,-,+,-,-,-,+,-,-,-,0,-,-,0
1,kore1280,kor,NA,NA,0254+0259,ɔ̃ː,NA,FALSE,vowel,fake,0,-,+,-,+,-,+,+,0,+,-,-,+,-,+,+,-,-,0,0,0,+,-,-,-,+,-,-,-,+,-,-,-,0,-,-,0
1,kore1280,kor,NA,NA,0254+0069,ɔːi̯,NA,FALSE,vowel,fake,0,-,"+,-",-,"+,-",-,+,+,0,+,-,-,-,-,"+,-",+,-,-,0,0,0,+,"-,+",-,"-,+","+,-","-,+",-,-,+,-,-,-,0,-,-,0
1,kore1280,kor,NA,NA,0254+0069+032F,ɔə,NA,FALSE,vowel,fake,0,-,+,-,-,-,+,+,0,+,-,-,-,-,"+,-",+,-,-,0,0,0,+,-,-,-,"+,-",-,-,-,+,-,-,-,0,-,-,0
1,kore1280,kor,NA,NA,0254+0075,ɔi,NA,FALSE,vowel,fake,0,-,+,-,-,-,+,+,0,+,-,-,-,-,"+,-",+,-,-,0,0,0,+,"-,+",-,"-,+","+,-","-,+",-,-,+,-,-,-,0,-,-,0
1,kore1280,kor,NA,NA,0254+0075+032F,ɔi̯,NA,FALSE,vowel,fake,0,-,"+,-",-,-,-,+,+,0,+,-,-,-,-,"+,-",+,-,-,0,0,0,+,"-,+",-,"-,+","+,-","-,+",-,-,+,-,-,-,0,-,-,0
1,kore1280,kor,NA,NA,275,ɔu,NA,FALSE,vowel,fake,0,-,+,-,-,-,+,+,0,+,-,-,-,-,+,+,-,-,0,0,0,+,"-,+",-,-,+,"-,+",-,-,+,-,-,-,0,-,-,0
1,kore1280,kor,NA,NA,0275+0306,ɔu̯,NA,FALSE,vowel,fake,0,-,"+,-",-,-,-,+,+,0,+,-,-,-,-,+,+,-,-,0,0,0,+,"-,+",-,-,+,"-,+",-,-,+,-,-,-,0,-,-,0
1,kore1280,kor,NA,NA,0275+02D0,ɵ,NA,FALSE,vowel,fake,0,-,+,-,-,-,+,+,0,+,-,-,-,-,+,+,-,-,0,0,0,+,-,-,-,-,+,-,-,+,-,-,-,0,-,-,0
1,kore1280,kor,NA,NA,70,ɵ̆,NA,FALSE,vowel,fake,0,-,+,+,-,-,+,+,0,+,-,-,-,-,+,+,-,-,0,0,0,+,-,-,-,-,+,-,-,+,-,-,-,0,-,-,0
1,kore1280,kor,NA,NA,0070+02DE,ɵː,NA,FALSE,vowel,fake,0,-,+,-,+,-,+,+,0,+,-,-,-,-,+,+,-,-,0,0,0,+,-,-,-,-,+,-,-,+,-,-,-,0,-,-,0
1,kore1280,kor,NA,NA,0070+02DE+02B0,p,NA,FALSE,consonant,fake,0,-,-,-,-,+,-,-,-,-,-,-,-,-,+,-,-,-,0,0,0,-,0,0,0,0,0,0,0,-,-,-,-,-,-,-,-
1,kore1280,kor,NA,NA,0070+02D0,p˞,NA,FALSE,consonant,fake,0,-,-,-,-,+,-,-,-,-,-,-,-,-,+,-,-,+,+,+,+,+,0,0,0,0,0,0,0,-,-,-,-,-,-,-,-
1,kore1280,kor,NA,NA,0070+0066,p˞ʰ,NA,FALSE,consonant,fake,0,-,-,-,-,+,-,-,-,-,-,-,-,-,+,-,-,+,+,+,+,+,0,0,0,0,0,0,0,-,-,+,-,-,-,-,-
1,kore1280,kor,NA,NA,0070+0066+02B0,pː,NA,FALSE,consonant,fake,0,-,-,-,+,+,-,-,-,-,-,-,-,-,+,-,-,-,0,0,0,-,0,0,0,0,0,0,0,-,-,-,-,-,-,-,-
1,kore1280,kor,NA,NA,0070+02B0,pf,NA,FALSE,consonant,fake,0,-,-,-,-,+,-,-,+,-,-,-,-,-,+,-,+,-,0,0,0,-,0,0,0,0,0,0,0,-,-,-,-,-,-,-,-
1,kore1280,kor,NA,NA,0070+02B2,pfʰ,NA,FALSE,consonant,fake,0,-,-,-,-,+,-,-,+,-,-,-,-,-,+,-,+,-,0,0,0,-,0,0,0,0,0,0,0,-,-,+,-,-,-,-,-
1,kore1280,kor,NA,NA,0070+02B2+02B0,pʰ,NA,FALSE,consonant,fake,0,-,-,-,-,+,-,-,-,-,-,-,-,-,+,-,-,-,0,0,0,-,0,0,0,0,0,0,0,-,-,+,-,-,-,-,-
1,kore1280,kor,NA,NA,0070+006D,pʲ,NA,FALSE,consonant,fake,0,-,-,-,-,+,-,-,-,-,-,-,-,-,+,-,-,-,0,0,0,+,+,-,+,-,0,0,0,-,-,-,-,-,-,-,-
1,kore1280,kor,NA,NA,0070+006D,pʲʰ,NA,FALSE,consonant,fake,0,-,-,-,-,+,-,-,-,-,-,-,-,-,+,-,-,-,0,0,0,+,+,-,+,-,0,0,0,-,-,+,-,-,-,-,-
1,kore1280,kor,NA,NA,0070+0278,pm,NA,FALSE,consonant,fake,0,-,-,-,-,+,"-,+",-,-,-,-,-,"-,+",-,+,-,-,-,0,0,0,-,0,0,0,0,0,0,0,"-,+",-,-,-,-,-,-,-
1,kore1280,kor,NA,NA,0070+02B7,pm,NA,FALSE,consonant,fake,0,-,-,-,-,+,"-,+",-,-,-,-,-,"-,+",-,+,-,-,-,0,0,0,-,0,0,0,0,0,0,0,"-,+",-,-,-,-,-,-,-
1,kore1280,kor,NA,NA,0070+02B7+02D0,pɸ,NA,FALSE,consonant,fake,0,-,-,-,-,+,-,-,+,-,-,-,-,-,+,-,-,-,0,0,0,-,0,0,0,0,0,0,0,-,-,-,-,-,-,-,-
1,kore1280,kor,NA,NA,278,pʷ,NA,FALSE,consonant,fake,0,-,-,-,-,+,-,-,-,-,-,-,-,-,+,+,-,-,0,0,0,-,0,0,0,0,0,0,0,-,-,-,-,-,-,-,-
1,kore1280,kor,NA,NA,0278+02B2,pʷː,NA,FALSE,consonant,fake,0,-,-,-,+,+,-,-,-,-,-,-,-,-,+,+,-,-,0,0,0,-,0,0,0,0,0,0,0,-,-,-,-,-,-,-,-
1,kore1280,kor,NA,NA,0278+02B7,ɸ,NA,FALSE,consonant,fake,0,-,-,-,-,+,-,+,+,-,-,-,-,-,+,-,-,-,0,0,0,-,0,0,0,0,0,0,0,-,-,-,-,-,-,-,-
1,kore1280,kor,NA,NA,71,ɸʲ,NA,FALSE,consonant,fake,0,-,-,-,-,+,-,+,+,-,-,-,-,-,+,-,-,-,0,0,0,+,+,-,+,-,0,0,0,-,-,-,-,-,-,-,-
1,kore1280,kor,NA,NA,0071+02B0,ɸʷ,NA,FALSE,consonant,fake,0,-,-,-,-,+,-,+,+,-,-,-,-,-,+,+,-,-,0,0,0,-,0,0,0,0,0,0,0,-,-,-,-,-,-,-,-
1,kore1280,kor,NA,NA,0071+02B7,q,NA,FALSE,consonant,fake,0,-,-,-,-,+,-,-,-,-,-,-,-,-,-,0,0,-,0,0,0,+,-,-,-,+,0,0,0,-,-,-,-,-,-,-,-
1,kore1280,kor,NA,NA,279,qʰ,NA,FALSE,consonant,fake,0,-,-,-,-,+,-,-,-,-,-,-,-,-,-,0,0,-,0,0,0,+,-,-,-,+,0,0,0,-,-,+,-,-,-,-,-
1,kore1280,kor,NA,NA,0279+02D0,qʷ,NA,FALSE,consonant,fake,0,-,-,-,-,+,-,-,-,-,-,-,-,-,+,+,-,-,0,0,0,+,-,-,-,+,0,0,0,-,-,-,-,-,-,-,-
1,kore1280,kor,NA,NA,027A,r,NA,FALSE,consonant,fake,0,-,-,-,-,+,+,+,0,+,-,+,-,-,-,0,0,+,+,-,-,-,0,0,0,0,0,0,0,+,-,-,-,-,-,-,-
1,kore1280,kor,NA,NA,027A+033A+0320,r̩,NA,FALSE,consonant,fake,0,-,+,-,-,+,+,+,0,+,-,+,-,-,-,0,0,+,+,-,-,-,0,0,0,0,0,0,0,+,-,-,-,-,-,-,-
1,kore1280,kor,NA,NA,027A+033A+0320+0325,r̥,NA,FALSE,consonant,fake,0,-,-,-,-,+,+,+,0,+,-,+,-,-,-,0,0,+,+,-,-,-,0,0,0,0,0,0,0,-,-,-,-,-,-,-,-
1,kore1280,kor,NA,NA,027A+0325,rː,NA,FALSE,consonant,fake,0,-,-,-,+,+,+,+,0,+,-,+,-,-,-,0,0,+,+,-,-,-,0,0,0,0,0,0,0,+,-,-,-,-,-,-,-
1,kore1280,kor,NA,NA,027B,rʱ,NA,FALSE,consonant,fake,0,-,-,-,-,+,+,+,0,+,-,+,-,-,-,0,0,+,+,-,-,-,0,0,0,0,0,0,0,+,-,+,-,-,-,-,-
1,kore1280,kor,NA,NA,027B+0325,ʀ,NA,FALSE,consonant,fake,0,-,-,-,-,+,+,+,0,+,-,+,-,-,-,0,0,-,0,0,0,+,-,-,-,+,0,0,0,+,-,-,-,-,-,-,-
1,kore1280,kor,NA,NA,027D,ɹ,NA,FALSE,consonant,fake,0,-,-,-,-,-,+,+,0,+,-,-,-,-,-,0,0,+,-,+,-,-,0,0,0,0,0,0,0,+,-,-,-,-,-,-,-
1,kore1280,kor,NA,NA,027E,ɹː,NA,FALSE,consonant,fake,0,-,-,-,+,-,+,+,0,+,-,-,-,-,-,0,0,+,-,+,-,-,0,0,0,0,0,0,0,+,-,-,-,-,-,-,-
1,kore1280,kor,NA,NA,2.70E+304,ɺ,NA,FALSE,consonant,fake,0,-,-,-,-,+,+,+,0,+,+,-,-,+,-,0,0,+,+,-,-,-,0,0,0,0,0,0,0,+,-,-,-,-,-,-,-
1,kore1280,kor,NA,NA,027E+0353,ɺ̺̠,NA,FALSE,consonant,fake,0,-,-,-,-,+,+,+,0,+,+,-,-,+,-,0,0,+,-,+,-,-,0,0,0,0,0,0,0,+,-,-,-,-,-,-,-
1,kore1280,kor,NA,NA,027E+0325,ɺ̺̠̥,NA,FALSE,consonant,fake,0,-,-,-,-,+,+,+,0,+,+,-,-,+,-,0,0,+,-,+,-,-,0,0,0,0,0,0,0,-,-,-,-,-,-,-,-
1,kore1280,kor,NA,NA,027E+02D0,ɺ̥,NA,FALSE,consonant,fake,0,-,-,-,-,+,+,+,0,+,+,-,-,+,-,0,0,+,+,-,-,-,0,0,0,0,0,0,0,-,-,-,-,-,-,-,-
1,kore1280,kor,NA,NA,027E+02C0,ɻ,NA,FALSE,consonant,fake,0,-,-,-,-,+,+,+,0,+,-,-,-,-,-,0,0,+,-,-,-,-,0,0,0,0,0,0,0,+,-,-,-,-,-,-,-
1,kore1280,kor,NA,NA,281,ɻ̥,NA,FALSE,consonant,fake,0,-,-,-,-,+,+,+,0,+,-,-,-,-,-,0,0,+,-,-,-,-,0,0,0,0,0,0,0,-,-,-,-,-,-,-,-
1,kore1280,kor,NA,NA,0281+02B7,ɽ,NA,FALSE,consonant,fake,0,-,-,-,-,+,+,+,0,+,+,-,-,-,-,0,0,+,-,-,-,-,0,0,0,0,0,0,0,+,-,-,-,-,-,-,-
1,kore1280,kor,NA,NA,73,ɾ,NA,FALSE,consonant,fake,0,-,-,-,-,+,+,+,0,+,+,-,-,-,-,0,0,+,+,-,-,-,0,0,0,0,0,0,0,+,-,-,-,-,-,-,-
1,kore1280,kor,NA,NA,0073+0320,ɾ̃,NA,FALSE,consonant,fake,0,-,-,-,-,+,+,+,0,+,+,-,+,-,-,0,0,+,+,-,-,-,0,0,0,0,0,0,0,+,-,-,-,-,-,-,-
1,kore1280,kor,NA,NA,0073+0329,ɾ͓,NA,FALSE,consonant,fake,0,-,-,-,-,+,+,+,+,+,+,-,-,-,-,0,0,+,+,-,-,-,0,0,0,0,0,0,0,+,-,-,-,-,-,-,-
1,kore1280,kor,NA,NA,0073+032A,ɾ̥,NA,FALSE,consonant,fake,0,-,-,-,-,+,+,+,0,+,+,-,-,-,-,0,0,+,+,-,-,-,0,0,0,0,0,0,0,-,-,-,-,-,-,-,-
1,kore1280,kor,NA,NA,0073+02D0,ɾː,NA,FALSE,consonant,fake,0,-,-,-,+,+,+,+,0,+,+,-,-,-,-,0,0,+,+,-,-,-,0,0,0,0,0,0,0,+,-,-,-,-,-,-,-
1,kore1280,kor,NA,NA,0073+02B0,ɾˀ,NA,FALSE,consonant,fake,0,-,-,-,-,+,+,+,0,+,+,-,-,-,-,0,0,+,+,-,-,-,0,0,0,0,0,0,0,+,-,-,+,-,-,-,-
1,kore1280,kor,NA,NA,0073+02B2,ʁ,NA,FALSE,consonant,fake,0,-,-,-,-,+,-,+,+,-,-,-,-,-,-,0,0,-,0,0,0,+,-,-,-,+,0,0,0,+,-,-,-,-,-,-,-
1,kore1280,kor,NA,NA,282,ʁʷ,NA,FALSE,consonant,fake,0,-,-,-,-,+,-,+,+,-,-,-,-,-,+,+,-,-,0,0,0,+,-,-,-,+,0,0,0,+,-,-,-,-,-,-,-
1,kore1280,kor,NA,NA,283,s,NA,FALSE,consonant,fake,0,-,-,-,-,+,-,+,+,-,-,-,-,-,-,0,0,+,+,-,+,-,0,0,0,0,0,0,0,-,-,-,-,-,-,-,-
1,kore1280,kor,NA,NA,0283+02B0,s̠,NA,FALSE,consonant,fake,0,-,-,-,-,+,-,+,+,-,-,-,-,-,-,0,0,+,-,+,+,-,0,0,0,0,0,0,0,-,-,-,-,-,-,-,-
1,kore1280,kor,NA,NA,74,s̩,NA,FALSE,consonant,fake,0,-,+,-,-,+,-,+,+,-,-,-,-,-,-,0,0,+,+,-,+,-,0,0,0,0,0,0,0,-,-,-,-,-,-,-,-
1,kore1280,kor,NA,NA,0074+0320,s̪,NA,FALSE,consonant,fake,0,-,-,-,-,+,-,+,+,-,-,-,-,-,-,0,0,+,+,+,+,-,0,0,0,0,0,0,0,-,-,-,-,-,-,-,-
1,kore1280,kor,NA,NA,0074+032A,sː,NA,FALSE,consonant,fake,0,-,-,-,+,+,-,+,+,-,-,-,-,-,-,0,0,+,+,-,+,-,0,0,0,0,0,0,0,-,-,-,-,-,-,-,-
1,kore1280,kor,NA,NA,0074+032A,sʰ,NA,FALSE,consonant,fake,0,-,-,-,-,+,-,+,+,-,-,-,-,-,-,0,0,+,+,-,+,-,0,0,0,0,0,0,0,-,-,+,-,-,-,-,-
1,kore1280,kor,NA,NA,0074+033B,sʲ,NA,FALSE,consonant,fake,0,-,-,-,-,+,-,+,+,-,-,-,-,-,-,0,0,+,+,-,+,+,+,-,+,-,0,0,0,-,-,-,-,-,-,-,-
1,kore1280,kor,NA,NA,0074+02D0,ʂ,NA,FALSE,consonant,fake,0,-,-,-,-,+,-,+,+,-,-,-,-,-,-,0,0,+,-,-,+,-,0,0,0,0,0,0,0,-,-,-,-,-,-,-,-
1,kore1280,kor,NA,NA,0074+032A+02D0,ʃ,NA,FALSE,consonant,fake,0,-,-,-,-,+,-,+,+,-,-,-,-,-,-,0,0,+,-,+,+,-,0,0,0,0,0,0,0,-,-,-,-,-,-,-,-
1,kore1280,kor,NA,NA,0074+0255,ʃʰ,NA,FALSE,consonant,fake,0,-,-,-,-,+,-,+,+,-,-,-,-,-,-,0,0,+,-,+,+,-,0,0,0,0,0,0,0,-,-,+,-,-,-,-,-
1,kore1280,kor,NA,NA,0074+0255+02B0,t,NA,FALSE,consonant,fake,0,-,-,-,-,+,-,-,-,-,-,-,-,-,-,0,0,+,+,-,-,-,0,0,0,0,0,0,0,-,-,-,-,-,-,-,-
1,kore1280,kor,NA,NA,0074+02B0,t̠,NA,FALSE,consonant,fake,0,-,-,-,-,+,-,-,-,-,-,-,-,-,-,0,0,+,+,-,-,-,0,0,0,0,0,0,0,-,-,-,-,-,-,-,-
1,kore1280,kor,NA,NA,0074+032A+02B0,t̪,NA,FALSE,consonant,fake,0,-,-,-,-,+,-,-,-,-,-,-,-,-,-,0,0,+,+,+,-,-,0,0,0,0,0,0,0,-,-,-,-,-,-,-,-
1,kore1280,kor,NA,NA,0074+02B2,t̻,NA,FALSE,consonant,fake,0,-,-,-,-,+,-,-,-,-,-,-,-,-,-,0,0,+,+,+,-,-,0,0,0,0,0,0,0,-,-,-,-,-,-,-,-
1,kore1280,kor,NA,NA,0074+0320+02B2,tː,NA,FALSE,consonant,fake,0,-,-,-,+,+,-,-,-,-,-,-,-,-,-,0,0,+,+,-,-,-,0,0,0,0,0,0,0,-,-,-,-,-,-,-,-
1,kore1280,kor,NA,NA,0074+0320+02B2+02B0,t̪ː,NA,FALSE,consonant,fake,0,-,-,-,+,+,-,-,-,-,-,-,-,-,-,0,0,+,+,+,-,-,0,0,0,0,0,0,0,-,-,-,-,-,-,-,-
1,kore1280,kor,NA,NA,0074+026C,tɕ,NA,FALSE,consonant,fake,0,-,-,-,-,+,-,-,+,-,-,-,-,-,-,0,0,+,+,+,+,+,+,-,+,-,0,0,0,-,-,-,-,-,-,-,-
1,kore1280,kor,NA,NA,0074+026C+02B0,tɕʰ,NA,FALSE,consonant,fake,0,-,-,-,-,+,-,-,+,-,-,-,-,-,-,0,0,+,+,+,+,+,+,-,+,-,0,0,0,-,-,+,-,-,-,-,-
1,kore1280,kor,NA,NA,0074+006E,tʰ,NA,FALSE,consonant,fake,0,-,-,-,-,+,-,-,-,-,-,-,-,-,-,0,0,+,+,-,-,-,0,0,0,0,0,0,0,-,-,+,-,-,-,-,-
1,kore1280,kor,NA,NA,0074+006E,t̪ʰ,NA,FALSE,consonant,fake,0,-,-,-,-,+,-,-,-,-,-,-,-,-,-,0,0,+,+,+,-,-,0,0,0,0,0,0,0,-,-,+,-,-,-,-,-
1,kore1280,kor,NA,NA,0074+027E,tʲ,NA,FALSE,consonant,fake,0,-,-,-,-,+,-,-,-,-,-,-,-,-,-,0,0,+,+,-,-,+,+,-,+,-,0,0,0,-,-,-,-,-,-,-,-
1,kore1280,kor,NA,NA,0074+0073,t̠ʲ,NA,FALSE,consonant,fake,0,-,-,-,-,+,-,-,-,-,-,-,-,-,-,0,0,+,+,-,-,+,+,-,+,-,0,0,0,-,-,-,-,-,-,-,-
1,kore1280,kor,NA,NA,0074+0073+032A,t̠ʲʰ,NA,FALSE,consonant,fake,0,-,-,-,-,+,-,-,-,-,-,-,-,-,-,0,0,+,+,-,-,+,+,-,+,-,0,0,0,-,-,+,-,-,-,-,-
1,kore1280,kor,NA,NA,0074+0073+02B0,tɬ,NA,FALSE,consonant,fake,0,-,-,-,-,+,-,"-,+","-,+",-,-,-,-,"-,+",-,0,0,+,+,-,-,-,0,0,0,0,0,0,0,-,-,-,-,-,-,-,-
1,kore1280,kor,NA,NA,0074+0282,tɬʰ,NA,FALSE,consonant,fake,0,-,-,-,-,+,-,"-,+","-,+",-,-,-,-,"-,+",-,0,0,+,+,-,-,-,0,0,0,0,0,0,0,-,-,"-,+",-,-,-,-,-
1,kore1280,kor,NA,NA,0074+0282+02B0,tn,NA,FALSE,consonant,fake,0,-,-,-,-,+,"-,+",-,-,-,-,-,"-,+",-,-,0,0,+,+,-,-,-,0,0,0,0,0,0,0,"-,+",-,-,-,-,-,-,-
1,kore1280,kor,NA,NA,0074+0283,tn,NA,FALSE,consonant,fake,0,-,-,-,-,+,"-,+",-,-,-,-,-,"-,+",-,-,0,0,+,+,-,-,-,0,0,0,0,0,0,0,"-,+",-,-,-,-,-,-,-
1,kore1280,kor,NA,NA,0074+0283+02D0,tɾ,NA,FALSE,consonant,fake,0,-,-,-,-,+,"-,+","-,+",-,"-,+","-,+",-,-,-,-,0,0,+,+,-,-,-,0,0,0,0,0,0,0,"-,+",-,-,-,-,-,-,-
1,kore1280,kor,NA,NA,0074+0283+02B0,ts,NA,FALSE,consonant,fake,0,-,-,-,-,+,-,-,+,-,-,-,-,-,-,0,0,+,+,-,+,-,0,0,0,0,0,0,0,-,-,-,-,-,-,-,-
1,kore1280,kor,NA,NA,0074+0320+02B7+02B2,t̪s̪,NA,FALSE,consonant,fake,0,-,-,-,-,+,-,-,+,-,-,-,-,-,-,0,0,+,+,+,+,-,0,0,0,0,0,0,0,-,-,-,-,-,-,-,-
1,kore1280,kor,NA,NA,0074+0291,tsʰ,NA,FALSE,consonant,fake,0,-,-,-,-,+,-,-,+,-,-,-,-,-,-,0,0,+,+,-,+,-,0,0,0,0,0,0,0,-,-,+,-,-,-,-,-
1,kore1280,kor,NA,NA,0074+02C0,t̠ʃ,NA,FALSE,consonant,fake,0,-,-,-,-,+,-,-,+,-,-,-,-,-,-,0,0,+,-,+,+,-,0,0,0,0,0,0,0,-,-,-,-,-,-,-,-
1,kore1280,kor,NA,NA,288,t̠ʃː,NA,FALSE,consonant,fake,0,-,-,-,+,+,-,-,+,-,-,-,-,-,-,0,0,+,-,+,+,-,0,0,0,0,0,0,0,-,-,-,-,-,-,-,-
1,kore1280,kor,NA,NA,0288+02B0,t̠ʃʰ,NA,FALSE,consonant,fake,0,-,-,-,-,+,-,-,+,-,-,-,-,-,-,0,0,+,-,+,+,-,0,0,0,0,0,0,0,-,-,+,-,-,-,-,-
1,kore1280,kor,NA,NA,75,t̠ʷʲ,NA,FALSE,consonant,fake,0,-,-,-,-,+,-,-,-,-,-,-,-,-,+,+,-,+,+,-,-,+,+,-,+,-,0,0,0,-,-,-,-,-,-,-,-
1,kore1280,kor,NA,NA,0075+0303,tʑ,NA,FALSE,consonant,fake,0,-,-,-,-,+,-,"-,+","-,+",-,-,-,-,-,-,0,0,+,+,"-,+","-,+","-,+",+,-,+,-,0,0,0,"-,+",-,-,-,-,-,-,-
1,kore1280,kor,NA,NA,0075+031E,tˀ,NA,FALSE,consonant,fake,0,-,-,-,-,+,-,-,-,-,-,-,-,-,-,0,0,+,+,-,-,-,0,0,0,0,0,0,0,-,-,-,+,-,-,-,-
1,kore1280,kor,NA,NA,0075+032F,ʈ,NA,FALSE,consonant,fake,0,-,-,-,-,+,-,-,-,-,-,-,-,-,-,0,0,+,-,-,-,-,0,0,0,0,0,0,0,-,-,-,-,-,-,-,-
1,kore1280,kor,NA,NA,0075+0324,ʈʰ,NA,FALSE,consonant,fake,0,-,-,-,-,+,-,-,-,-,-,-,-,-,-,0,0,+,-,-,-,-,0,0,0,0,0,0,0,-,-,+,-,-,-,-,-
1,kore1280,kor,NA,NA,0075+0324+0303,ʈʂ,NA,FALSE,consonant,fake,0,-,-,-,-,+,-,-,+,-,-,-,-,-,-,0,0,+,-,-,+,-,0,0,0,0,0,0,0,-,-,-,-,-,-,-,-
1,kore1280,kor,NA,NA,0075+0325,ʈʂʰ,NA,FALSE,consonant,fake,0,-,-,-,-,+,-,-,+,-,-,-,-,-,-,0,0,+,-,-,+,-,0,0,0,0,0,0,0,-,-,+,-,-,-,-,-
1,kore1280,kor,NA,NA,0075+0330,u,NA,FALSE,vowel,fake,0,-,+,-,-,-,+,+,0,+,-,-,-,-,+,+,-,-,0,0,0,+,+,-,-,+,+,-,-,+,-,-,-,0,-,-,0
1,kore1280,kor,NA,NA,0075+02DE,ũ,NA,FALSE,vowel,fake,0,-,+,-,-,-,+,+,0,+,-,-,+,-,+,+,-,-,0,0,0,+,+,-,-,+,+,-,-,+,-,-,-,0,-,-,0
1,kore1280,kor,NA,NA,0075+02DE+02D0,u̞,NA,FALSE,vowel,fake,0,-,+,-,-,-,+,+,0,+,-,-,-,-,+,+,-,-,0,0,0,+,+,-,-,+,0,-,-,+,-,-,-,0,-,-,0
1,kore1280,kor,NA,NA,0075+02D0,u̯,NA,FALSE,vowel,fake,0,-,-,-,-,-,+,+,0,+,-,-,-,-,+,+,-,-,0,0,0,+,+,-,-,+,+,-,-,+,-,-,-,0,-,-,0
1,kore1280,kor,NA,NA,0075+0303+02D0,ṳ,NA,FALSE,vowel,fake,0,-,+,-,-,-,+,+,0,+,-,-,-,-,+,+,-,-,0,0,0,+,+,-,-,+,+,-,-,+,-,+,-,0,-,-,0
1,kore1280,kor,NA,NA,0075+0324+02D0,ṳ̃,NA,FALSE,vowel,fake,0,-,+,-,-,-,+,+,0,+,-,-,+,-,+,+,-,-,0,0,0,+,+,-,-,+,+,-,-,+,-,+,-,0,-,-,0
1,kore1280,kor,NA,NA,0075+0324+0303+02D0,u̥,NA,FALSE,vowel,fake,0,-,+,-,-,-,+,+,0,+,-,-,-,-,+,+,-,-,0,0,0,+,+,-,-,+,+,-,-,-,-,-,-,0,-,-,0
1,kore1280,kor,NA,NA,0075+0061,ṵ,NA,FALSE,vowel,fake,0,-,+,-,-,-,+,+,0,+,-,-,-,-,+,+,-,-,0,0,0,+,+,-,-,+,+,-,-,+,-,-,+,0,-,-,0
1,kore1280,kor,NA,NA,0075+032F+0061,u˞,NA,FALSE,vowel,fake,0,-,+,-,-,-,+,+,0,+,-,-,-,-,+,+,-,+,+,+,+,+,+,-,-,+,+,-,-,+,-,-,-,0,-,-,0
1,kore1280,kor,NA,NA,0075+032F+0061+02D0,u˞ː,NA,FALSE,vowel,fake,0,-,+,-,+,-,+,+,0,+,-,-,-,-,+,+,-,+,+,+,+,+,+,-,-,+,+,-,-,+,-,-,-,0,-,-,0
1,kore1280,kor,NA,NA,0075+032F+0250,uː,NA,FALSE,vowel,fake,0,-,+,-,+,-,+,+,0,+,-,-,-,-,+,+,-,-,0,0,0,+,+,-,-,+,+,-,-,+,-,-,-,0,-,-,0
1,kore1280,kor,NA,NA,0075+032F+0251,ũː,NA,FALSE,vowel,fake,0,-,+,-,+,-,+,+,0,+,-,-,+,-,+,+,-,-,0,0,0,+,+,-,-,+,+,-,-,+,-,-,-,0,-,-,0
1,kore1280,kor,NA,NA,0075+032F+0251+0303,ṳː,NA,FALSE,vowel,fake,0,-,+,-,+,-,+,+,0,+,-,-,-,-,+,+,-,-,0,0,0,+,+,-,-,+,+,-,-,+,-,+,-,0,-,-,0
1,kore1280,kor,NA,NA,0075+0065,ṳ̃ː,NA,FALSE,vowel,fake,0,-,+,-,+,-,+,+,0,+,-,-,+,-,+,+,-,-,0,0,0,+,+,-,-,+,+,-,-,+,-,+,-,0,-,-,0
1,kore1280,kor,NA,NA,0075+032F+0065,ua,NA,FALSE,vowel,fake,0,-,+,-,-,-,+,+,0,+,-,-,-,-,"+,-",+,-,-,0,0,0,+,"+,-","-,+",-,"+,-",+,-,-,+,-,-,-,0,-,-,0
1,kore1280,kor,NA,NA,0075+0259,u̯a,NA,FALSE,vowel,fake,0,-,"-,+",-,-,-,+,+,0,+,-,-,-,-,"+,-",+,-,-,0,0,0,+,"+,-","-,+",-,"+,-",+,-,-,+,-,-,-,0,-,-,0
1,kore1280,kor,NA,NA,0075+032F+0259,u̯aː,NA,FALSE,vowel,fake,0,-,"-,+",-,"-,+",-,+,+,0,+,-,-,-,-,"+,-",+,-,-,0,0,0,+,"+,-","-,+",-,"+,-",+,-,-,+,-,-,-,0,-,-,0
1,kore1280,kor,NA,NA,0075+0259+0069,u̯ɐ,NA,FALSE,vowel,fake,0,-,"-,+",-,-,-,+,+,0,+,-,-,-,-,+,+,-,-,0,0,0,+,"+,-","-,+",-,"+,-",+,-,-,+,-,-,-,0,-,-,0
1,kore1280,kor,NA,NA,0075+032F+0259+0069+032F,u̯ɑ,NA,FALSE,vowel,fake,0,-,"-,+",-,-,-,+,+,0,+,-,-,-,-,"+,-",+,-,-,0,0,0,+,"+,-","-,+",-,+,+,-,-,+,-,-,-,0,-,-,0
1,kore1280,kor,NA,NA,0075+032F+025C,u̯ɑ̃,NA,FALSE,vowel,fake,0,-,"-,+",-,-,-,+,+,0,+,-,-,"-,+",-,"+,-",+,-,-,0,0,0,+,"+,-","-,+",-,+,+,-,-,+,-,-,-,0,-,-,0
1,kore1280,kor,NA,NA,0075+032F+025C+0069+032F,ue,NA,FALSE,vowel,fake,0,-,+,-,-,-,+,+,0,+,-,-,-,-,"+,-",+,-,-,0,0,0,+,"+,-",-,"-,+","+,-",+,-,-,+,-,-,-,0,-,-,0
1,kore1280,kor,NA,NA,0075+0069,u̯e,NA,FALSE,vowel,fake,0,-,"-,+",-,-,-,+,+,0,+,-,-,-,-,"+,-",+,-,-,0,0,0,+,"+,-",-,"-,+","+,-",+,-,-,+,-,-,-,0,-,-,0
1,kore1280,kor,NA,NA,0075+0069+032F,uə,NA,FALSE,vowel,fake,0,-,+,-,-,-,+,+,0,+,-,-,-,-,"+,-",+,-,-,0,0,0,+,"+,-",-,-,"+,-","+,-",-,-,+,-,-,-,0,-,-,0
1,kore1280,kor,NA,NA,0075+0303+0069+032F,u̯ə,NA,FALSE,vowel,fake,0,-,"-,+",-,-,-,+,+,0,+,-,-,-,-,"+,-",+,-,-,0,0,0,+,"+,-",-,-,"+,-","+,-",-,-,+,-,-,-,0,-,-,0
1,kore1280,kor,NA,NA,0075+032F+0069,uəi,NA,FALSE,vowel,fake,0,-,+,-,-,-,+,+,0,+,-,-,-,-,"+,-,-",+,-,-,0,0,0,+,"+,-,+",-,"-,-,+","+,-,-","+,-,+",-,-,+,-,-,-,0,-,-,0
1,kore1280,kor,NA,NA,0075+006F,u̯əi̯,NA,FALSE,vowel,fake,0,-,"-,+,-",-,-,-,+,+,0,+,-,-,-,-,"+,-,-",+,-,-,0,0,0,+,"+,-,+",-,"-,-,+","+,-,-","+,-,+",-,-,+,-,-,-,0,-,-,0
1,kore1280,kor,NA,NA,0075+032F+006F,u̯ɜ,NA,FALSE,vowel,fake,0,-,"-,+",-,-,-,+,+,0,+,-,-,-,-,"+,-",+,-,-,0,0,0,+,"+,-",-,-,"+,-","+,-",-,-,+,-,-,-,0,-,-,0
1,kore1280,kor,NA,NA,0075+0254,u̯ɜi̯,NA,FALSE,vowel,fake,0,-,"-,+,-",-,-,-,+,+,0,+,-,-,-,-,"+,-,-",+,-,-,0,0,0,+,"+,-,+",-,"-,-,+","+,-,-","+,-,+",-,-,+,-,-,-,0,-,-,0
1,kore1280,kor,NA,NA,0075+032F+0254,ui,NA,FALSE,vowel,fake,0,-,+,-,-,-,+,+,0,+,-,-,-,-,"+,-",+,-,-,0,0,0,+,+,-,"-,+","+,-",+,-,-,+,-,-,-,0,-,-,0
1,kore1280,kor,NA,NA,0075+032F+0254+02D0,ui̯,NA,FALSE,vowel,fake,0,-,"+,-",-,-,-,+,+,0,+,-,-,-,-,"+,-",+,-,-,0,0,0,+,+,-,"-,+","+,-",+,-,-,+,-,-,-,0,-,-,0
1,kore1280,kor,NA,NA,0075+02C0,ũi̯,NA,FALSE,vowel,fake,0,-,"+,-",-,-,-,+,+,0,+,-,-,"+,-",-,"+,-",+,-,-,0,0,0,+,+,-,"-,+","+,-",+,-,-,+,-,-,-,0,-,-,0
1,kore1280,kor,NA,NA,289,u̯i,NA,FALSE,vowel,fake,0,-,"-,+",-,-,-,+,+,0,+,-,-,-,-,"+,-",+,-,-,0,0,0,+,+,-,"-,+","+,-",+,-,-,+,-,-,-,0,-,-,0
1,kore1280,kor,NA,NA,0289+031E,uo,NA,FALSE,vowel,fake,0,-,+,-,-,-,+,+,0,+,-,-,-,-,+,+,-,-,0,0,0,+,"+,-",-,-,+,+,-,-,+,-,-,-,0,-,-,0
1,kore1280,kor,NA,NA,0289+02D0,u̯o,NA,FALSE,vowel,fake,0,-,"-,+",-,-,-,+,+,0,+,-,-,-,-,+,+,-,-,0,0,0,+,"+,-",-,-,+,+,-,-,+,-,-,-,0,-,-,0
1,kore1280,kor,NA,NA,265,uɔ,NA,FALSE,vowel,fake,0,-,+,-,-,-,+,+,0,+,-,-,-,-,+,+,-,-,0,0,0,+,"+,-",-,-,+,"+,-",-,-,+,-,-,-,0,-,-,0
1,kore1280,kor,NA,NA,026F,u̯ɔ,NA,FALSE,vowel,fake,0,-,"-,+",-,-,-,+,+,0,+,-,-,-,-,+,+,-,-,0,0,0,+,"+,-",-,-,+,"+,-",-,-,+,-,-,-,0,-,-,0
1,kore1280,kor,NA,NA,026F+0303,u̯ɔː,NA,FALSE,vowel,fake,0,-,"-,+",-,"-,+",-,+,+,0,+,-,-,-,-,+,+,-,-,0,0,0,+,"+,-",-,-,+,"+,-",-,-,+,-,-,-,0,-,-,0
1,kore1280,kor,NA,NA,026F+0324,uˀ,NA,FALSE,vowel,fake,0,-,+,-,-,-,+,+,0,+,-,-,-,-,+,+,-,-,0,0,0,+,+,-,-,+,+,-,-,+,-,-,+,0,-,-,0
1,kore1280,kor,NA,NA,026F+0330,ʉ,NA,FALSE,vowel,fake,0,-,+,-,-,-,+,+,0,+,-,-,-,-,+,+,-,-,0,0,0,+,+,-,-,-,+,-,-,+,-,-,-,0,-,-,0
1,kore1280,kor,NA,NA,026F+02D0,ʉ̞,NA,FALSE,vowel,fake,0,-,+,-,-,-,+,+,0,+,-,-,-,-,+,+,-,-,0,0,0,+,+,-,-,-,0,-,-,+,-,-,-,0,-,-,0
1,kore1280,kor,NA,NA,026F+0303+02D0,ʉː,NA,FALSE,vowel,fake,0,-,+,-,+,-,+,+,0,+,-,-,-,-,+,+,-,-,0,0,0,+,+,-,-,-,+,-,-,+,-,-,-,0,-,-,0
1,kore1280,kor,NA,NA,026F+032F+0065,ɥ,NA,FALSE,consonant,fake,0,-,-,-,-,-,+,+,0,+,-,-,-,-,+,+,-,-,0,0,0,+,+,-,+,-,+,0,0,+,-,-,-,-,-,-,-
1,kore1280,kor,NA,NA,270,ɯ,NA,FALSE,vowel,fake,0,-,+,-,-,-,+,+,0,+,-,-,-,-,-,0,0,-,0,0,0,+,+,-,-,+,+,-,-,+,-,-,-,0,-,-,0
1,kore1280,kor,NA,NA,028A,ɯ̃,NA,FALSE,vowel,fake,0,-,+,-,-,-,+,+,0,+,-,-,+,-,-,0,0,-,0,0,0,+,+,-,-,+,+,-,-,+,-,-,-,0,-,-,0
1,kore1280,kor,NA,NA,028A+0303,ɯ̤,NA,FALSE,vowel,fake,0,-,+,-,-,-,+,+,0,+,-,-,-,-,-,0,0,-,0,0,0,+,+,-,-,+,+,-,-,+,-,+,-,0,-,-,0
1,kore1280,kor,NA,NA,028A+0324+0303,ɯ̰,NA,FALSE,vowel,fake,0,-,+,-,-,-,+,+,0,+,-,-,-,-,-,0,0,-,0,0,0,+,+,-,-,+,+,-,-,+,-,-,+,0,-,-,0
1,kore1280,kor,NA,NA,028A+0330+0303,ɯː,NA,FALSE,vowel,fake,0,-,+,-,+,-,+,+,0,+,-,-,-,-,-,0,0,-,0,0,0,+,+,-,-,+,+,-,-,+,-,-,-,0,-,-,0
1,kore1280,kor,NA,NA,028A+02D0,ɯ̃ː,NA,FALSE,vowel,fake,0,-,+,-,+,-,+,+,0,+,-,-,+,-,-,0,0,-,0,0,0,+,+,-,-,+,+,-,-,+,-,-,-,0,-,-,0
1,kore1280,kor,NA,NA,028A+0069+032F,ɯ̯e,NA,FALSE,vowel,fake,0,-,"-,+",-,-,-,+,+,0,+,-,-,-,-,-,0,0,-,0,0,0,+,"+,-",-,"-,+","+,-",+,-,-,+,-,-,-,0,-,-,0
1,kore1280,kor,NA,NA,028A+02C0,ɰ,NA,FALSE,consonant,fake,0,-,-,-,-,-,+,+,0,+,-,-,-,-,-,0,0,-,0,0,0,+,+,-,-,+,+,0,0,+,-,-,-,-,-,-,-
1,kore1280,kor,NA,NA,76,ɰ,NA,FALSE,consonant,fake,0,-,-,-,-,-,+,+,0,+,-,-,-,-,-,0,0,-,0,0,0,+,+,-,-,+,+,0,0,+,-,-,-,-,-,-,-
1,kore1280,kor,NA,NA,0076+0329,ʊ,NA,FALSE,vowel,fake,0,-,+,-,-,-,+,+,0,+,-,-,-,-,+,+,-,-,0,0,0,+,+,-,-,+,-,-,-,+,-,-,-,0,-,-,0
1,kore1280,kor,NA,NA,0076+0329+0303,ʊ̃,NA,FALSE,vowel,fake,0,-,+,-,-,-,+,+,0,+,-,-,+,-,+,+,-,-,0,0,0,+,+,-,-,+,-,-,-,+,-,-,-,0,-,-,0
1,kore1280,kor,NA,NA,0076+02B7,ʊ̤̃,NA,FALSE,vowel,fake,0,-,+,-,-,-,+,+,0,+,-,-,+,-,+,+,-,-,0,0,0,+,+,-,-,+,-,-,-,+,-,+,-,0,-,-,0
1,kore1280,kor,NA,NA,028B,ʊ̰̃,NA,FALSE,vowel,fake,0,-,+,-,-,-,+,+,0,+,-,-,+,-,+,+,-,-,0,0,0,+,+,-,-,+,-,-,-,+,-,-,+,0,-,-,0
1,kore1280,kor,NA,NA,028C,ʊː,NA,FALSE,vowel,fake,0,-,+,-,+,-,+,+,0,+,-,-,-,-,+,+,-,-,0,0,0,+,+,-,-,+,-,-,-,+,-,-,-,0,-,-,0
1,kore1280,kor,NA,NA,028C+0306,ʊi̯,NA,FALSE,vowel,fake,0,-,"+,-",-,-,-,+,+,0,+,-,-,-,-,"+,-",+,-,-,0,0,0,+,+,-,"-,+","+,-","-,+",-,-,+,-,-,-,0,-,-,0
1,kore1280,kor,NA,NA,028C+0303,ʊˀ,NA,FALSE,vowel,fake,0,-,+,-,-,-,+,+,0,+,-,-,-,-,+,+,-,-,0,0,0,+,+,-,-,+,-,-,-,+,-,-,+,0,-,-,0
1,kore1280,kor,NA,NA,028C+0324,v,NA,FALSE,consonant,fake,0,-,-,-,-,+,-,+,+,-,-,-,-,-,+,-,+,-,0,0,0,-,0,0,0,0,0,0,0,+,-,-,-,-,-,-,-
1,kore1280,kor,NA,NA,028C+0324+0303,v̩,NA,FALSE,consonant,fake,0,-,+,-,-,+,-,+,+,-,-,-,-,-,+,-,+,-,0,0,0,-,0,0,0,0,0,0,0,+,-,-,-,-,-,-,-
1,kore1280,kor,NA,NA,028C+02D0,ṽ̩,NA,FALSE,consonant,fake,0,-,+,-,-,+,-,+,+,-,-,-,+,-,+,-,+,-,0,0,0,-,0,0,0,0,0,0,0,+,-,-,-,-,-,-,-
1,kore1280,kor,NA,NA,028C+0303+02D0,vʷ,NA,FALSE,consonant,fake,0,-,-,-,-,+,-,+,+,-,-,-,-,-,+,+,-,-,0,0,0,-,0,0,0,0,0,0,0,+,-,-,-,-,-,-,-
1,kore1280,kor,NA,NA,028C+0324+02D0,ʋ,NA,FALSE,consonant,fake,0,-,-,-,-,-,+,+,0,+,-,-,-,-,+,-,+,-,0,0,0,-,0,0,0,0,0,0,0,+,-,-,-,-,-,-,-
1,kore1280,kor,NA,NA,028C+0324+0303+02D0,ʌ,NA,FALSE,vowel,fake,0,-,+,-,-,-,+,+,0,+,-,-,-,-,-,0,0,-,0,0,0,+,-,-,-,+,-,-,-,+,-,-,-,0,-,-,0
1,kore1280,kor,NA,NA,028C+032F+0065,ʌ̆,NA,FALSE,vowel,fake,0,-,+,+,-,-,+,+,0,+,-,-,-,-,-,0,0,-,0,0,0,+,-,-,-,+,-,-,-,+,-,-,-,0,-,-,0
1,kore1280,kor,NA,NA,028C+0069+032F,ʌ̃,NA,FALSE,vowel,fake,0,-,+,-,-,-,+,+,0,+,-,-,+,-,-,0,0,-,0,0,0,+,-,-,-,+,-,-,-,+,-,-,-,0,-,-,0
1,kore1280,kor,NA,NA,028C+0075+032F,ʌ̤,NA,FALSE,vowel,fake,0,-,+,-,-,-,+,+,0,+,-,-,-,-,-,0,0,-,0,0,0,+,-,-,-,+,-,-,-,+,-,+,-,0,-,-,0
1,kore1280,kor,NA,NA,77,ʌ̤̃,NA,FALSE,vowel,fake,0,-,+,-,-,-,+,+,0,+,-,-,+,-,-,0,0,-,0,0,0,+,-,-,-,+,-,-,-,+,-,+,-,0,-,-,0
1,kore1280,kor,NA,NA,0077+0325,ʌː,NA,FALSE,vowel,fake,0,-,+,-,+,-,+,+,0,+,-,-,-,-,-,0,0,-,0,0,0,+,-,-,-,+,-,-,-,+,-,-,-,0,-,-,0
1,kore1280,kor,NA,NA,0077+0325+02B2,ʌ̃ː,NA,FALSE,vowel,fake,0,-,+,-,+,-,+,+,0,+,-,-,+,-,-,0,0,-,0,0,0,+,-,-,-,+,-,-,-,+,-,-,-,0,-,-,0
1,kore1280,kor,NA,NA,028D,ʌ̤ː,NA,FALSE,vowel,fake,0,-,+,-,+,-,+,+,0,+,-,-,-,-,-,0,0,-,0,0,0,+,-,-,-,+,-,-,-,+,-,+,-,0,-,-,0
1,kore1280,kor,NA,NA,028D+02B2,ʌ̤̃ː,NA,FALSE,vowel,fake,0,-,+,-,+,-,+,+,0,+,-,-,+,-,-,0,0,-,0,0,0,+,-,-,-,+,-,-,-,+,-,+,-,0,-,-,0
1,kore1280,kor,NA,NA,78,ʌ̯e,NA,FALSE,vowel,fake,0,-,"-,+",-,-,-,+,+,0,+,-,-,-,-,-,0,0,-,0,0,0,+,-,-,"-,+","+,-","-,+",-,-,+,-,-,-,0,-,-,0
1,kore1280,kor,NA,NA,0078+02B0,ʌi̯,NA,FALSE,vowel,fake,0,-,"+,-",-,-,-,+,+,0,+,-,-,-,-,-,0,0,-,0,0,0,+,"-,+",-,"-,+","+,-","-,+",-,-,+,-,-,-,0,-,-,0
1,kore1280,kor,NA,NA,0078+02B7,ʌu̯,NA,FALSE,vowel,fake,0,-,"+,-",-,-,-,+,+,0,+,-,-,-,-,"-,+",+,-,-,0,0,0,+,"-,+",-,-,+,"-,+",-,-,+,-,-,-,0,-,-,0
1,kore1280,kor,NA,NA,79,w,NA,FALSE,consonant,fake,0,-,-,-,-,-,+,+,0,+,-,-,-,-,+,+,-,-,0,0,0,+,+,-,-,+,+,0,0,+,-,-,-,-,-,-,-
1,kore1280,kor,NA,NA,0079+0303,w̥,NA,FALSE,consonant,fake,0,-,-,-,-,-,+,+,0,+,-,-,-,-,+,+,-,-,0,0,0,+,+,-,-,+,+,0,0,-,-,-,-,-,-,-,-
1,kore1280,kor,NA,NA,0079+0324,w̥ʲ,NA,FALSE,consonant,fake,0,-,-,-,-,-,+,+,0,+,-,-,-,-,+,+,-,-,0,0,0,+,+,-,+,-,+,0,0,-,-,-,-,-,-,-,-
1,kore1280,kor,NA,NA,0079+0330,ʍ,NA,FALSE,consonant,fake,0,-,-,-,-,-,-,+,+,-,-,-,-,-,+,+,-,-,0,0,0,+,+,-,-,+,+,0,0,-,-,+,-,-,-,-,-
1,kore1280,kor,NA,NA,0079+02DE,ʍʲ,NA,FALSE,consonant,fake,0,-,-,-,-,-,-,+,+,-,-,-,-,-,+,+,-,-,0,0,0,+,+,-,+,-,+,0,0,-,-,+,-,-,-,-,-
1,kore1280,kor,NA,NA,0079+02DE+02D0,x,NA,FALSE,consonant,fake,0,-,-,-,-,+,-,+,+,-,-,-,-,-,-,0,0,-,0,0,0,+,+,-,-,-,0,0,0,-,-,-,-,-,-,-,-
1,kore1280,kor,NA,NA,0079+02D0,xʰ,NA,FALSE,consonant,fake,0,-,-,-,-,+,-,+,+,-,-,-,-,-,-,0,0,-,0,0,0,+,+,-,-,-,0,0,0,-,-,+,-,-,-,-,-
1,kore1280,kor,NA,NA,0079+0303+02D0,xʷ,NA,FALSE,consonant,fake,0,-,-,-,-,+,-,+,+,-,-,-,-,-,+,+,-,-,0,0,0,+,+,-,-,-,0,0,0,-,-,-,-,-,-,-,-
1,kore1280,kor,NA,NA,0079+032F+0250,y,NA,FALSE,vowel,fake,0,-,+,-,-,-,+,+,0,+,-,-,-,-,+,+,-,-,0,0,0,+,+,-,+,-,+,-,-,+,-,-,-,0,-,-,0
1,kore1280,kor,NA,NA,0079+032F+0065,ỹ,NA,FALSE,vowel,fake,0,-,+,-,-,-,+,+,0,+,-,-,+,-,+,+,-,-,0,0,0,+,+,-,+,-,+,-,-,+,-,-,-,0,-,-,0
1,kore1280,kor,NA,NA,0079+032F+025B,y̤,NA,FALSE,vowel,fake,0,-,+,-,-,-,+,+,0,+,-,-,-,-,+,+,-,-,0,0,0,+,+,-,+,-,+,-,-,+,-,+,-,0,-,-,0
1,kore1280,kor,NA,NA,0079+032F+025C+0303,y̰,NA,FALSE,vowel,fake,0,-,+,-,-,-,+,+,0,+,-,-,-,-,+,+,-,-,0,0,0,+,+,-,+,-,+,-,-,+,-,-,+,0,-,-,0
1,kore1280,kor,NA,NA,0079+032F+0069,y˞,NA,FALSE,vowel,fake,0,-,+,-,-,-,+,+,0,+,-,-,-,-,+,+,-,+,+,+,+,+,+,-,+,-,+,-,-,+,-,-,-,0,-,-,0
1,kore1280,kor,NA,NA,028F,y˞ː,NA,FALSE,vowel,fake,0,-,+,-,+,-,+,+,0,+,-,-,-,-,+,+,-,+,+,+,+,+,+,-,+,-,+,-,-,+,-,-,-,0,-,-,0
1,kore1280,kor,NA,NA,007A,yː,NA,FALSE,vowel,fake,0,-,+,-,+,-,+,+,0,+,-,-,-,-,+,+,-,-,0,0,0,+,+,-,+,-,+,-,-,+,-,-,-,0,-,-,0
1,kore1280,kor,NA,NA,007A+0329,ỹː,NA,FALSE,vowel,fake,0,-,+,-,+,-,+,+,0,+,-,-,+,-,+,+,-,-,0,0,0,+,+,-,+,-,+,-,-,+,-,-,-,0,-,-,0
1,kore1280,kor,NA,NA,007A+032A,y̯ɐ,NA,FALSE,vowel,fake,0,-,"-,+",-,-,-,+,+,0,+,-,-,-,-,+,+,-,-,0,0,0,+,"+,-","-,+","+,-",-,+,-,-,+,-,-,-,0,-,-,0
1,kore1280,kor,NA,NA,007A+033A,y̯e,NA,FALSE,vowel,fake,0,-,"-,+",-,-,-,+,+,0,+,-,-,-,-,"+,-",+,-,-,0,0,0,+,"+,-",-,+,-,+,-,-,+,-,-,-,0,-,-,0
1,kore1280,kor,NA,NA,290,y̯ɛ,NA,FALSE,vowel,fake,0,-,"-,+",-,-,-,+,+,0,+,-,-,-,-,"+,-",+,-,-,0,0,0,+,"+,-",-,+,-,"+,-",-,-,+,-,-,-,0,-,-,0
1,kore1280,kor,NA,NA,0290+0329,y̯ɜ̃,NA,FALSE,vowel,fake,0,-,"-,+",-,-,-,+,+,0,+,-,-,"-,+",-,"+,-",+,-,-,0,0,0,+,"+,-",-,"+,-",-,"+,-",-,-,+,-,-,-,0,-,-,0
1,kore1280,kor,NA,NA,291,y̯i,NA,FALSE,vowel,fake,0,-,"-,+",-,-,-,+,+,0,+,-,-,-,-,"+,-",+,-,-,0,0,0,+,+,-,+,-,+,-,-,+,-,-,-,0,-,-,0
1,kore1280,kor,NA,NA,292,ʏ,NA,FALSE,vowel,fake,0,-,+,-,-,-,+,+,0,+,-,-,-,-,+,+,-,-,0,0,0,+,+,-,+,-,-,-,-,+,-,-,-,0,-,-,0
1,kore1280,kor,NA,NA,0292+0329,z,NA,FALSE,consonant,fake,0,-,-,-,-,+,-,+,+,-,-,-,-,-,-,0,0,+,+,-,+,-,0,0,0,0,0,0,0,+,-,-,-,-,-,-,-
1,kore1280,kor,NA,NA,294,z,NA,FALSE,consonant,fake,0,-,-,-,-,+,-,+,+,-,-,-,-,-,-,0,0,+,+,-,+,-,0,0,0,0,0,0,0,+,-,-,-,-,-,-,-
1,kore1280,kor,NA,NA,0294+02B7,z̩,NA,FALSE,consonant,fake,0,-,+,-,-,+,-,+,+,-,-,-,-,-,-,0,0,+,+,-,+,-,0,0,0,0,0,0,0,+,-,-,-,-,-,-,-
1,kore1280,kor,NA,NA,02C0+029D,z̪,NA,FALSE,consonant,fake,0,-,-,-,-,+,-,+,+,-,-,-,-,-,-,0,0,+,+,+,+,-,0,0,0,0,0,0,0,+,-,-,-,-,-,-,-
1,kore1280,kor,NA,NA,02C0+006D,z̺,NA,FALSE,consonant,fake,0,-,-,-,-,+,-,+,+,-,-,-,-,-,-,0,0,+,+,-,+,-,0,0,0,0,0,0,0,+,-,-,-,-,-,-,-
1,kore1280,kor,NA,NA,02C0+006E,ʐ,NA,FALSE,consonant,fake,0,-,-,-,-,+,-,+,+,-,-,-,-,-,-,0,0,+,-,-,+,-,0,0,0,0,0,0,0,+,-,-,-,-,-,-,-
1,kore1280,kor,NA,NA,03B2,ʐ̩,NA,FALSE,consonant,fake,0,-,+,-,-,+,-,+,+,-,-,-,-,-,-,0,0,+,-,-,+,-,0,0,0,0,0,0,0,+,-,-,-,-,-,-,-
1,kore1280,kor,NA,NA,03B2+02B2,ʑ,NA,FALSE,consonant,fake,0,-,-,-,-,+,-,+,+,-,-,-,-,-,-,0,0,+,+,+,+,+,+,-,+,-,0,0,0,+,-,-,-,-,-,-,-
1,kore1280,kor,NA,NA,03B2+02B7,ʒ,NA,FALSE,consonant,fake,0,-,-,-,-,+,-,+,+,-,-,-,-,-,-,0,0,+,-,+,+,-,0,0,0,0,0,0,0,+,-,-,-,-,-,-,-
1,kore1280,kor,NA,NA,03B8,ʒ̩,NA,FALSE,consonant,fake,0,-,+,-,-,+,-,+,+,-,-,-,-,-,-,0,0,+,-,+,+,-,0,0,0,0,0,0,0,+,-,-,-,-,-,-,-
1,kore1280,kor,NA,NA,03C7,ʔ,NA,FALSE,consonant,fake,0,-,-,-,-,+,-,-,-,-,-,-,-,-,-,0,0,-,0,0,0,-,0,0,0,0,0,0,0,-,-,-,+,-,-,-,-
1,kore1280,kor,NA,NA,006E+0064+0299,ʔʷ,NA,FALSE,consonant,fake,0,-,-,-,-,+,-,-,-,-,-,-,-,-,+,+,-,-,0,0,0,-,0,0,0,0,0,0,0,-,-,-,+,-,-,-,-
1,kore1280,kor,NA,NA,006E+0064+0072,ˀʝ,NA,FALSE,consonant,fake,0,-,-,-,-,+,-,+,+,-,-,-,-,-,-,0,0,+,-,+,-,+,+,-,+,-,0,0,0,+,-,-,"+,-",-,-,-,-
1,kore1280,kor,NA,NA,0064+0299,ˀm,NA,FALSE,consonant,fake,0,-,-,-,-,+,+,-,0,-,-,-,+,-,+,-,-,-,0,0,0,-,0,0,0,0,0,0,0,+,-,-,"+,-",-,-,-,-
1,kore1280,kor,NA,NA,006D+0299,ˀn,NA,FALSE,consonant,fake,0,-,-,-,-,+,+,-,0,-,-,-,+,-,-,0,0,+,+,-,-,-,0,0,0,0,0,0,0,+,-,-,"+,-",-,-,-,-
1,kore1280,kor,NA,NA,6.00E+72,β,NA,FALSE,consonant,fake,0,-,-,-,-,+,-,+,+,-,-,-,-,-,+,-,-,-,0,0,0,-,0,0,0,0,0,0,0,+,-,-,-,-,-,-,-
1,kore1280,kor,NA,NA,299,βʲ,NA,FALSE,consonant,fake,0,-,-,-,-,+,-,+,+,-,-,-,-,-,+,-,-,-,0,0,0,+,+,-,+,-,0,0,0,+,-,-,-,-,-,-,-
1,kore1280,kor,NA,NA,72,βʷ,NA,FALSE,consonant,fake,0,-,-,-,-,+,-,+,+,-,-,-,-,-,+,+,-,-,0,0,0,-,0,0,0,0,0,0,0,+,-,-,-,-,-,-,-
1,kore1280,kor,NA,NA,0072+0329,βʷˠ,NA,FALSE,consonant,fake,0,-,-,-,-,+,-,+,+,-,-,-,-,-,+,+,-,-,0,0,0,+,+,-,-,-,0,0,0,+,-,-,-,-,-,-,-
1,kore1280,kor,NA,NA,0072+0325,θ,NA,FALSE,consonant,fake,0,-,-,-,-,+,-,+,+,-,-,-,-,-,-,0,0,+,+,+,-,-,0,0,0,0,0,0,0,-,-,-,-,-,-,-,-
1,kore1280,kor,NA,NA,0072+02D0,χ,NA,FALSE,consonant,fake,0,-,-,-,-,+,-,+,+,-,-,-,-,-,-,0,0,-,0,0,0,+,-,-,-,+,0,0,0,-,-,-,-,-,-,-,-
1,kore1280,kor,NA,NA,0072+02B1,rʱ,NA,FALSE,consonant,fake,0,-,-,-,-,+,+,+,0,+,-,+,-,-,-,0,0,+,+,-,-,-,0,0,0,0,0,0,0,+,-,+,-,-,-,-,-
1,kore1280,kor,NA,NA,280,ʀ,NA,FALSE,consonant,fake,0,-,-,-,-,+,+,+,0,+,-,+,-,-,-,0,0,-,0,0,0,+,-,-,-,+,0,0,0,+,-,-,-,-,-,-,-
1,kore1280,kor,NA,NA,0263+031E,ɣ̞,NA,FALSE,consonant,fake,0,-,-,-,-,-,+,+,0,+,-,-,-,-,-,0,0,-,0,0,0,+,+,-,-,+,+,0,0,+,-,-,-,-,-,-,-
1,kore1280,kor,NA,NA,0279+0353,ɹ͓,NA,FALSE,consonant,fake,0,-,-,-,-,+,-,+,+,-,-,-,-,-,-,0,0,+,+,-,-,-,0,0,0,0,0,0,0,+,-,-,-,-,-,-,-
1,kore1280,kor,NA,NA,0077+0353,w͓,NA,FALSE,consonant,fake,0,-,-,-,-,+,-,+,+,-,-,-,-,-,+,+,-,-,0,0,0,-,0,0,0,0,0,0,0,+,-,-,-,-,-,-,-